{
"type": "FeatureCollection",
"name": "ADMINISTRASIDESA_AR_Ngemplakseneng",
"crs": { "type": "name", "properties": { "name": "urn:ogc:def:crs:OGC:1.3:CRS84" } },
"features": [
{"type":"Feature","properties":{"KDPPUM":"","NAMOBJ":"Ngemplakseneng","REMARK":"Wilayah Administrasi Keluruhan/Desa","KDPBPS":"","FCODE":"","LUASWH":0.0,"UUPP":"","srs_id":"","lcode":"BA0020","METADATA":"","KDEBPS":"","KDEPUM":"","KDCBPS":"","KDCPUM":"","KDBBPS":"","KDBPUM":"","WADMKD":"","WIADKD":"","WADMKC":"Kemalang","WIADKC":"","WADMKK":"Klaten","WIADKK":"","WADMPR":"Jawa Tengah","WIADPR":"","TIPADM":0,"SHAPE_Leng":0.10167963831,"SHAPE_Area":0.00031213918},"geometry":{"type":"MultiPolygon","coordinates":[[[[110.488766,-7.651744,0.0],[110.48883,-7.652303,0.0],[110.489052000000115,-7.652953,0.0],[110.489144,-7.653176,0.0],[110.489217,-7.653804,0.0],[110.489223,-7.653882,0.0],[110.489511,-7.653798999999896,0.0],[110.490238,-7.653604,0.0],[110.491539,-7.653553,0.0],[110.491619,-7.654205,0.0],[110.491679,-7.654752000999967,0.0],[110.493517,-7.654824,0.0],[110.493529,-7.654936,0.0],[110.493562,-7.655091,0.0],[110.493605,-7.655261,0.0],[110.493602,-7.655444,0.0],[110.493537,-7.655625999999895,0.0],[110.493424,-7.655827,0.0],[110.493489,-7.655994,0.0],[110.493598000000105,-7.65599,0.0],[110.493803,-7.655981000999958,0.0],[110.493859,-7.655978,0.0],[110.493995,-7.655972,0.0],[110.494603,-7.655901,0.0],[110.4951030000001,-7.655829,0.0],[110.495196,-7.655815,0.0],[110.495669,-7.655723,0.0],[110.496517,-7.65557,0.0],[110.496972000000113,-7.655488,0.0],[110.497152,-7.655463,0.0],[110.49725,-7.655458,0.0],[110.498093,-7.655359,0.0],[110.498618,-7.655251,0.0],[110.498917000000105,-7.655175,0.0],[110.498947,-7.655172,0.0],[110.499116,-7.655126,0.0],[110.499262,-7.655085999999891,0.0],[110.499627,-7.654993,0.0],[110.499747,-7.655032,0.0],[110.499915,-7.655122,0.0],[110.499962,-7.655147,0.0],[110.5,-7.655148,0.0],[110.500262000000106,-7.655458,0.0],[110.500494,-7.655653,0.0],[110.500546,-7.655751,0.0],[110.500691,-7.655835,0.0],[110.500729,-7.655844000999902,0.0],[110.500939,-7.655899,0.0],[110.501209,-7.656034,0.0],[110.501673,-7.656151,0.0],[110.502101,-7.6562,0.0],[110.502369,-7.656271,0.0],[110.502561,-7.656326,0.0],[110.502899,-7.656863,0.0],[110.503067,-7.657151000999953,0.0],[110.503268,-7.65802,0.0],[110.503283,-7.658075,0.0],[110.50335,-7.658315,0.0],[110.503457,-7.658504,0.0],[110.50379700000012,-7.658843,0.0],[110.503841000000108,-7.658886,0.0],[110.504309,-7.659282,0.0],[110.505029,-7.660073,0.0],[110.505439,-7.660731,0.0],[110.505578,-7.661014,0.0],[110.505712000000116,-7.661549,0.0],[110.505747,-7.662537,0.0],[110.505788,-7.662906,0.0],[110.505976000000103,-7.663401,0.0],[110.506298000000101,-7.66422,0.0],[110.506414000000106,-7.664479,0.0],[110.506554,-7.66465,0.0],[110.506784,-7.664785,0.0],[110.507266,-7.664902,0.0],[110.507566,-7.664958,0.0],[110.507808,-7.665093,0.0],[110.50903,-7.666495,0.0],[110.509067,-7.666595,0.0],[110.509067,-7.666666,0.0],[110.509026,-7.666868,0.0],[110.508838000000125,-7.667124,0.0],[110.508546000000123,-7.667437,0.0],[110.508116,-7.667744,0.0],[110.506987,-7.668375,0.0],[110.506908,-7.66843,0.0],[110.506901,-7.668465,0.0],[110.50693,-7.668774001000013,0.0],[110.507477,-7.670269,0.0],[110.507488,-7.67036,0.0],[110.507482,-7.67038,0.0],[110.507443,-7.670638,0.0],[110.507445,-7.670963,0.0],[110.507447,-7.671465000999913,0.0],[110.506638,-7.67315,0.0],[110.506266,-7.674503,0.0],[110.505519,-7.674604,0.0],[110.504976,-7.675784,0.0],[110.504806000000116,-7.675759,0.0],[110.504768,-7.675754,0.0],[110.50466,-7.675765,0.0],[110.50458500000012,-7.675758,0.0],[110.503692,-7.675811,0.0],[110.503555,-7.675817,0.0],[110.503524,-7.675816,0.0],[110.503073,-7.6758,0.0],[110.50218,-7.675768,0.0],[110.502044000000112,-7.675725,0.0],[110.502011,-7.675716,0.0],[110.501651,-7.67561,0.0],[110.501639,-7.675605,0.0],[110.501488,-7.677069,0.0],[110.500911,-7.677069,0.0],[110.50088,-7.677271,0.0],[110.500704,-7.677657,0.0],[110.5,-7.679048,0.0],[110.499771,-7.678114,0.0],[110.499722000000105,-7.677908,0.0],[110.499682,-7.677752,0.0],[110.499663,-7.677688,0.0],[110.499463,-7.676814,0.0],[110.499383000000122,-7.676551,0.0],[110.499356,-7.676477001,0.0],[110.499356,-7.676409,0.0],[110.49916,-7.67565,0.0],[110.499073,-7.675291,0.0],[110.498897,-7.674755,0.0],[110.498884000000132,-7.674726,0.0],[110.498768,-7.674677,0.0],[110.497516,-7.674225,0.0],[110.497274,-7.674138000999921,0.0],[110.497164,-7.674108,0.0],[110.497051,-7.674060000999951,0.0],[110.496745,-7.673932,0.0],[110.496724000000114,-7.673426,0.0],[110.496644,-7.672988,0.0],[110.496561,-7.672575,0.0],[110.496412,-7.671835,0.0],[110.496344000000107,-7.67147,0.0],[110.496323,-7.671353,0.0],[110.497995,-7.671015,0.0],[110.49797,-7.670908,0.0],[110.497993,-7.670251,0.0],[110.49859,-7.670014,0.0],[110.498608,-7.669616,0.0],[110.498898,-7.668786,0.0],[110.498666,-7.668163,0.0],[110.497697,-7.667949,0.0],[110.497705,-7.666494,0.0],[110.497737,-7.665506,0.0],[110.496893,-7.665556000999942,0.0],[110.496395,-7.665534,0.0],[110.496256000000116,-7.664775,0.0],[110.495448,-7.664589,0.0],[110.495266,-7.664554,0.0],[110.494909,-7.664544,0.0],[110.494421,-7.664539,0.0],[110.4939210000001,-7.664536,0.0],[110.493084,-7.665787,0.0],[110.493014000000102,-7.665836,0.0],[110.493024,-7.66588,0.0],[110.488173,-7.665874,0.0],[110.487172,-7.665499,0.0],[110.486705,-7.665174,0.0],[110.486689,-7.665050000999909,0.0],[110.486658,-7.664978,0.0],[110.486501,-7.664671999999896,0.0],[110.486465000000109,-7.664429,0.0],[110.486556,-7.663943,0.0],[110.486672,-7.663379,0.0],[110.486621,-7.662948,0.0],[110.486284,-7.662625,0.0],[110.486204,-7.662463,0.0],[110.486167,-7.66223,0.0],[110.486172,-7.661857,0.0],[110.486161,-7.661547,0.0],[110.485942,-7.661271,0.0],[110.485854,-7.661152,0.0],[110.4858100000001,-7.66101,0.0],[110.485808000000105,-7.660964,0.0],[110.485901,-7.660577,0.0],[110.48591,-7.660539,0.0],[110.485985,-7.65969,0.0],[110.485986,-7.659577,0.0],[110.485987,-7.659446,0.0],[110.485927,-7.659297000999967,0.0],[110.485786,-7.659071,0.0],[110.485731,-7.658787,0.0],[110.485304,-7.658412,0.0],[110.485048000000106,-7.658186,0.0],[110.48496,-7.658068000999975,0.0],[110.4848590000001,-7.657875999999899,0.0],[110.484803,-7.658011,0.0],[110.484786,-7.657983,0.0],[110.484631,-7.657944,0.0],[110.483772,-7.657857,0.0],[110.48351,-7.65782,0.0],[110.483066,-7.657777,0.0],[110.483176000000114,-7.657754,0.0],[110.483249,-7.657451,0.0],[110.483254,-7.657383,0.0],[110.483271,-7.6563,0.0],[110.483262000000124,-7.655873,0.0],[110.484572,-7.655429,0.0],[110.484616,-7.654415,0.0],[110.484975000000105,-7.654196,0.0],[110.485354000000115,-7.654118,0.0],[110.485683,-7.653909,0.0],[110.485947,-7.653906,0.0],[110.486255,-7.653792,0.0],[110.486260000000115,-7.653692,0.0],[110.486297,-7.653608,0.0],[110.486367,-7.653529,0.0],[110.486307,-7.653405,0.0],[110.486269,-7.653329001,0.0],[110.486341,-7.652936,0.0],[110.486138,-7.652498,0.0],[110.486072,-7.65235,0.0],[110.48615,-7.651957,0.0],[110.486165,-7.651745,0.0],[110.48631,-7.651748,0.0],[110.486838,-7.651762,0.0],[110.487013,-7.651747,0.0],[110.487117,-7.65172,0.0],[110.487444,-7.651716,0.0],[110.487861,-7.651721,0.0],[110.488397,-7.651746,0.0],[110.488766,-7.651744,0.0]]]]}}
]
}
