{
"type": "FeatureCollection",
"name": "AGRILADANG_AR_Clipped",
"crs": { 
    "type": "name", 
    "properties": { "name": "urn:ogc:def:crs:OGC:1.3:CRS84" } },
"features": [
{"type":"Feature","properties":{"fid":1,"NAMOBJ":"","FCODE":"","REMARK":"Ladang","AQDATE":"","PUDATE":"","KODLCO":"","SRS_ID":"","lcode":"FA0040","METADATA":"","JNSLDG":0,"TNMLDG":0,"TIPLDG":0,"SHAPE_Leng":0.01882958056,"SHAPE_Area":6.08741e-06},"geometry":{"type":"MultiPolygon","coordinates":[[[[110.491804060000092,-7.65592395099994,0.0],[110.4924761,-7.655987865999988,0.0],[110.492800099000078,-7.656006876999962,0.0],[110.493072091000016,-7.65600195199991,0.0],[110.493489050000065,-7.655994935999951,0.0],[110.493503061000069,-7.656031941,0.0],[110.49349710300001,-7.656392950999932,0.0],[110.493475052000051,-7.656515916999981,0.0],[110.493271082000049,-7.656720873999975,0.0],[110.493049104000079,-7.657043918999969,0.0],[110.492914041000091,-7.657331886999904,0.0],[110.492761055000045,-7.657602921999947,0.0],[110.492676102000118,-7.657684936999983,0.0],[110.492553078000071,-7.657843866999899,0.0],[110.492493112000076,-7.657975921999901,0.0],[110.492615064000049,-7.658279927999919,0.0],[110.492675083000037,-7.658419901999954,0.0],[110.492709104000099,-7.658542934,0.0],[110.492858054000081,-7.658713940999947,0.0],[110.492993046000052,-7.658865940999911,0.0],[110.493007072000054,-7.658890916999935,0.0],[110.494002101000049,-7.658947884999941,0.0],[110.493991090000037,-7.659218906999984,0.0],[110.493965098000018,-7.659703879999965,0.0],[110.49391911100011,-7.659710880000011,0.0],[110.492898073,-7.65970787099994,0.0],[110.492931055000071,-7.660014936999945,0.0],[110.493016060000087,-7.660267893,0.0],[110.493095068000059,-7.660471917999919,0.0],[110.493132042000099,-7.660816880999951,0.0],[110.493098089000043,-7.661015888999986,0.0],[110.49307604100008,-7.661135869999965,0.0],[110.493132079000105,-7.661417912999942,0.0],[110.49317206400012,-7.661808910999964,0.0],[110.493380057000095,-7.662377901999969,0.0],[110.493451092000029,-7.662622883999989,0.0],[110.493447074000045,-7.662732938999946,0.0],[110.493445051000066,-7.662799948999984,0.0],[110.493328109000061,-7.662935916999954,0.0],[110.492807046000024,-7.662838898999921,0.0],[110.492803074000051,-7.6625939059999,0.0],[110.492699081000069,-7.662148932999942,0.0],[110.492650087000101,-7.661979942,0.0],[110.492723056,-7.661600923999986,0.0],[110.492766075000105,-7.661322886999896,0.0],[110.492722060000105,-7.661115918999913,0.0],[110.492612076000057,-7.660805868999928,0.0],[110.492551103000082,-7.660650881999983,0.0],[110.492375045000074,-7.660199944999976,0.0],[110.492226063000103,-7.659740901999919,0.0],[110.49218809000007,-7.65929293199998,0.0],[110.492103072000049,-7.658671903999933,0.0],[110.492038073000089,-7.657876902999968,0.0],[110.49190708,-7.656873912999936,0.0],[110.491812055000125,-7.655991876999964,0.0],[110.491804060000092,-7.65592395099994,0.0]]]]}},
{"type":"Feature","properties":{"fid":2,"NAMOBJ":"","FCODE":"","REMARK":"Ladang","AQDATE":"","PUDATE":"","KODLCO":"","SRS_ID":"","lcode":"FA0040","METADATA":"","JNSLDG":0,"TNMLDG":0,"TIPLDG":0,"SHAPE_Leng":0.00384469572,"SHAPE_Area":8.1688e-07},"geometry":{"type":"MultiPolygon","coordinates":[[[[110.494187464872525,-7.664537598789148,0.0],[110.493958050000046,-7.664534917,0.0],[110.493927097000068,-7.664535875999908,0.0],[110.493895101000078,-7.664279906999957,0.0],[110.493834104000101,-7.663320950999926,0.0],[110.493837063000072,-7.663220934,0.0],[110.494482098000063,-7.663307876,0.0],[110.494646112000055,-7.6633229,0.0],[110.494612048000079,-7.663615869999903,0.0],[110.494530045000033,-7.663858953999943,0.0],[110.494433056,-7.664192906999952,0.0],[110.494388234797739,-7.664538803408693,0.0],[110.494187464872525,-7.664537598789148,0.0]]]]}},
{"type":"Feature","properties":{"fid":3,"NAMOBJ":"","FCODE":"","REMARK":"Ladang","AQDATE":"","PUDATE":"","KODLCO":"","SRS_ID":"","lcode":"FA0040","METADATA":"","JNSLDG":0,"TNMLDG":0,"TIPLDG":0,"SHAPE_Leng":0.00502872787,"SHAPE_Area":1.38881e-06},"geometry":{"type":"MultiPolygon","coordinates":[[[[110.49754208500012,-7.658159904999936,0.0],[110.49752211200007,-7.658998940999902,0.0],[110.497402101,-7.659012908,0.0],[110.496158078000093,-7.658982878,0.0],[110.495895042000086,-7.658998939,0.0],[110.495824074000083,-7.659008759,0.0],[110.495822038000085,-7.658965935000014,0.0],[110.495828040000049,-7.65862988499992,0.0],[110.495763105,-7.658345932999962,0.0],[110.496012099000012,-7.658317917999954,0.0],[110.496171102000105,-7.658269901999978,0.0],[110.49667810400004,-7.65817689399992,0.0],[110.497060079000036,-7.658103905999921,0.0],[110.497225108000094,-7.658080947999975,0.0],[110.497459077000087,-7.658113867999946,0.0],[110.49754208500012,-7.658159904999936,0.0]]]]}},
{"type":"Feature","properties":{"fid":4,"NAMOBJ":"","FCODE":"","REMARK":"Ladang","AQDATE":"","PUDATE":"","KODLCO":"","SRS_ID":"","lcode":"FA0040","METADATA":"","JNSLDG":0,"TNMLDG":0,"TIPLDG":0,"SHAPE_Leng":0.00748701613,"SHAPE_Area":2.73458e-06},"geometry":{"type":"MultiPolygon","coordinates":[[[[110.484803,-7.658011,0.0],[110.484786,-7.657983,0.0],[110.484631,-7.657944,0.0],[110.483772,-7.657857,0.0],[110.48351,-7.65782,0.0],[110.483068269735625,-7.657777219816698,0.0],[110.483176060000034,-7.65775495,0.0],[110.483249094000129,-7.657451899999975,0.0],[110.4832541090001,-7.657384892999938,0.0],[110.483271040000076,-7.656300868999951,0.0],[110.483262060000044,-7.655873913999885,0.0],[110.483262016620913,-7.655873788563903,0.0],[110.483262000000124,-7.655873,0.0],[110.484063483354063,-7.655601352206671,0.0],[110.484089072000074,-7.655694938999909,0.0],[110.484155109000127,-7.655863950999949,0.0],[110.484173039000012,-7.656185920999944,0.0],[110.484211108000054,-7.65642191199993,0.0],[110.484293112000088,-7.656554948999924,0.0],[110.484464091000021,-7.656743891999925,0.0],[110.484631065000073,-7.656968912999981,0.0],[110.484813079000034,-7.657369938999944,0.0],[110.484825107000049,-7.657812904,0.0],[110.484858815304918,-7.657876445247205,0.0],[110.484803,-7.658011,0.0]]]]}},
{"type":"Feature","properties":{"fid":5,"NAMOBJ":"","FCODE":"","REMARK":"Ladang","AQDATE":"","PUDATE":"","KODLCO":"","SRS_ID":"","lcode":"FA0040","METADATA":"","JNSLDG":0,"TNMLDG":0,"TIPLDG":0,"SHAPE_Leng":0.00577682758,"SHAPE_Area":2.06609e-06},"geometry":{"type":"MultiPolygon","coordinates":[[[[110.503202063000089,-7.66218694899989,0.0],[110.503222043000065,-7.66300993299995,0.0],[110.503166046000047,-7.663137924999971,0.0],[110.503082062000018,-7.663351888,0.0],[110.503089093000071,-7.663606923999962,0.0],[110.503089065000069,-7.663606926999963,0.0],[110.503089092000067,-7.663607917999956,0.0],[110.502405070000052,-7.663677939999976,0.0],[110.502337044000015,-7.663669902999933,0.0],[110.502241091000073,-7.663631898999897,0.0],[110.50223707,-7.663617876999981,0.0],[110.502166063000089,-7.663215900999939,0.0],[110.502123057000077,-7.663036879999959,0.0],[110.502106108000092,-7.663017868999896,0.0],[110.502020064000078,-7.663009900999947,0.0],[110.501974080000096,-7.663013917999924,0.0],[110.501881093000037,-7.662224943999925,0.0],[110.502008061000069,-7.662207907999937,0.0],[110.501980105000058,-7.661881946999967,0.0],[110.502832043000026,-7.66174791099998,0.0],[110.503024079000028,-7.661903953000012,0.0],[110.503172073000101,-7.662065911999912,0.0],[110.503202063000089,-7.66218694899989,0.0]]]]}},
{"type":"Feature","properties":{"fid":6,"NAMOBJ":"","FCODE":"","REMARK":"Ladang","AQDATE":"","PUDATE":"","KODLCO":"","SRS_ID":"","lcode":"FA0040","METADATA":"","JNSLDG":0,"TNMLDG":0,"TIPLDG":0,"SHAPE_Leng":0.03469218642,"SHAPE_Area":1.479127e-05},"geometry":{"type":"MultiPolygon","coordinates":[[[[110.50335,-7.658315,0.0],[110.503457,-7.658504,0.0],[110.50379700000012,-7.658843,0.0],[110.503841000000108,-7.658886,0.0],[110.504309,-7.659282,0.0],[110.505029,-7.660073,0.0],[110.505439,-7.660731,0.0],[110.505578,-7.661014,0.0],[110.505712000000116,-7.661549,0.0],[110.505729180909697,-7.662033992533948,0.0],[110.505711794,-7.661550006999947,0.0],[110.505577537000093,-7.661015379999943,0.0],[110.505438878000078,-7.660732157999957,0.0],[110.505029335000117,-7.660074585,0.0],[110.504309157000122,-7.659283080999964,0.0],[110.503841298000054,-7.658887430999913,0.0],[110.503797313000049,-7.658843699999936,0.0],[110.503457009000044,-7.658505079999985,0.0],[110.503350018000077,-7.658315946999968,0.0],[110.503283084000046,-7.658075944999917,0.0],[110.503283254781124,-7.658075912648585,0.0],[110.50335,-7.658315,0.0]]],[[[110.505976000000103,-7.663401,0.0],[110.506298000000101,-7.66422,0.0],[110.506414000000106,-7.664479,0.0],[110.506554,-7.66465,0.0],[110.506784,-7.664785,0.0],[110.507266,-7.664902,0.0],[110.507566,-7.664958,0.0],[110.507808,-7.665093,0.0],[110.50903,-7.666495,0.0],[110.509067,-7.666595,0.0],[110.509067,-7.666595642104589,0.0],[110.50903004700011,-7.666495912,0.0],[110.508896086000036,-7.666480927999904,0.0],[110.509029449000067,-7.666495820999982,0.0],[110.507807462000116,-7.665094035,0.0],[110.507565455000076,-7.664959370999954,0.0],[110.507265566000044,-7.66490313899992,0.0],[110.506783471000034,-7.664786196999925,0.0],[110.506553951000058,-7.664650642999989,0.0],[110.506414339000045,-7.664480012,0.0],[110.506298229000038,-7.664220871999957,0.0],[110.505975893000098,-7.663402334,0.0],[110.505819247077994,-7.662988272891234,0.0],[110.505976000000103,-7.663401,0.0]]],[[[110.50693,-7.668774001000013,0.0],[110.507477,-7.670269,0.0],[110.507488,-7.67036,0.0],[110.50748797319099,-7.670360089363574,0.0],[110.50747710900005,-7.670269902999967,0.0],[110.50693005400008,-7.668774922999907,0.0],[110.506912148195809,-7.668583786331899,0.0],[110.50693,-7.668774001000013,0.0]]]]}},
{"type":"Feature","properties":{"fid":7,"NAMOBJ":"","FCODE":"","REMARK":"Ladang","AQDATE":"","PUDATE":"","KODLCO":"","SRS_ID":"","lcode":"FA0040","METADATA":"","JNSLDG":0,"TNMLDG":0,"TIPLDG":0,"SHAPE_Leng":0.01852202773,"SHAPE_Area":6.95351e-06},"geometry":{"type":"MultiPolygon","coordinates":[[[[110.496517,-7.65557,0.0],[110.496972000000113,-7.655488,0.0],[110.497152,-7.655463,0.0],[110.49725,-7.655458,0.0],[110.498093,-7.655359,0.0],[110.498618,-7.655251,0.0],[110.498916222194964,-7.655175197702951,0.0],[110.498917097000032,-7.65517587699995,0.0],[110.498946107000023,-7.655173921999966,0.0],[110.499116097000055,-7.655126911999984,0.0],[110.499262080000065,-7.655086927999962,0.0],[110.499627105000059,-7.654993931,0.0],[110.499747053000036,-7.655032868000019,0.0],[110.499851953000103,-7.655089422,0.0],[110.499914042000086,-7.655122955000012,0.0],[110.499915063000088,-7.655144929999965,0.0],[110.499973060000087,-7.655224941999924,0.0],[110.500000002,-7.655307595999924,0.0],[110.500000102000016,-7.655307903999949,0.0],[110.50000021800011,-7.655307955999954,0.0],[110.500033054000085,-7.655322953999951,0.0],[110.500261072000029,-7.655458870999917,0.0],[110.50049410400004,-7.655653938999892,0.0],[110.500546100000079,-7.655751939999918,0.0],[110.50055408800003,-7.655889954999969,0.0],[110.500939103000078,-7.655899895999903,0.0],[110.50120906500004,-7.656034866999969,0.0],[110.501471083000041,-7.656249952999913,0.0],[110.501718055000055,-7.656543881999896,0.0],[110.501790104000065,-7.656820877999989,0.0],[110.502011066000051,-7.657882934999934,0.0],[110.501971084000033,-7.657997921999945,0.0],[110.501689090000056,-7.657407866999973,0.0],[110.501458110000044,-7.65718286799992,0.0],[110.50143707400008,-7.657077938999942,0.0],[110.501061106000051,-7.656486871999975,0.0],[110.501020060000116,-7.656423881999915,0.0],[110.500582076000029,-7.656508925999935,0.0],[110.50010976800003,-7.656600622999973,0.0],[110.500086919000097,-7.656126804999937,0.0],[110.500000222000025,-7.656147835,0.0],[110.500000095000104,-7.656147867,0.0],[110.500000001,-7.656147882,0.0],[110.499427079000029,-7.656242881999949,0.0],[110.499247094000069,-7.65626889899997,0.0],[110.499182046000016,-7.656273886999939,0.0],[110.499154080000011,-7.656084936999937,0.0],[110.498994073000091,-7.656161891,0.0],[110.498420061000019,-7.656275895999928,0.0],[110.498281385000013,-7.656304690999912,0.0],[110.498025068000032,-7.656357912999963,0.0],[110.497623086000075,-7.656472930999977,0.0],[110.497610068000057,-7.656415941999969,0.0],[110.497396068000029,-7.656376894999935,0.0],[110.497106085000013,-7.656358922999958,0.0],[110.49692110000008,-7.656313940999967,0.0],[110.496778044000052,-7.656216917999933,0.0],[110.496614074000078,-7.655974902999981,0.0],[110.496586099000069,-7.655922869999939,0.0],[110.496519050000117,-7.655593877999896,0.0],[110.496517058000038,-7.65557090499995,0.0],[110.496516965971992,-7.655570006139464,0.0],[110.496517,-7.65557,0.0]]]]}},
{"type":"Feature","properties":{"fid":8,"NAMOBJ":"","FCODE":"","REMARK":"Ladang","AQDATE":"","PUDATE":"","KODLCO":"","SRS_ID":"","lcode":"FA0040","METADATA":"","JNSLDG":0,"TNMLDG":0,"TIPLDG":0,"SHAPE_Leng":0.02697206502,"SHAPE_Area":1.425293e-05},"geometry":{"type":"MultiPolygon","coordinates":[[[[110.497737,-7.665506,0.0],[110.497710005086589,-7.665507599256696,0.0],[110.497680085000084,-7.665507925999956,0.0],[110.497659042000024,-7.665027870999937,0.0],[110.497523043000058,-7.664838884999932,0.0],[110.497433060000077,-7.664809931000024,0.0],[110.497372105000096,-7.664765908999934,0.0],[110.497345066000079,-7.66461593599996,0.0],[110.49736908200002,-7.664473889999931,0.0],[110.497495054000055,-7.663650895999959,0.0],[110.497509038000047,-7.663583899999923,0.0],[110.498248073000099,-7.663652948999951,0.0],[110.498243064000036,-7.664419924,0.0],[110.498271868000103,-7.664438423000016,0.0],[110.498570060000091,-7.664629933999963,0.0],[110.498576041000049,-7.664629940999964,0.0],[110.498955047000052,-7.664671891999971,0.0],[110.499103080000054,-7.663711912999945,0.0],[110.499402068000094,-7.663705930999983,0.0],[110.499407094000063,-7.663370873999972,0.0],[110.49940610700007,-7.663127873999938,0.0],[110.49940506600008,-7.66241895,0.0],[110.499413100000126,-7.662133907999943,0.0],[110.49942303900005,-7.661560921999962,0.0],[110.499426047000043,-7.660905901999945,0.0],[110.499417040000097,-7.6604879,0.0],[110.499403088000093,-7.659886942999924,0.0],[110.499409073000052,-7.65905186999993,0.0],[110.499559101000031,-7.659069950999916,0.0],[110.499947057000071,-7.659060905999967,0.0],[110.500000001,-7.659060875999964,0.0],[110.500000065,-7.659060875999964,0.0],[110.500000235000115,-7.659060876999964,0.0],[110.500133067,-7.65906093999997,0.0],[110.500549048000053,-7.659062869999952,0.0],[110.500952061000092,-7.659027886999988,0.0],[110.501425098000055,-7.65895491,0.0],[110.501623106000096,-7.658924933,0.0],[110.501765038000116,-7.659090865999959,0.0],[110.501875109000082,-7.659459877999938,0.0],[110.502006054000077,-7.660138926999901,0.0],[110.502086053000127,-7.660393865999945,0.0],[110.502110091000077,-7.66055387399995,0.0],[110.502088083000032,-7.660963881999946,0.0],[110.501623061000103,-7.660957917999985,0.0],[110.501471051000038,-7.660778951999921,0.0],[110.500343102000059,-7.660771947999963,0.0],[110.500353087000093,-7.660864927000018,0.0],[110.500373039000053,-7.66100186899998,0.0],[110.500204097000022,-7.660981867999924,0.0],[110.500455050000085,-7.661840930999949,0.0],[110.50078509100004,-7.661745905,0.0],[110.501070054000081,-7.663125915999954,0.0],[110.50115408900011,-7.663125922999955,0.0],[110.501413069000037,-7.663062917999982,0.0],[110.501457063000132,-7.663677927999975,0.0],[110.501444043000035,-7.663751888999967,0.0],[110.50114307200009,-7.663982872999982,0.0],[110.501110055000112,-7.664022899,0.0],[110.501110046000107,-7.664352894999956,0.0],[110.501114058000084,-7.664373881999916,0.0],[110.501189103000073,-7.664775952999966,0.0],[110.501387096000116,-7.664824928999932,0.0],[110.501440074000058,-7.665299863999971,0.0],[110.500000258000028,-7.665118971000014,0.0],[110.500000100000108,-7.665118950999924,0.0],[110.500000001,-7.665118938000012,0.0],[110.499410074000053,-7.665043929000023,0.0],[110.499558104000045,-7.665622884999964,0.0],[110.498515064000074,-7.665498950999924,0.0],[110.498503101000054,-7.665498936999922,0.0],[110.498270624,-7.665501476999955,0.0],[110.497736957735484,-7.665507304919434,0.0],[110.497737,-7.665506,0.0]]]]}},
{"type":"Feature","properties":{"fid":9,"NAMOBJ":"","FCODE":"","REMARK":"Ladang","AQDATE":"","PUDATE":"","KODLCO":"","SRS_ID":"","lcode":"FA0040","METADATA":"","JNSLDG":0,"TNMLDG":0,"TIPLDG":0,"SHAPE_Leng":0.45250741396,"SHAPE_Area":0.00033031452},"geometry":{"type":"MultiPolygon","coordinates":[[[[110.48883,-7.652303,0.0],[110.489052000000115,-7.652953,0.0],[110.489144,-7.653176,0.0],[110.489217,-7.653804,0.0],[110.489223,-7.653882,0.0],[110.489511,-7.653798999999896,0.0],[110.490234241296804,-7.653605008180379,0.0],[110.490238075,-7.653604882,0.0],[110.490247096000047,-7.653687912999937,0.0],[110.490299039,-7.653890908999946,0.0],[110.490464085000056,-7.654104893999977,0.0],[110.490611095000062,-7.65433287400001,0.0],[110.490675062000022,-7.654546918999957,0.0],[110.49071304900005,-7.654791951999892,0.0],[110.491253083000061,-7.654770885999925,0.0],[110.491679100000056,-7.65475293999995,0.0],[110.491760080000091,-7.65549993899994,0.0],[110.491804060000092,-7.65592395099994,0.0],[110.491001103000087,-7.655930870999979,0.0],[110.491007087000042,-7.656243874999943,0.0],[110.490961088000063,-7.657204874999964,0.0],[110.490863072000124,-7.657395937999963,0.0],[110.490732047000023,-7.657556938999962,0.0],[110.490612083000045,-7.657593876,0.0],[110.490589055000015,-7.657594934,0.0],[110.490601090000027,-7.657658884999959,0.0],[110.490560094000017,-7.657806878999947,0.0],[110.490486058000016,-7.657949950999972,0.0],[110.490531098000105,-7.658174915999934,0.0],[110.490599096000039,-7.658456882999905,0.0],[110.490589049,-7.658606902999972,0.0],[110.490569046000047,-7.658704911,0.0],[110.490779073000098,-7.658941917999892,0.0],[110.490868044000095,-7.659064924999944,0.0],[110.490906076000044,-7.65927287999992,0.0],[110.490950104000035,-7.659467909999892,0.0],[110.490838041000089,-7.659462893999921,0.0],[110.490137039000089,-7.659481869999981,0.0],[110.489742108000101,-7.65944595199994,0.0],[110.489756084000106,-7.659135865999952,0.0],[110.489744067000089,-7.658992874000022,0.0],[110.489736064000041,-7.658807925,0.0],[110.489192102000061,-7.658733937,0.0],[110.489160104000078,-7.659047890999956,0.0],[110.489100073000088,-7.660298898,0.0],[110.489088058000078,-7.660656916999949,0.0],[110.489039050000102,-7.661002953999981,0.0],[110.489021051000037,-7.66111290199993,0.0],[110.489012097000099,-7.661159917,0.0],[110.489151066000048,-7.661173919,0.0],[110.489540103000081,-7.661199882999933,0.0],[110.489573100000058,-7.661241882999944,0.0],[110.489576091000046,-7.661365872999989,0.0],[110.489544046000049,-7.662095918,0.0],[110.489499062000064,-7.663079887999965,0.0],[110.489488086000037,-7.663130881999921,0.0],[110.489170070000014,-7.663106899999979,0.0],[110.488873062000053,-7.663082944999951,0.0],[110.488899110000077,-7.662806877999936,0.0],[110.48889808300008,-7.662727926999976,0.0],[110.489214052000108,-7.662775868999946,0.0],[110.489240083000126,-7.661508904999922,0.0],[110.488988088000056,-7.66148192799991,0.0],[110.488939077000097,-7.66214295099998,0.0],[110.48861910400008,-7.662130904999961,0.0],[110.488610069000046,-7.662684899999968,0.0],[110.488609086000054,-7.662693942,0.0],[110.488511074000115,-7.662691926000017,0.0],[110.488306093000034,-7.662673866999944,0.0],[110.488139090000075,-7.662657932999958,0.0],[110.488073040000117,-7.663061917999899,0.0],[110.487946041000086,-7.663541886,0.0],[110.487920107000065,-7.663659874,0.0],[110.487394080000072,-7.663338926999904,0.0],[110.487345071,-7.663495955000018,0.0],[110.487094090000113,-7.66430595299998,0.0],[110.487064044000121,-7.664424930999965,0.0],[110.487519055000107,-7.664613938999972,0.0],[110.487511076000061,-7.664908928999955,0.0],[110.487807067000048,-7.664970866999928,0.0],[110.487819090000059,-7.664983903999941,0.0],[110.487831084000078,-7.665019910999989,0.0],[110.48783607300004,-7.665285886999969,0.0],[110.487752038000025,-7.665598872999931,0.0],[110.487725085516914,-7.665706199868903,0.0],[110.487671987188818,-7.665686307887847,0.0],[110.48765010400011,-7.665624887999952,0.0],[110.48751334886316,-7.665626877945659,0.0],[110.487172,-7.665499,0.0],[110.486705,-7.665174,0.0],[110.486689,-7.665050000999909,0.0],[110.486658,-7.664978,0.0],[110.486501,-7.664671999999896,0.0],[110.48646512153222,-7.664429820341654,0.0],[110.486556076000099,-7.663943933999958,0.0],[110.4866721100001,-7.663379937999922,0.0],[110.486671999106804,-7.663379004343168,0.0],[110.486672,-7.663379,0.0],[110.486621220054801,-7.662949859678278,0.0],[110.487032111000048,-7.662744880999957,0.0],[110.487075082000047,-7.662509889999965,0.0],[110.487592056000011,-7.662335875999956,0.0],[110.487687050000062,-7.662236871999935,0.0],[110.487774094000073,-7.662094902,0.0],[110.487788107000071,-7.661942897999948,0.0],[110.48781406000009,-7.661621883999944,0.0],[110.48793104,-7.661078868999956,0.0],[110.487979052000057,-7.660941917999905,0.0],[110.487731099000058,-7.660848926999938,0.0],[110.487643045000056,-7.660833900999938,0.0],[110.48753209000003,-7.660776884000017,0.0],[110.487340065000041,-7.660741928999967,0.0],[110.487012044000082,-7.660707897,0.0],[110.486833083000107,-7.660689868999922,0.0],[110.486664076000068,-7.660661902999918,0.0],[110.486357084000062,-7.66061089399996,0.0],[110.486051105000058,-7.660588914999918,0.0],[110.485901068000075,-7.660577883999983,0.0],[110.485910085000029,-7.660539911999949,0.0],[110.485985044000103,-7.659690906999957,0.0],[110.485986077000092,-7.659577954999937,0.0],[110.486397099000087,-7.659598881999981,0.0],[110.486827074000047,-7.659588904999955,0.0],[110.486870095000057,-7.659374896000012,0.0],[110.486997077000083,-7.659157912999911,0.0],[110.487226100000029,-7.65888787499995,0.0],[110.487329097000014,-7.658721867999892,0.0],[110.487342095000116,-7.65866888899995,0.0],[110.487509047000074,-7.658662937,0.0],[110.487562048000115,-7.658667884999955,0.0],[110.487554061000068,-7.65922088499997,0.0],[110.487998041000125,-7.659315917999928,0.0],[110.48806006300002,-7.659090897999961,0.0],[110.488104038000102,-7.658890906999934,0.0],[110.488564109000066,-7.658908908999914,0.0],[110.488584084000124,-7.658394897999928,0.0],[110.488187065000048,-7.65823092099995,0.0],[110.488200087000052,-7.657968945999945,0.0],[110.487352088000051,-7.657938908999947,0.0],[110.487140053000104,-7.657945890999903,0.0],[110.48713404300004,-7.657906905999964,0.0],[110.487144059000073,-7.657720892999938,0.0],[110.487211098000031,-7.65755393999998,0.0],[110.487364096000078,-7.6572749489999,0.0],[110.487393082000068,-7.657168902,0.0],[110.487359104000106,-7.65707291099997,0.0],[110.487059063000061,-7.656900906999949,0.0],[110.487057046000075,-7.656836876999892,0.0],[110.487095063000112,-7.656742869999929,0.0],[110.487078077000035,-7.656629897,0.0],[110.487018051000035,-7.656560913999973,0.0],[110.486559058000083,-7.656581889999932,0.0],[110.486457093000084,-7.656260905999931,0.0],[110.486347039000037,-7.65620090599994,0.0],[110.486254074000072,-7.655605914,0.0],[110.485974109000082,-7.655588939999932,0.0],[110.485508106000069,-7.655596884999968,0.0],[110.484994058000083,-7.655519942999907,0.0],[110.484991082000107,-7.655506917999984,0.0],[110.484963100000101,-7.654652905999933,0.0],[110.485288079000071,-7.654662879999959,0.0],[110.485397096000042,-7.654152865999949,0.0],[110.486046038000083,-7.654084908999922,0.0],[110.486345089000054,-7.654082914999934,0.0],[110.486251042000077,-7.653892888999932,0.0],[110.486255048000061,-7.653792871999917,0.0],[110.486260103000035,-7.653692947,0.0],[110.486297061000073,-7.653609881999964,0.0],[110.486367058,-7.653529928999921,0.0],[110.486366747000744,-7.653529285527775,0.0],[110.486367,-7.653529,0.0],[110.486307,-7.653405,0.0],[110.48626917216346,-7.653329345322268,0.0],[110.486341078000066,-7.652936916999971,0.0],[110.486340901702931,-7.652936536539909,0.0],[110.486341,-7.652936,0.0],[110.486138,-7.652498,0.0],[110.486072155197888,-7.652350348019495,0.0],[110.486150112000075,-7.65195790899997,0.0],[110.486165093000082,-7.651745946999929,0.0],[110.486310053000082,-7.651748923999909,0.0],[110.486838078000076,-7.651762935999914,0.0],[110.487013039000075,-7.651747951999917,0.0],[110.48711706400006,-7.651720945,0.0],[110.487443106000043,-7.651716902000013,0.0],[110.487861092000074,-7.651721918999984,0.0],[110.488396056000013,-7.651747876999911,0.0],[110.488396127039067,-7.651745959283473,0.0],[110.488397,-7.651746,0.0],[110.488766,-7.651744,0.0],[110.48883,-7.652303,0.0]],[[110.489438065000073,-7.65547286799992,0.0],[110.489045096000069,-7.65542492399995,0.0],[110.489056098000091,-7.655540874999952,0.0],[110.489244040000102,-7.655611906999967,0.0],[110.489122054000049,-7.656657917,0.0],[110.489342092000044,-7.656710900999949,0.0],[110.489374050000023,-7.656304885999928,0.0],[110.489586072000066,-7.656308935,0.0],[110.489612056000084,-7.655896943999926,0.0],[110.489951111000067,-7.65589092299996,0.0],[110.489965091000073,-7.655891934999955,0.0],[110.489898097000037,-7.655267942999929,0.0],[110.489459088000046,-7.65520891299993,0.0],[110.489438065000073,-7.65547286799992,0.0]]]]}}
]
}
