{
"type": "FeatureCollection",
"name": "AGRISAWAH_AR_Clipped",
"crs": { "type": "name", "properties": { "name": "urn:ogc:def:crs:OGC:1.3:CRS84" } },
"xy_coordinate_resolution": 1e-15,
"features": [
{"type":"Feature","properties":{"NAMOBJ":"","JNSSWH":999,"FCODE":"","AQDATE":"","PUDATE":"","REMARK":"Sawah","KODLCO":"","SRS_ID":"","lcode":"FA0060","METADATA":"","TNMSWH":0,"SHAPE_Leng":33.2869266995,"SHAPE_Area":0.04649362633},"geometry":{"type":"MultiPolygon","coordinates":[[[[110.507447,-7.671465000999913,0.0],[110.506638,-7.67315,0.0],[110.506266,-7.674503,0.0],[110.505519,-7.674604,0.0],[110.505518606465742,-7.674604855194168,0.0],[110.505518038000091,-7.674604932,0.0],[110.504764078000051,-7.675657905,0.0],[110.504803098000082,-7.675729937,0.0],[110.504805014517956,-7.675758870331224,0.0],[110.504768,-7.675754,0.0],[110.50466,-7.675765,0.0],[110.50458500000012,-7.675758,0.0],[110.503692,-7.675811,0.0],[110.503555,-7.675817,0.0],[110.503524,-7.675816,0.0],[110.503073,-7.6758,0.0],[110.50218,-7.675768,0.0],[110.502044000000112,-7.675725,0.0],[110.502011,-7.675716,0.0],[110.501651,-7.67561,0.0],[110.501639,-7.675605,0.0],[110.501488,-7.677069,0.0],[110.500911,-7.677069,0.0],[110.50088,-7.677271,0.0],[110.500704,-7.677657,0.0],[110.5,-7.679048,0.0],[110.499771,-7.678114,0.0],[110.499722000000105,-7.677908,0.0],[110.499682,-7.677752,0.0],[110.499663,-7.677688,0.0],[110.499463,-7.676814,0.0],[110.499383000000122,-7.676551,0.0],[110.499356,-7.676477001,0.0],[110.499356,-7.676409,0.0],[110.49916,-7.67565,0.0],[110.499073,-7.675291,0.0],[110.498897,-7.674755,0.0],[110.498884000000132,-7.674726,0.0],[110.498768,-7.674677,0.0],[110.497516,-7.674225,0.0],[110.497274,-7.674138000999921,0.0],[110.497164,-7.674108,0.0],[110.497051,-7.674060000999951,0.0],[110.496745,-7.673932,0.0],[110.4967240606193,-7.673427460633587,0.0],[110.496724040000061,-7.673426939999972,0.0],[110.496724038721069,-7.673426932990492,0.0],[110.496724000000114,-7.673426,0.0],[110.496644,-7.672988,0.0],[110.496561,-7.672575,0.0],[110.496412,-7.671835,0.0],[110.496344000000107,-7.67147,0.0],[110.496323,-7.671353,0.0],[110.497995,-7.671015,0.0],[110.49797,-7.670908,0.0],[110.497993,-7.670251,0.0],[110.497993168136219,-7.670250933252388,0.0],[110.497993097000077,-7.670252881999984,0.0],[110.498265166000039,-7.670161293999955,0.0],[110.498590106000094,-7.670051907999964,0.0],[110.498590461432897,-7.670003797207017,0.0],[110.498607995279542,-7.669616104375291,0.0],[110.498918096000054,-7.668841904999946,0.0],[110.49889766498606,-7.668786958833047,0.0],[110.498898,-7.668786,0.0],[110.498666,-7.668163,0.0],[110.498665623098688,-7.668162916762667,0.0],[110.498654110000061,-7.668131953999913,0.0],[110.49826761100006,-7.668074137999925,0.0],[110.498255271016802,-7.668072292051106,0.0],[110.497697603440116,-7.667949133267427,0.0],[110.497697181320191,-7.667916022401442,0.0],[110.497704992212107,-7.666495416425863,0.0],[110.498236085000116,-7.666484911999971,0.0],[110.498153057000081,-7.666008945999936,0.0],[110.498270020000078,-7.666017049999896,0.0],[110.498384059000017,-7.666024950999928,0.0],[110.49862304800007,-7.666179874999957,0.0],[110.498624094000064,-7.666181863999944,0.0],[110.498662066000094,-7.666187878,0.0],[110.498967059000023,-7.666163905999968,0.0],[110.498957055000076,-7.666534949999937,0.0],[110.499894046000065,-7.666370903999953,0.0],[110.5,-7.666503885999942,0.0],[110.500000272000065,-7.666504226999971,0.0],[110.500003564000068,-7.666508402999961,0.0],[110.500058286000069,-7.666577015999954,0.0],[110.500061659000082,-7.66721088,0.0],[110.50028204100002,-7.667229946999976,0.0],[110.500290043000064,-7.667229865999969,0.0],[110.502136098000037,-7.667063885999914,0.0],[110.502580076000086,-7.667492879999971,0.0],[110.503272093000064,-7.667625895999963,0.0],[110.503288109000053,-7.667610902999966,0.0],[110.50351708400008,-7.667377933999964,0.0],[110.503577065000073,-7.667425933999938,0.0],[110.503716067000113,-7.667606874999899,0.0],[110.503829081000049,-7.667826943999989,0.0],[110.503931077000047,-7.668134901999979,0.0],[110.50398407600008,-7.668206951,0.0],[110.504285051000025,-7.668101941,0.0],[110.504523078,-7.667928941,0.0],[110.504637080000023,-7.667876889999947,0.0],[110.504977074000095,-7.667843909999972,0.0],[110.505180081,-7.667890898999952,0.0],[110.505446100000086,-7.668015915,0.0],[110.505550041000063,-7.668129892,0.0],[110.505785101000072,-7.668582881,0.0],[110.505797094000087,-7.668621872999948,0.0],[110.505847060000036,-7.668665881999948,0.0],[110.505979084000046,-7.668804942999907,0.0],[110.506114094000026,-7.669012917999973,0.0],[110.50618309400005,-7.669213942999908,0.0],[110.506291058,-7.669470902999942,0.0],[110.506381093000087,-7.669585950999958,0.0],[110.506666071000041,-7.670127894999945,0.0],[110.506793080000065,-7.670466899999928,0.0],[110.506912105000055,-7.670662920999982,0.0],[110.507104103000046,-7.67085694399996,0.0],[110.50724808300005,-7.670937867,0.0],[110.507445003421026,-7.670963858664003,0.0],[110.507447,-7.671465000999913,0.0]],[[110.502515042000127,-7.673853930999952,0.0],[110.502652101000095,-7.673777940999971,0.0],[110.502717089000058,-7.673699880999907,0.0],[110.502714088000076,-7.673578875999931,0.0],[110.502408087000077,-7.67305191699994,0.0],[110.50189410500009,-7.672445948999984,0.0],[110.501831103000114,-7.672360866999961,0.0],[110.501817062000015,-7.672283889999987,0.0],[110.502134062000053,-7.671710897999917,0.0],[110.502200078,-7.671581922,0.0],[110.502216108000084,-7.671427930999952,0.0],[110.502172039000087,-7.67132794799994,0.0],[110.501986109000057,-7.671124887999925,0.0],[110.501871069000046,-7.67097490399995,0.0],[110.501859070000123,-7.670877941999921,0.0],[110.501603080000081,-7.670744885999925,0.0],[110.501497067000102,-7.670676937999898,0.0],[110.501076091000087,-7.670140891999955,0.0],[110.501055069000031,-7.670086879999927,0.0],[110.500633078000106,-7.670422898999929,0.0],[110.500798112,-7.670783925999958,0.0],[110.500449076000081,-7.671580887999907,0.0],[110.500000282000073,-7.671358984999932,0.0],[110.500000069000052,-7.671358890999924,0.0],[110.50000000200005,-7.67135885700001,0.0],[110.499428074000065,-7.671074891999963,0.0],[110.499222103000079,-7.671707879999934,0.0],[110.499932043000015,-7.672118919999926,0.0],[110.500000001000046,-7.672110960999889,0.0],[110.50000008800005,-7.672110950999977,0.0],[110.500000278000073,-7.672110938999976,0.0],[110.500000313000072,-7.672110950999977,0.0],[110.500051086000013,-7.672104949999925,0.0],[110.500096082000084,-7.672115944999947,0.0],[110.500124053,-7.672299921999981,0.0],[110.500210057000103,-7.672470944999921,0.0],[110.500321094000057,-7.672590899999898,0.0],[110.500516041000111,-7.672690877,0.0],[110.50072908500006,-7.672723952999982,0.0],[110.501087068000103,-7.672718941000012,0.0],[110.501150092000074,-7.672722903999984,0.0],[110.501246087000112,-7.672852879,0.0],[110.501367085000098,-7.673086886,0.0],[110.501407071000116,-7.673419915999924,0.0],[110.50144209700008,-7.673581924,0.0],[110.501547050000056,-7.673724933999937,0.0],[110.501660105,-7.673845887,0.0],[110.501756098000044,-7.673979930999986,0.0],[110.501760044,-7.673993954,0.0],[110.502229047000085,-7.673932910999914,0.0],[110.502515042000127,-7.673853930999952,0.0]]],[[[110.486465000000109,-7.664429,0.0],[110.486556,-7.663943,0.0],[110.48667199910679,-7.663379004343301,0.0],[110.486672110000058,-7.663379937999926,0.0],[110.486556076000042,-7.663943933999962,0.0],[110.48646512153222,-7.66442982034174,0.0],[110.486465000000109,-7.664429,0.0]]]]}}
]
}
