{
"type": "FeatureCollection",
"name": "AGRIKEBUN_AR_Clipped",
"crs": { "type": "name", "properties": { "name": "urn:ogc:def:crs:OGC:1.3:CRS84" } },
"xy_coordinate_resolution": 1e-15,
"features": [
{"type":"Feature","properties":{"NAMOBJ":"","JNSKBN":0,"FCODE":"","PUDATE":"","AQDATE":"","REMARK":"Perkebunan","KODLCO":"","SRS_ID":"","lcode":"FA0020","METADATA":"","SHAPE_Leng":0.00334967286,"SHAPE_Area":5.3004e-07},"geometry":{"type":"MultiPolygon","coordinates":[[[[110.488173,-7.665874,0.0],[110.487725085516928,-7.665706199868909,0.0],[110.487752038000039,-7.665598873,0.0],[110.487836073000054,-7.665285886999945,0.0],[110.487831084000092,-7.665019910999964,0.0],[110.487819090000073,-7.664983903999916,0.0],[110.487807067000062,-7.664970867,0.0],[110.488316084000076,-7.665076919999974,0.0],[110.488173019571903,-7.665874000024171,0.0],[110.488173,-7.665874,0.0]]]]}},
{"type":"Feature","properties":{"NAMOBJ":"","JNSKBN":0,"FCODE":"","PUDATE":"","AQDATE":"","REMARK":"Perkebunan","KODLCO":"","SRS_ID":"","lcode":"FA0020","METADATA":"","SHAPE_Leng":0.00341765035,"SHAPE_Area":6.0341e-07},"geometry":{"type":"MultiPolygon","coordinates":[[[[110.488609086000068,-7.662693941999981,0.0],[110.488476055000078,-7.663969912999951,0.0],[110.487920107,-7.663659873999967,0.0],[110.487946041000015,-7.663541885999974,0.0],[110.488073040000032,-7.663061917999963,0.0],[110.488139090000089,-7.662657932999933,0.0],[110.488306093000048,-7.662673867,0.0],[110.488511074000129,-7.662691926,0.0],[110.488609086000068,-7.662693941999981,0.0]]]]}},
{"type":"Feature","properties":{"NAMOBJ":"","JNSKBN":0,"FCODE":"","PUDATE":"","AQDATE":"","REMARK":"Perkebunan","KODLCO":"","SRS_ID":"","lcode":"FA0020","METADATA":"","SHAPE_Leng":0.08111874167,"SHAPE_Area":5.993461e-05},"geometry":{"type":"MultiPolygon","coordinates":[[[[110.490238,-7.653604,0.0],[110.491539,-7.653553,0.0],[110.491619,-7.654205,0.0],[110.491679,-7.654752000999967,0.0],[110.493516857012835,-7.65482399439881,0.0],[110.493517045,-7.654825913999924,0.0],[110.493528054000109,-7.654936889999957,0.0],[110.49356106500008,-7.655091935,0.0],[110.493604988828537,-7.655261681463115,0.0],[110.493602,-7.655444,0.0],[110.493537,-7.655625999999895,0.0],[110.493424,-7.655827,0.0],[110.493424232800166,-7.655827598117052,0.0],[110.49342405400003,-7.655827915999962,0.0],[110.493489050000079,-7.655994935999926,0.0],[110.49307209100003,-7.656001951999974,0.0],[110.492800099000092,-7.656006877000026,0.0],[110.492476100000019,-7.655987865999963,0.0],[110.49180406,-7.655923951,0.0],[110.491760080000105,-7.655499939,0.0],[110.49167910000007,-7.654752940000014,0.0],[110.491253083000075,-7.6547708859999,0.0],[110.490713049000064,-7.654791951999956,0.0],[110.490675062000037,-7.654546918999932,0.0],[110.490611095000077,-7.654332873999985,0.0],[110.49046408500007,-7.654104893999952,0.0],[110.490299039,-7.653890908999921,0.0],[110.490247096000061,-7.653687912999912,0.0],[110.490238075000022,-7.65360488199997,0.0],[110.490234241296903,-7.653605008180351,0.0],[110.490238,-7.653604,0.0]]]]}},
{"type":"Feature","properties":{"NAMOBJ":"","JNSKBN":0,"FCODE":"","PUDATE":"","AQDATE":"","REMARK":"Perkebunan","KODLCO":"","SRS_ID":"","lcode":"FA0020","METADATA":"","SHAPE_Leng":0.01511647648,"SHAPE_Area":7.1416e-06},"geometry":{"type":"MultiPolygon","coordinates":[[[[110.49180406,-7.655923951,0.0],[110.491812055000054,-7.65599187699994,0.0],[110.49190708,-7.656873913,0.0],[110.492038073000103,-7.657876902999943,0.0],[110.492103072000063,-7.658671904,0.0],[110.492188090000084,-7.659292931999955,0.0],[110.492226063000118,-7.659740901999983,0.0],[110.492375045000088,-7.660199944999951,0.0],[110.492551103000011,-7.660650881999958,0.0],[110.492612076000071,-7.660805868999903,0.0],[110.492021103000027,-7.660778945999896,0.0],[110.491918112000036,-7.660498928,0.0],[110.491156064000037,-7.660549937999955,0.0],[110.491148063000097,-7.660550923999947,0.0],[110.490637076,-7.660407883999925,0.0],[110.48954508100006,-7.660346904999942,0.0],[110.489548103000047,-7.659943929999907,0.0],[110.489574047000062,-7.659628883999952,0.0],[110.489595079000111,-7.659608922999988,0.0],[110.489742108000115,-7.659445951999915,0.0],[110.490137039000018,-7.659481869999956,0.0],[110.490838041000103,-7.659462893999985,0.0],[110.490950104000049,-7.659467909999956,0.0],[110.490906076000059,-7.659272879999984,0.0],[110.490868044000109,-7.659064924999919,0.0],[110.490779073000027,-7.658941917999956,0.0],[110.490569046000061,-7.658704910999974,0.0],[110.490589049000022,-7.658606902999948,0.0],[110.490599096000054,-7.658456882999969,0.0],[110.490531098000119,-7.65817491599991,0.0],[110.49048605800003,-7.657949950999948,0.0],[110.490560094000031,-7.657806878999923,0.0],[110.490601090000041,-7.657658884999934,0.0],[110.490589055000029,-7.657594933999972,0.0],[110.490612083000059,-7.657593875999973,0.0],[110.490732047000037,-7.657556938999937,0.0],[110.490863072000053,-7.657395937999938,0.0],[110.490961088000077,-7.657204874999939,0.0],[110.491007087000057,-7.656243875,0.0],[110.491001103000102,-7.655930870999955,0.0],[110.49180406,-7.655923951,0.0]]]]}},
{"type":"Feature","properties":{"NAMOBJ":"","JNSKBN":0,"FCODE":"","PUDATE":"","AQDATE":"","REMARK":"Perkebunan","KODLCO":"","SRS_ID":"","lcode":"FA0020","METADATA":"","SHAPE_Leng":0.06796776451,"SHAPE_Area":5.471483e-05},"geometry":{"type":"MultiPolygon","coordinates":[[[[110.484572,-7.655429,0.0],[110.484590011708008,-7.655013912003493,0.0],[110.484599056,-7.655483930999923,0.0],[110.484211958986606,-7.655551029167857,0.0],[110.484572,-7.655429,0.0]]],[[[110.486255,-7.653792,0.0],[110.486260000000115,-7.653692,0.0],[110.486297,-7.653608,0.0],[110.48636674700073,-7.653529285527788,0.0],[110.486367058000013,-7.653529928999985,0.0],[110.486297061000087,-7.653609881999939,0.0],[110.486260103000049,-7.653692946999973,0.0],[110.486255048000075,-7.653792871999981,0.0],[110.486251042,-7.653892889,0.0],[110.486345089000068,-7.654082914999909,0.0],[110.486046038000012,-7.654084908999986,0.0],[110.486040122833103,-7.653871532457852,0.0],[110.486255,-7.653792,0.0]]],[[[110.486269,-7.653329001,0.0],[110.486340901702931,-7.65293653653987,0.0],[110.486341078000081,-7.652936916999947,0.0],[110.486269172163475,-7.653329345322282,0.0],[110.486269,-7.653329001,0.0]]],[[[110.486072,-7.65235,0.0],[110.48615,-7.651957,0.0],[110.486165,-7.651745,0.0],[110.48631,-7.651748,0.0],[110.486838,-7.651762,0.0],[110.487013,-7.651747,0.0],[110.487117,-7.65172,0.0],[110.48711702503644,-7.651719999693664,0.0],[110.487117064000074,-7.651720944999967,0.0],[110.487013039,-7.651747951999981,0.0],[110.48683807800009,-7.651762935999978,0.0],[110.486310053000096,-7.651748923999973,0.0],[110.486165093000096,-7.651745946999904,0.0],[110.48615011200009,-7.651957908999945,0.0],[110.486072155197903,-7.652350348019537,0.0],[110.486072,-7.65235,0.0]]]]}},
{"type":"Feature","properties":{"NAMOBJ":"","JNSKBN":0,"FCODE":"","PUDATE":"","AQDATE":"","REMARK":"Perkebunan","KODLCO":"","SRS_ID":"","lcode":"FA0020","METADATA":"","SHAPE_Leng":0.00539751013,"SHAPE_Area":8.2709e-07},"geometry":{"type":"MultiPolygon","coordinates":[[[[110.493489050000079,-7.655994935999926,0.0],[110.493598058000117,-7.655990903999948,0.0],[110.493803068000034,-7.655981921,0.0],[110.493663087000087,-7.657396885999928,0.0],[110.493177078000102,-7.657376870999959,0.0],[110.493170102000065,-7.657775952999939,0.0],[110.492553078000086,-7.657843866999963,0.0],[110.492676102000047,-7.657684936999958,0.0],[110.492761055000059,-7.657602922000011,0.0],[110.492914041000105,-7.657331886999968,0.0],[110.493049104000093,-7.657043918999944,0.0],[110.493271082000064,-7.65672087399995,0.0],[110.493475052000065,-7.656515916999956,0.0],[110.493497103000024,-7.656392950999907,0.0],[110.493503061000084,-7.656031940999968,0.0],[110.493489050000079,-7.655994935999926,0.0]]]]}},
{"type":"Feature","properties":{"NAMOBJ":"","JNSKBN":0,"FCODE":"","PUDATE":"","AQDATE":"","REMARK":"Perkebunan","KODLCO":"","SRS_ID":"","lcode":"FA0020","METADATA":"","SHAPE_Leng":0.00252807468,"SHAPE_Area":3.4147e-07},"geometry":{"type":"MultiPolygon","coordinates":[[[[110.493461135126978,-7.665223324917771,0.0],[110.492875053000077,-7.665263906999902,0.0],[110.492853049000118,-7.66515689599993,0.0],[110.492721075000034,-7.664474949999905,0.0],[110.493081100000069,-7.664570873999937,0.0],[110.4932361030001,-7.664808901,0.0],[110.493334070000046,-7.664976953999963,0.0],[110.493464548098231,-7.665218223810191,0.0],[110.493461135126978,-7.665223324917771,0.0]]]]}},
{"type":"Feature","properties":{"NAMOBJ":"","JNSKBN":0,"FCODE":"","PUDATE":"","AQDATE":"","REMARK":"Perkebunan","KODLCO":"","SRS_ID":"","lcode":"FA0020","METADATA":"","SHAPE_Leng":0.00433345674,"SHAPE_Area":1.12108e-06},"geometry":{"type":"MultiPolygon","coordinates":[[[[110.4939210000001,-7.664536,0.0],[110.493920911766097,-7.664536131876551,0.0],[110.493081100000069,-7.664570873999937,0.0],[110.493047087,-7.664376940999967,0.0],[110.493039112000062,-7.664103907999936,0.0],[110.493036070000073,-7.663830881,0.0],[110.493075045000097,-7.663179883999954,0.0],[110.493099067000045,-7.663159925999901,0.0],[110.49330510300004,-7.663170930000012,0.0],[110.493355039000093,-7.66317686699997,0.0],[110.493567038000037,-7.663202891,0.0],[110.493670060000042,-7.663204910999982,0.0],[110.493719105000096,-7.66320487799989,0.0],[110.493837063000086,-7.663220933999975,0.0],[110.493834104000115,-7.663320951,0.0],[110.493895101000092,-7.66427990700002,0.0],[110.493927097000082,-7.664535875999972,0.0],[110.493923706973874,-7.664536016241766,0.0],[110.4939210000001,-7.664536,0.0]]]]}},
{"type":"Feature","properties":{"NAMOBJ":"","JNSKBN":0,"FCODE":"","PUDATE":"","AQDATE":"","REMARK":"Perkebunan","KODLCO":"","SRS_ID":"","lcode":"FA0020","METADATA":"","SHAPE_Leng":0.00930685097,"SHAPE_Area":4.66881e-06},"geometry":{"type":"MultiPolygon","coordinates":[[[[110.495669071000066,-7.655723925999974,0.0],[110.495738047000088,-7.656066936999933,0.0],[110.496586099000083,-7.655922869999914,0.0],[110.496614074,-7.655974902999956,0.0],[110.496778044000067,-7.656216917999908,0.0],[110.496921100000094,-7.656313940999942,0.0],[110.497106085000027,-7.656358922999933,0.0],[110.497396068000043,-7.65637689499991,0.0],[110.497610068000071,-7.656415941999944,0.0],[110.497623086,-7.656472930999952,0.0],[110.497571107000056,-7.656487882999945,0.0],[110.497520083,-7.656582869999989,0.0],[110.497517064000107,-7.656606922999936,0.0],[110.497653042000081,-7.657513874999927,0.0],[110.497707082000019,-7.657780902,0.0],[110.497689076000128,-7.657898899999987,0.0],[110.497542085000049,-7.658159904999911,0.0],[110.497459077000102,-7.658113867999921,0.0],[110.497225108000109,-7.658080947999951,0.0],[110.49706007900005,-7.658103905999985,0.0],[110.496678104000054,-7.658176893999984,0.0],[110.496171102000034,-7.658269901999953,0.0],[110.496012099000026,-7.658317917999929,0.0],[110.495763105000023,-7.658345932999937,0.0],[110.49568307400007,-7.65799386599994,0.0],[110.495536091000076,-7.657357934,0.0],[110.495301068000074,-7.656822915999955,0.0],[110.495155107000073,-7.656461907999928,0.0],[110.495104084000033,-7.656237930999959,0.0],[110.495102097000043,-7.655829884999948,0.0],[110.495196089,-7.655816881999938,0.0],[110.495669071000066,-7.655723925999974,0.0]]]]}},
{"type":"Feature","properties":{"NAMOBJ":"","JNSKBN":0,"FCODE":"","PUDATE":"","AQDATE":"","REMARK":"Perkebunan","KODLCO":"","SRS_ID":"","lcode":"FA0020","METADATA":"","SHAPE_Leng":0.02021268254,"SHAPE_Area":7.92553e-06},"geometry":{"type":"MultiPolygon","coordinates":[[[[110.485901,-7.660577,0.0],[110.48591,-7.660539,0.0],[110.485985,-7.65969,0.0],[110.485986,-7.659577,0.0],[110.485987,-7.659446,0.0],[110.485927,-7.659297000999967,0.0],[110.485786,-7.659071,0.0],[110.485731,-7.658787,0.0],[110.485304,-7.658412,0.0],[110.485048000000106,-7.658186,0.0],[110.48496,-7.658068000999975,0.0],[110.484859229749063,-7.657876436752684,0.0],[110.484923082000094,-7.657720868,0.0],[110.484952085000089,-7.657724880999977,0.0],[110.485227043000108,-7.657740945999974,0.0],[110.485542047000052,-7.657779938,0.0],[110.485641098000073,-7.657787923999953,0.0],[110.48562507700008,-7.658366869999982,0.0],[110.485814108000099,-7.658403901999938,0.0],[110.485838065000038,-7.658189870999903,0.0],[110.486390071000059,-7.658224894999959,0.0],[110.486418041000064,-7.658404893999931,0.0],[110.486730074000036,-7.658490907999942,0.0],[110.486744055000116,-7.658614910999988,0.0],[110.486878086000019,-7.658630896999979,0.0],[110.486997097000099,-7.658640895999918,0.0],[110.48734209500013,-7.658668888999925,0.0],[110.487329097000028,-7.658721867999956,0.0],[110.487226100000044,-7.658887874999925,0.0],[110.486997077000098,-7.659157912999975,0.0],[110.486870095000072,-7.659374895999987,0.0],[110.486827074000061,-7.65958890499993,0.0],[110.486397099000015,-7.659598881999957,0.0],[110.485986077000021,-7.659577955,0.0],[110.485985044000117,-7.659690906999932,0.0],[110.485910085000043,-7.660539911999924,0.0],[110.485901068000089,-7.660577883999958,0.0],[110.485900796924398,-7.660577845056742,0.0],[110.485901,-7.660577,0.0]]]]}},
{"type":"Feature","properties":{"NAMOBJ":"","JNSKBN":0,"FCODE":"","PUDATE":"","AQDATE":"","REMARK":"Perkebunan","KODLCO":"","SRS_ID":"","lcode":"FA0020","METADATA":"","SHAPE_Leng":0.00535988757,"SHAPE_Area":1.56935e-06},"geometry":{"type":"MultiPolygon","coordinates":[[[[110.500117483000068,-7.657999663999975,0.0],[110.50000023000004,-7.657998310999952,0.0],[110.5,-7.657998307999952,0.0],[110.499273047000088,-7.657989911999968,0.0],[110.499227058000102,-7.657612924999951,0.0],[110.499240050000111,-7.656987941999931,0.0],[110.499243044000096,-7.656600882999969,0.0],[110.499197106000025,-7.656372931999938,0.0],[110.49918204600003,-7.656273886999914,0.0],[110.499247094000083,-7.656268898999945,0.0],[110.499427079000043,-7.656242881999924,0.0],[110.500000001000018,-7.656147881999969,0.0],[110.500000095000118,-7.656147866999968,0.0],[110.50000022200004,-7.656147834999965,0.0],[110.500086919000111,-7.656126804999912,0.0],[110.500109768000044,-7.656600622999948,0.0],[110.500117483000068,-7.657999663999975,0.0]]]]}},
{"type":"Feature","properties":{"NAMOBJ":"","JNSKBN":0,"FCODE":"","PUDATE":"","AQDATE":"","REMARK":"Perkebunan","KODLCO":"","SRS_ID":"","lcode":"FA0020","METADATA":"","SHAPE_Leng":0.01841861871,"SHAPE_Area":7.0269e-06},"geometry":{"type":"MultiPolygon","coordinates":[[[[110.503747081000085,-7.662840881999971,0.0],[110.503890097000109,-7.6629119479999,0.0],[110.503969048000059,-7.662781901999976,0.0],[110.504354105000033,-7.662891952999933,0.0],[110.504313079000013,-7.663003864999956,0.0],[110.504306051000057,-7.663197930999937,0.0],[110.504334097000068,-7.663383897999958,0.0],[110.504381048000042,-7.663578930999931,0.0],[110.504402106000015,-7.664246909999955,0.0],[110.504416045000099,-7.664347941999965,0.0],[110.504429086000115,-7.664384944999918,0.0],[110.504453090000055,-7.664509953999959,0.0],[110.504429067000018,-7.664659867999928,0.0],[110.504414055000026,-7.664775880000024,0.0],[110.504415045000101,-7.664824897,0.0],[110.504410112000059,-7.66495294699993,0.0],[110.504398044000126,-7.665108933999958,0.0],[110.504298087000024,-7.665623938999937,0.0],[110.504236069000044,-7.665785926999929,0.0],[110.504209075000034,-7.665853903999958,0.0],[110.504209064000023,-7.6658639419999,0.0],[110.504283076000021,-7.665996875999975,0.0],[110.504303104000087,-7.666133908999944,0.0],[110.504207108000045,-7.666132893999949,0.0],[110.503907060000088,-7.66608389399998,0.0],[110.503429050000065,-7.666054946999983,0.0],[110.50341210100008,-7.664228947999979,0.0],[110.503151093000071,-7.664234886999937,0.0],[110.503089092,-7.663607917999931,0.0],[110.503089065000083,-7.663606926999938,0.0],[110.503089093000085,-7.663606923999938,0.0],[110.503082062000033,-7.663351887999974,0.0],[110.503166046000061,-7.663137924999946,0.0],[110.503222043000079,-7.663009932999925,0.0],[110.503202063000018,-7.662186948999954,0.0],[110.503172073000115,-7.662065911999976,0.0],[110.503024079000042,-7.661903952999987,0.0],[110.502832043000041,-7.661747910999955,0.0],[110.502628048000048,-7.661588870999941,0.0],[110.502115103000051,-7.661001895999958,0.0],[110.502088083000046,-7.66096388200001,0.0],[110.502110091000091,-7.660553873999925,0.0],[110.502086053000056,-7.66039386599992,0.0],[110.502006054000091,-7.660138926999965,0.0],[110.501875109000096,-7.659459877999913,0.0],[110.501765038000045,-7.659090865999934,0.0],[110.501623106000025,-7.658924932999971,0.0],[110.501755108000026,-7.658886922999935,0.0],[110.501802073000093,-7.658873953999928,0.0],[110.501834074000072,-7.658871909999936,0.0],[110.502125049000085,-7.658810930999953,0.0],[110.502327065000102,-7.658740897999932,0.0],[110.502392061000052,-7.658717911999895,0.0],[110.502496064000042,-7.658647944999968,0.0],[110.502572080000036,-7.658597931,0.0],[110.502618107000018,-7.658556925999987,0.0],[110.502621092000084,-7.658561903999955,0.0],[110.502806095000025,-7.659172916999973,0.0],[110.502860087000059,-7.659548919,0.0],[110.502904048000048,-7.659806890999937,0.0],[110.503090081000082,-7.660238933999979,0.0],[110.503156077000128,-7.660449905999938,0.0],[110.503216091000112,-7.660661864999978,0.0],[110.503251101000075,-7.660837891999977,0.0],[110.503298059000059,-7.660960937999944,0.0],[110.503325078000074,-7.661064879999929,0.0],[110.503440090000083,-7.661300867,0.0],[110.503533096000055,-7.661558895999947,0.0],[110.503540090000101,-7.661781916999926,0.0],[110.503562100000053,-7.662143864999942,0.0],[110.503644091000083,-7.662423947000024,0.0],[110.503704079000073,-7.662722904999979,0.0],[110.503747081000085,-7.662840881999971,0.0]]]]}},
{"type":"Feature","properties":{"NAMOBJ":"","JNSKBN":0,"FCODE":"","PUDATE":"","AQDATE":"","REMARK":"Perkebunan","KODLCO":"","SRS_ID":"","lcode":"FA0020","METADATA":"","SHAPE_Leng":0.00329425426,"SHAPE_Area":5.7943e-07},"geometry":{"type":"MultiPolygon","coordinates":[[[[110.500117483000068,-7.657999663999975,0.0],[110.500916093000058,-7.65800592599996,0.0],[110.500987073000076,-7.658108922999956,0.0],[110.50116209800008,-7.658362887999919,0.0],[110.501311096000052,-7.658558942999976,0.0],[110.501328045000037,-7.65857795399995,0.0],[110.500133162000026,-7.658594836999926,0.0],[110.500117483000068,-7.657999663999975,0.0]]]]}},
{"type":"Feature","properties":{"NAMOBJ":"","JNSKBN":0,"FCODE":"","PUDATE":"","AQDATE":"","REMARK":"Perkebunan","KODLCO":"","SRS_ID":"","lcode":"FA0020","METADATA":"","SHAPE_Leng":0.00426500397,"SHAPE_Area":8.3779e-07},"geometry":{"type":"MultiPolygon","coordinates":[[[[110.502106108000106,-7.66301786899996,0.0],[110.502123057000091,-7.663036879999934,0.0],[110.502166063000104,-7.663215900999914,0.0],[110.502237070000021,-7.663617876999956,0.0],[110.502241091000087,-7.663631898999961,0.0],[110.502337044000029,-7.663669903,0.0],[110.502405070000066,-7.663677939999952,0.0],[110.502425085000127,-7.663696953999926,0.0],[110.502444057,-7.663777914999963,0.0],[110.502451108000059,-7.66395092599989,0.0],[110.501110055000126,-7.664022898999983,0.0],[110.501143072,-7.663982872999958,0.0],[110.501444043000049,-7.663751888999942,0.0],[110.501457063000061,-7.663677927999951,0.0],[110.501413069000051,-7.663062917999957,0.0],[110.501503111000048,-7.663040865,0.0],[110.501555106000083,-7.663010900999916,0.0],[110.501565111000019,-7.663022940999936,0.0],[110.501714102000093,-7.663033874999952,0.0],[110.50197408000011,-7.6630139179999,0.0],[110.502020064000092,-7.663009900999922,0.0],[110.502106108000106,-7.66301786899996,0.0]]]]}},
{"type":"Feature","properties":{"NAMOBJ":"","JNSKBN":0,"FCODE":"","PUDATE":"","AQDATE":"","REMARK":"Perkebunan","KODLCO":"","SRS_ID":"","lcode":"FA0020","METADATA":"","SHAPE_Leng":0.04240859146,"SHAPE_Area":2.733654e-05},"geometry":{"type":"MultiPolygon","coordinates":[[[[110.496893,-7.665556000999942,0.0],[110.496892328764304,-7.66555597134561,0.0],[110.496893086000085,-7.665533866999946,0.0],[110.496412556663088,-7.665534775630794,0.0],[110.496395,-7.665534,0.0],[110.496256000000116,-7.664775,0.0],[110.496255835679861,-7.664774962173782,0.0],[110.496252084000076,-7.664747868999926,0.0],[110.495491598839422,-7.664599036366444,0.0],[110.495448,-7.664589,0.0],[110.495266,-7.664554,0.0],[110.49526038586059,-7.664553842741182,0.0],[110.495235078000036,-7.664548895999895,0.0],[110.494992110934987,-7.664546328037364,0.0],[110.494909,-7.664544,0.0],[110.494421,-7.664539,0.0],[110.494388234797668,-7.664538803408692,0.0],[110.49443305600002,-7.664192907000016,0.0],[110.494530045000047,-7.663858954,0.0],[110.494612048000093,-7.663615869999967,0.0],[110.494646112000069,-7.663322899999974,0.0],[110.49483509500007,-7.663339941999963,0.0],[110.495274084000059,-7.66336089499992,0.0],[110.495557047000034,-7.663375877,0.0],[110.495594045000075,-7.66338487399995,0.0],[110.495595053000059,-7.663353945999967,0.0],[110.495639043000068,-7.663074914999973,0.0],[110.495680047000079,-7.662538952999947,0.0],[110.495310104000026,-7.662421948999947,0.0],[110.495258046000075,-7.661361897999901,0.0],[110.494633040000053,-7.661473937999935,0.0],[110.494681092000022,-7.66079392099998,0.0],[110.495013099000047,-7.660744932999924,0.0],[110.495000072000039,-7.660633953999978,0.0],[110.49498207700006,-7.660486884999978,0.0],[110.494461040000033,-7.660242912999953,0.0],[110.494411063000072,-7.660082874999945,0.0],[110.493927102000086,-7.660097951999949,0.0],[110.493897101000087,-7.660305916999926,0.0],[110.493859077000053,-7.660596892999932,0.0],[110.493820089000025,-7.661323945999959,0.0],[110.493760042000119,-7.662283934999985,0.0],[110.493750071000093,-7.662686901999932,0.0],[110.493447074000059,-7.66273293900001,0.0],[110.493451092000043,-7.662622883999964,0.0],[110.49338005700011,-7.662377901999944,0.0],[110.493172064000049,-7.661808910999939,0.0],[110.493132079000119,-7.661417913,0.0],[110.493076041000094,-7.66113586999994,0.0],[110.493098089000057,-7.661015888999961,0.0],[110.493132042000113,-7.660816880999926,0.0],[110.493095068000073,-7.660471917999894,0.0],[110.493016060000016,-7.660267892999977,0.0],[110.492931055,-7.660014937,0.0],[110.492898073000021,-7.659707871,0.0],[110.493919111000039,-7.659710879999986,0.0],[110.493965098000032,-7.65970387999994,0.0],[110.493991090000051,-7.659218906999959,0.0],[110.494002101000063,-7.658947885,0.0],[110.494037102000036,-7.658937887999977,0.0],[110.494268054000045,-7.658929929999941,0.0],[110.494696053000027,-7.658946891000012,0.0],[110.494693093000038,-7.659301936,0.0],[110.49546604700005,-7.659320928999962,0.0],[110.495496046000042,-7.658986895999947,0.0],[110.495823109000099,-7.659008893,0.0],[110.495823420000036,-7.659008849999987,0.0],[110.495824074000012,-7.659008758999979,0.0],[110.4958950420001,-7.658998938999966,0.0],[110.496158078000107,-7.65898287799997,0.0],[110.497402101,-7.659012907999967,0.0],[110.497522112000084,-7.658998940999966,0.0],[110.498278191000026,-7.659036214999942,0.0],[110.498313060000072,-7.659037934,0.0],[110.499367052000053,-7.659053901999895,0.0],[110.499409073000066,-7.659051869999905,0.0],[110.499403088000108,-7.659886942999988,0.0],[110.499417040000111,-7.660487899999973,0.0],[110.499426047000057,-7.660905902,0.0],[110.499423039000064,-7.661560921999937,0.0],[110.499413100000041,-7.662133907999918,0.0],[110.499405066000094,-7.662418949999966,0.0],[110.499406107000084,-7.663127873999914,0.0],[110.499407094000077,-7.663370873999947,0.0],[110.499402068000023,-7.663705930999958,0.0],[110.499103080000069,-7.66371191299992,0.0],[110.498988089000051,-7.663714945,0.0],[110.498718064000087,-7.663695910999929,0.0],[110.498272785000026,-7.663655206999936,0.0],[110.498248073000113,-7.663652949000015,0.0],[110.497509038000061,-7.663583899999898,0.0],[110.497495054000069,-7.663650896000023,0.0],[110.497369082000034,-7.66447389,0.0],[110.497345066,-7.664615935999935,0.0],[110.49737210500011,-7.664765908999909,0.0],[110.497433060000091,-7.664809931,0.0],[110.497523043000072,-7.664838884999908,0.0],[110.497659042000038,-7.665027870999912,0.0],[110.497680085000098,-7.66550792600002,0.0],[110.497679956688913,-7.665509379410643,0.0],[110.496893,-7.665556000999942,0.0]],[[110.497552066000068,-7.66150990899998,0.0],[110.49754809800001,-7.661832938999973,0.0],[110.497552068000076,-7.661890911999974,0.0],[110.497568079000061,-7.662199947999964,0.0],[110.49801808000008,-7.662264953000014,0.0],[110.498274382000062,-7.662290765999929,0.0],[110.498405086000048,-7.662303928999952,0.0],[110.49849808,-7.662313894999977,0.0],[110.498432089000062,-7.66126992399993,0.0],[110.498275649000078,-7.661208627999921,0.0],[110.497559102000125,-7.660927875999962,0.0],[110.497552066000068,-7.66150990899998,0.0]]]]}},
{"type":"Feature","properties":{"NAMOBJ":"","JNSKBN":0,"FCODE":"","PUDATE":"","AQDATE":"","REMARK":"Perkebunan","KODLCO":"","SRS_ID":"","lcode":"FA0020","METADATA":"","SHAPE_Leng":0.03413004121,"SHAPE_Area":1.337771e-05},"geometry":{"type":"MultiPolygon","coordinates":[[[[110.499262,-7.655085999999891,0.0],[110.499627,-7.654993,0.0],[110.499747,-7.655032,0.0],[110.49991400902482,-7.65512146912033,0.0],[110.499914042000015,-7.655122954999987,0.0],[110.499851953000118,-7.655089421999966,0.0],[110.49974705300005,-7.655032868,0.0],[110.499627105000073,-7.65499393099997,0.0],[110.499262080000079,-7.655086927999937,0.0],[110.499116097000069,-7.655126911999959,0.0],[110.499116017185045,-7.655125995291697,0.0],[110.499262,-7.655085999999891,0.0]]]]}}
]
}
