{
"type": "FeatureCollection",
"name": "JALAN_LN_Clipped",
"crs": { "type": "name", "properties": { "name": "urn:ogc:def:crs:OGC:1.3:CRS84" } },
"xy_coordinate_resolution": 1e-15,
"features": [
{"type":"Feature","properties":{"NAMRJL":"","KONRJL":0,"MATRJL":0,"FGSRJL":0,"UTKRJL":0,"TOLRJL":0,"WLYRJL":0,"AUTRJL":0,"KLSRJL":0,"SPCRJL":0,"JPARJL":0,"ARHRJL":0,"STARJL":0,"KLLRJL":"","MEDRJL":0,"LOCRJL":0,"JARRJL":0,"FCODE":"","REMARK":"Jalan Lain","SRS_ID":"","lcode":"CA0080","METADATA":"","SHAPE_Leng":0.00088045067},"geometry":{"type":"MultiLineString","coordinates":[[[110.495824228000032,-7.659009507999979,415.470000000001164],[110.495823113000114,-7.659009560999984,415.470000000001164],[110.49549613700006,-7.658987459999931,415.782999999995809],[110.495290456000106,-7.658973551999935,415.979999999995925],[110.494945376000061,-7.658957318000013,415.649999999994179]]]}},
{"type":"Feature","properties":{"NAMRJL":"","KONRJL":0,"MATRJL":0,"FGSRJL":0,"UTKRJL":0,"TOLRJL":0,"WLYRJL":0,"AUTRJL":0,"KLSRJL":0,"SPCRJL":0,"JPARJL":0,"ARHRJL":0,"STARJL":0,"KLLRJL":"","MEDRJL":0,"LOCRJL":0,"JARRJL":0,"FCODE":"","REMARK":"Jalan Lain","SRS_ID":"","lcode":"CA0080","METADATA":"","SHAPE_Leng":0.00747737749},"geometry":{"type":"MultiLineString","coordinates":[[[110.491804074000115,-7.655924009999946,433.634999999994761],[110.491811935000058,-7.655992221,432.55000000000291],[110.491906871000097,-7.656874254999966,428.289999999993597],[110.492037967000016,-7.657876969999975,421.789999999993597],[110.492103022000066,-7.658672503999984,418.539999999993597],[110.492187613000056,-7.659293467999937,415.679999999993015],[110.492226216000049,-7.659741085999936,414.190000000002328],[110.492374585000064,-7.660200232,411.880000000004657],[110.492551244000126,-7.660650716999971,409.899999999994179],[110.49261235100002,-7.660806405999974,408.75],[110.492722047000129,-7.661115957999918,407.410000000003492],[110.492765658000096,-7.66132280499998,406.320000000006985],[110.492722942000029,-7.661600962,405.070000000006985],[110.492650402000066,-7.661980410999945,403.339999999996508],[110.492699009,-7.662149389999982,402.339999999996508],[110.492803314000099,-7.662593856999898,400.660000000003492],[110.492807003000053,-7.662839550999976,400.148000000001048],[110.49280829000007,-7.662924958999938,399.970000000001164],[110.492845380000034,-7.663125854999951,396.679999999993015],[110.492968980000043,-7.663155731999936,396.5]]]}},
{"type":"Feature","properties":{"NAMRJL":"","KONRJL":0,"MATRJL":0,"FGSRJL":0,"UTKRJL":0,"TOLRJL":0,"WLYRJL":0,"AUTRJL":0,"KLSRJL":0,"SPCRJL":0,"JPARJL":0,"ARHRJL":0,"STARJL":0,"KLLRJL":"","MEDRJL":0,"LOCRJL":0,"JARRJL":0,"FCODE":"","REMARK":"Jalan Lain","SRS_ID":"","lcode":"CA0080","METADATA":"","SHAPE_Leng":0.00099523081},"geometry":{"type":"MultiLineString","coordinates":[[[110.48591346200007,-7.657810794999918,427.19999999999709],[110.485640626000048,-7.657788227,427.111999999993714],[110.485542253000091,-7.657780094999953,427.080000000001746],[110.48522728500005,-7.657741276999939,428.570000000006985],[110.484951739000081,-7.657725379999956,428.960000000006403],[110.484922604000062,-7.657721446999986,428.960000000006403]]]}},
{"type":"Feature","properties":{"NAMRJL":"","KONRJL":0,"MATRJL":0,"FGSRJL":0,"UTKRJL":0,"TOLRJL":0,"WLYRJL":0,"AUTRJL":0,"KLSRJL":0,"SPCRJL":0,"JPARJL":0,"ARHRJL":0,"STARJL":0,"KLLRJL":"","MEDRJL":0,"LOCRJL":0,"JARRJL":0,"FCODE":"","REMARK":"Jalan Lain","SRS_ID":"","lcode":"CA0080","METADATA":"","SHAPE_Leng":0.00055947288},"geometry":{"type":"MultiLineString","coordinates":[[[110.489965405000035,-7.655892405,437.559999999997672],[110.489950836000077,-7.655891374,437.559999999997672],[110.489611645000082,-7.655896933999927,437.520999999993364],[110.489406033000122,-7.655894147999962,437.5]]]}},
{"type":"Feature","properties":{"NAMRJL":"","KONRJL":0,"MATRJL":0,"FGSRJL":0,"UTKRJL":0,"TOLRJL":0,"WLYRJL":0,"AUTRJL":0,"KLSRJL":0,"SPCRJL":0,"JPARJL":0,"ARHRJL":0,"STARJL":0,"KLLRJL":"","MEDRJL":0,"LOCRJL":0,"JARRJL":0,"FCODE":"","REMARK":"Jalan Lain","SRS_ID":"","lcode":"CA0080","METADATA":"","SHAPE_Leng":0.00309384454},"geometry":{"type":"MultiLineString","coordinates":[[[110.494945376000061,-7.658957318000013,415.649999999994179],[110.494961777000086,-7.658734585999969,417.289999999993597],[110.49491344100008,-7.657703674999937,422.55000000000291],[110.49479314000007,-7.657152572,425.339999999996508],[110.49472572900001,-7.656474950999968,429.660000000003492],[110.494727805000082,-7.656283073999901,429.139999999999418],[110.494683463000058,-7.656102611999891,429.600000000005821],[110.494603269,-7.655902371999932,431.509999999994761]]]}},
{"type":"Feature","properties":{"NAMRJL":"","KONRJL":0,"MATRJL":0,"FGSRJL":0,"UTKRJL":0,"TOLRJL":0,"WLYRJL":0,"AUTRJL":0,"KLSRJL":0,"SPCRJL":0,"JPARJL":0,"ARHRJL":0,"STARJL":0,"KLLRJL":"","MEDRJL":0,"LOCRJL":0,"JARRJL":0,"FCODE":"","REMARK":"Jalan Lain","SRS_ID":"","lcode":"CA0080","METADATA":"","SHAPE_Leng":0.00281121399},"geometry":{"type":"MultiLineString","coordinates":[[[110.50101960900011,-7.656424192999943,415.937000000005355],[110.501061098000079,-7.65648678999997,415.710000000006403],[110.501437224000114,-7.657077688999923,412.0],[110.501457792000039,-7.657182892000012,411.546000000002095],[110.501482515000049,-7.657309301999902,411.0],[110.501474279000078,-7.657444448999982,410.539999999993597],[110.501390657000087,-7.657584265999915,410.509999999994761],[110.501364854000073,-7.657692752999921,409.660000000003492],[110.50142027000004,-7.657825548999895,408.350000000005821],[110.501716671000054,-7.658403167,403.830000000001746],[110.501886206000052,-7.658656687999919,402.820000000006985],[110.502020585000068,-7.65878074699997,402.759999999994761],[110.502125135000099,-7.658811015999987,402.729999999995925]]]}},
{"type":"Feature","properties":{"NAMRJL":"","KONRJL":0,"MATRJL":0,"FGSRJL":0,"UTKRJL":0,"TOLRJL":0,"WLYRJL":0,"AUTRJL":0,"KLSRJL":0,"SPCRJL":0,"JPARJL":0,"ARHRJL":0,"STARJL":0,"KLLRJL":"","MEDRJL":0,"LOCRJL":0,"JARRJL":0,"FCODE":"","REMARK":"Jalan Lain","SRS_ID":"","lcode":"CA0080","METADATA":"","SHAPE_Leng":0.00052872344},"geometry":{"type":"MultiLineString","coordinates":[[[110.489012285000044,-7.661160373999952,411.119999999995343],[110.489150465000108,-7.661174059999929,411.373399999996764],[110.489539491000059,-7.661199659,412.029999999998836]]]}},
{"type":"Feature","properties":{"NAMRJL":"","KONRJL":0,"MATRJL":0,"FGSRJL":0,"UTKRJL":0,"TOLRJL":0,"WLYRJL":0,"AUTRJL":0,"KLSRJL":0,"SPCRJL":0,"JPARJL":0,"ARHRJL":0,"STARJL":0,"KLLRJL":"","MEDRJL":0,"LOCRJL":0,"JARRJL":0,"FCODE":"","REMARK":"Jalan Lain","SRS_ID":"","lcode":"CA0080","METADATA":"","SHAPE_Leng":0.00193008123},"geometry":{"type":"MultiLineString","coordinates":[[[110.497559290000069,-7.660927875999988,400.494999999995343],[110.497562695000084,-7.660660199999956,401.029999999998836],[110.497552088000091,-7.659924030999974,405.440000000002328],[110.497551621000056,-7.65954873899992,407.259999999994761],[110.497521965,-7.658998691999972,410.910000000003492]]]}},
{"type":"Feature","properties":{"NAMRJL":"","KONRJL":0,"MATRJL":0,"FGSRJL":0,"UTKRJL":0,"TOLRJL":0,"WLYRJL":0,"AUTRJL":0,"KLSRJL":0,"SPCRJL":0,"JPARJL":0,"ARHRJL":0,"STARJL":0,"KLLRJL":"","MEDRJL":0,"LOCRJL":0,"JARRJL":0,"FCODE":"","REMARK":"Jalan Lain","SRS_ID":"","lcode":"CA0080","METADATA":"","SHAPE_Leng":0.0064162166},"geometry":{"type":"MultiLineString","coordinates":[[[110.504303100000101,-7.666134414999924,368.869999999995343],[110.504478715000062,-7.666167604999917,368.509999999994761],[110.504794768000096,-7.666208727999944,367.44999999999709],[110.504981212000075,-7.666207747999952,366.649999999994179],[110.505023681000026,-7.666207877999963,366.649999999994179],[110.505437461000071,-7.666167586,366.649999999994179],[110.505883030000078,-7.6661502329999,366.649999999994179],[110.506235574000115,-7.666209839999947,366.240000000005239],[110.506689185000084,-7.666278959999982,363.94999999999709],[110.507958499000026,-7.666375279999958,361.360000000000582],[110.508895600000116,-7.666481167999926,354.832999999998719],[110.509030388309071,-7.666496049483818,177.390088374109126]]]}},
{"type":"Feature","properties":{"NAMRJL":"","KONRJL":0,"MATRJL":0,"FGSRJL":0,"UTKRJL":0,"TOLRJL":0,"WLYRJL":0,"AUTRJL":0,"KLSRJL":0,"SPCRJL":0,"JPARJL":0,"ARHRJL":0,"STARJL":0,"KLLRJL":"","MEDRJL":0,"LOCRJL":0,"JARRJL":0,"FCODE":"","REMARK":"Jalan Lain","SRS_ID":"","lcode":"CA0080","METADATA":"","SHAPE_Leng":0.00195956179},"geometry":{"type":"MultiLineString","coordinates":[[[110.500373268000018,-7.661001909999896,396.153999999994994],[110.500352955000025,-7.660865002999937,397.229999999995925],[110.500342428000039,-7.660771995999969,397.725999999995111],[110.500325762000074,-7.660624852999963,398.509999999994761],[110.500316797000053,-7.660584853999939,398.509999999994761],[110.500249032000042,-7.659837393,401.179999999993015],[110.50017717300004,-7.659343920999937,404.070000000006985],[110.500163687000082,-7.659214221999953,404.80000000000291],[110.500158232000075,-7.659196657999921,404.979999999995925],[110.500163264000051,-7.659149555999932,404.520000000004075],[110.500132957000019,-7.65906150899993,405.156000000002678]]]}},
{"type":"Feature","properties":{"NAMRJL":"","KONRJL":0,"MATRJL":0,"FGSRJL":0,"UTKRJL":0,"TOLRJL":0,"WLYRJL":0,"AUTRJL":0,"KLSRJL":0,"SPCRJL":0,"JPARJL":0,"ARHRJL":0,"STARJL":0,"KLLRJL":"","MEDRJL":0,"LOCRJL":0,"JARRJL":0,"FCODE":"","REMARK":"Jalan Lain","SRS_ID":"","lcode":"CA0080","METADATA":"","SHAPE_Leng":0.0029553142},"geometry":{"type":"MultiLineString","coordinates":[[[110.497978743672107,-7.670658235107501,179.910916005667474],[110.497970148394003,-7.670908635125882,179.225270737026932]],[[110.497982528187535,-7.670961620642317,179.058090832903389],[110.497995370000083,-7.671016466000012,357.770000000004075],[110.498210091,-7.671933671999962,351.979999999995925],[110.498282707000058,-7.672244047999886,350.820000000006985],[110.49837131000001,-7.672515737999984,350.490000000005239]]]}},
{"type":"Feature","properties":{"NAMRJL":"","KONRJL":0,"MATRJL":0,"FGSRJL":0,"UTKRJL":0,"TOLRJL":0,"WLYRJL":0,"AUTRJL":0,"KLSRJL":0,"SPCRJL":0,"JPARJL":0,"ARHRJL":0,"STARJL":0,"KLLRJL":"","MEDRJL":0,"LOCRJL":0,"JARRJL":0,"FCODE":"","REMARK":"Jalan Lain","SRS_ID":"","lcode":"CA0080","METADATA":"","SHAPE_Leng":0.00176027565},"geometry":{"type":"MultiLineString","coordinates":[[[110.499405853000084,-7.664360153999937,375.429999999993015],[110.499409978000074,-7.665043906999934,376.690000000002328],[110.499558007000061,-7.66562319,376.690000000002328],[110.499578914000011,-7.666090343999919,374.100000000005821],[110.499578756000091,-7.66610133399994,374.070000000006985]]]}},
{"type":"Feature","properties":{"NAMRJL":"","KONRJL":0,"MATRJL":0,"FGSRJL":0,"UTKRJL":0,"TOLRJL":0,"WLYRJL":0,"AUTRJL":0,"KLSRJL":0,"SPCRJL":0,"JPARJL":0,"ARHRJL":0,"STARJL":0,"KLLRJL":"","MEDRJL":0,"LOCRJL":0,"JARRJL":0,"FCODE":"","REMARK":"Jalan Lokal","SRS_ID":"","lcode":"CA0080","METADATA":"","SHAPE_Leng":0.000912635},"geometry":{"type":"MultiLineString","coordinates":[[[110.48839404900005,-7.661068263999969,412.759999999994761],[110.488209325000042,-7.66101234299996,412.791400000001886],[110.487981280000014,-7.660934604000012,412.730299999995623],[110.487731265000022,-7.660849374999977,412.663400000004913],[110.487643091000095,-7.660833747999927,412.940000000002328],[110.487531791000038,-7.660776828999925,413.421000000002095]]]}},
{"type":"Feature","properties":{"NAMRJL":"","KONRJL":0,"MATRJL":0,"FGSRJL":0,"UTKRJL":0,"TOLRJL":0,"WLYRJL":0,"AUTRJL":0,"KLSRJL":0,"SPCRJL":0,"JPARJL":0,"ARHRJL":0,"STARJL":0,"KLLRJL":"","MEDRJL":0,"LOCRJL":0,"JARRJL":0,"FCODE":"","REMARK":"Jalan Lain","SRS_ID":"","lcode":"CA0080","METADATA":"","SHAPE_Leng":0.00280721097},"geometry":{"type":"MultiLineString","coordinates":[[[110.501554523000053,-7.663011313999977,384.220000000001164],[110.501564655,-7.663023201999984,384.190000000002328],[110.501713593000062,-7.663033785999971,383.679999999993015],[110.501973571000079,-7.663014023999935,383.187999999994645],[110.502019844000088,-7.66301050399991,383.100000000005821],[110.502106270000056,-7.663017577999963,383.039999999993597],[110.502123011,-7.663037234999901,383.039999999993597],[110.50216552600007,-7.663216572999907,382.729999999995925],[110.502236815000103,-7.663618485999944,380.940000000002328],[110.502240525000062,-7.663632293999932,380.880000000004657],[110.502336455,-7.663669616999911,380.759999999994761],[110.502405235000097,-7.663677773999964,380.580000000001746],[110.502424588000096,-7.663697469999907,380.55000000000291],[110.502443907000014,-7.663777760999977,380.55000000000291],[110.502450551000024,-7.663951547999968,379.850000000005821],[110.502464420000109,-7.664314201999954,378.389999999999418],[110.502458205000039,-7.664348693999965,378.360000000000582],[110.502446053000099,-7.66435076999996,378.360000000000582],[110.501697019000034,-7.664367215999988,378.240000000005239]]]}},
{"type":"Feature","properties":{"NAMRJL":"","KONRJL":0,"MATRJL":0,"FGSRJL":0,"UTKRJL":0,"TOLRJL":0,"WLYRJL":0,"AUTRJL":0,"KLSRJL":0,"SPCRJL":0,"JPARJL":0,"ARHRJL":0,"STARJL":0,"KLLRJL":"","MEDRJL":0,"LOCRJL":0,"JARRJL":0,"FCODE":"","REMARK":"Jalan Lokal","SRS_ID":"","lcode":"CA0080","METADATA":"","SHAPE_Leng":0.00062511904},"geometry":{"type":"MultiLineString","coordinates":[[[110.489012285000044,-7.661160373999952,411.119999999995343],[110.488980655,-7.661157567999986,411.210999999995693],[110.48839404900005,-7.661068263999969,412.759999999994761]]]}},
{"type":"Feature","properties":{"NAMRJL":"","KONRJL":0,"MATRJL":0,"FGSRJL":0,"UTKRJL":0,"TOLRJL":0,"WLYRJL":0,"AUTRJL":0,"KLSRJL":0,"SPCRJL":0,"JPARJL":0,"ARHRJL":0,"STARJL":0,"KLLRJL":"","MEDRJL":0,"LOCRJL":0,"JARRJL":0,"FCODE":"","REMARK":"Jalan Lain","SRS_ID":"","lcode":"CA0080","METADATA":"","SHAPE_Leng":0.00268208801},"geometry":{"type":"MultiLineString","coordinates":[[[110.493014053000039,-7.66583726299994,383.339999999996508],[110.492926684000096,-7.665499993999923,384.979999999995925],[110.492912542000084,-7.665444800999975,385.289999999993597],[110.492874865000076,-7.66526379499992,385.788000000000466],[110.492852732000102,-7.665157431999912,386.080000000001746],[110.492721308000071,-7.664475283999959,390.029999999998836],[110.492658888000051,-7.663704808999981,394.860000000000582],[110.492624744000068,-7.663190449999966,396.320000000006985]]]}},
{"type":"Feature","properties":{"NAMRJL":"","KONRJL":0,"MATRJL":0,"FGSRJL":0,"UTKRJL":0,"TOLRJL":0,"WLYRJL":0,"AUTRJL":0,"KLSRJL":0,"SPCRJL":0,"JPARJL":0,"ARHRJL":0,"STARJL":0,"KLLRJL":"","MEDRJL":0,"LOCRJL":0,"JARRJL":0,"FCODE":"","REMARK":"Jalan Lain","SRS_ID":"","lcode":"CA0080","METADATA":"","SHAPE_Leng":0.00075243293},"geometry":{"type":"MultiLineString","coordinates":[[[110.493719258000041,-7.663205432999963,396.320000000006985],[110.493670206000061,-7.663205094999935,396.410000000003492],[110.493566620000109,-7.663202847000015,396.510500000003958],[110.493354468000049,-7.663177396999952,396.820999999996275],[110.492968980000043,-7.663155731999936,396.5]]]}},
{"type":"Feature","properties":{"NAMRJL":"","KONRJL":0,"MATRJL":0,"FGSRJL":0,"UTKRJL":0,"TOLRJL":0,"WLYRJL":0,"AUTRJL":0,"KLSRJL":0,"SPCRJL":0,"JPARJL":0,"ARHRJL":0,"STARJL":0,"KLLRJL":"","MEDRJL":0,"LOCRJL":0,"JARRJL":0,"FCODE":"","REMARK":"Jalan Lain","SRS_ID":"","lcode":"CA0080","METADATA":"","SHAPE_Leng":0.0009050234},"geometry":{"type":"MultiLineString","coordinates":[[[110.48591346200007,-7.657810794999918,427.19999999999709],[110.486036240000018,-7.657813428999958,427.229999999995925],[110.486798035000078,-7.657851919999946,426.570000000006985],[110.486798338000099,-7.657871367999956,426.539999999993597]]]}},
{"type":"Feature","properties":{"NAMRJL":"","KONRJL":0,"MATRJL":0,"FGSRJL":0,"UTKRJL":0,"TOLRJL":0,"WLYRJL":0,"AUTRJL":0,"KLSRJL":0,"SPCRJL":0,"JPARJL":0,"ARHRJL":0,"STARJL":0,"KLLRJL":"","MEDRJL":0,"LOCRJL":0,"JARRJL":0,"FCODE":"","REMARK":"Jalan Lain","SRS_ID":"","lcode":"CA0080","METADATA":"","SHAPE_Leng":0.00215614763},"geometry":{"type":"MultiLineString","coordinates":[[[110.486798338000099,-7.657871367999956,426.539999999993597],[110.486730013000042,-7.658491264,426.539999999993597],[110.486744045000052,-7.658615400999967,422.990000000005239],[110.486878159000042,-7.658631127999936,422.690000000002328],[110.486996949000101,-7.658640739999932,422.217000000004191],[110.48769156900002,-7.658680134999905,422.217000000004191],[110.488147268000063,-7.658722049999909,423.660000000003492]]]}},
{"type":"Feature","properties":{"NAMRJL":"","KONRJL":0,"MATRJL":0,"FGSRJL":0,"UTKRJL":0,"TOLRJL":0,"WLYRJL":0,"AUTRJL":0,"KLSRJL":0,"SPCRJL":0,"JPARJL":0,"ARHRJL":0,"STARJL":0,"KLLRJL":"","MEDRJL":0,"LOCRJL":0,"JARRJL":0,"FCODE":"","REMARK":"Jalan Lain","SRS_ID":"","lcode":"CA0080","METADATA":"","SHAPE_Leng":0.00698374218},"geometry":{"type":"MultiLineString","coordinates":[[[110.488396324000064,-7.651747601999979,458.740000000005239],[110.488395454000084,-7.65182322899993,458.429999999993015],[110.488397729,-7.652713393999953,452.070000000006985],[110.488414425000059,-7.653364562,446.770000000004075],[110.488416957000084,-7.653605659999883,445.679999999993015],[110.488417048000088,-7.653620448999952,445.589999999996508],[110.488395149000056,-7.654551315999967,442.919999999998254],[110.488306884000039,-7.655548325999948,439.860000000000582],[110.488276627000019,-7.656187442999983,436.899999999994179],[110.488244331000018,-7.657206869999953,431.690000000002328],[110.488225505000059,-7.657452474999936,430.539999999993597],[110.48820011800008,-7.657969459,427.986999999993714],[110.488187267000086,-7.658231206999975,426.695000000006985],[110.488172696000035,-7.658527912999922,425.229999999995925],[110.488147268000063,-7.658722049999909,423.660000000003492]]]}},
{"type":"Feature","properties":{"NAMRJL":"","KONRJL":0,"MATRJL":0,"FGSRJL":0,"UTKRJL":0,"TOLRJL":0,"WLYRJL":0,"AUTRJL":0,"KLSRJL":0,"SPCRJL":0,"JPARJL":0,"ARHRJL":0,"STARJL":0,"KLLRJL":"","MEDRJL":0,"LOCRJL":0,"JARRJL":0,"FCODE":"","REMARK":"Jalan Lain","SRS_ID":"","lcode":"CA0080","METADATA":"","SHAPE_Leng":0.00421827881},"geometry":{"type":"MultiLineString","coordinates":[[[110.497521965,-7.658998691999972,410.910000000003492],[110.49754185200004,-7.658159595,410.910000000003492],[110.49768866700002,-7.657898924999927,416.039999999993597],[110.497707310000052,-7.65778124799996,416.070000000006985],[110.497652651000067,-7.657514029999966,417.619999999995343],[110.497517069000125,-7.656607200999897,424.130000000004657],[110.497519908000086,-7.656583052999942,424.55000000000291],[110.497570539000023,-7.656487954999889,423.94999999999709],[110.497622907000093,-7.65647294599998,423.736000000004424],[110.498024707000113,-7.656357768999953,422.089999999996508],[110.498420283000073,-7.656276205999955,422.059999999997672],[110.49899355000008,-7.656161679999983,422.0],[110.499154066000031,-7.656084817999929,420.600000000005821]]]}},
{"type":"Feature","properties":{"NAMRJL":"","KONRJL":0,"MATRJL":0,"FGSRJL":0,"UTKRJL":0,"TOLRJL":0,"WLYRJL":0,"AUTRJL":0,"KLSRJL":0,"SPCRJL":0,"JPARJL":0,"ARHRJL":0,"STARJL":0,"KLLRJL":"","MEDRJL":0,"LOCRJL":0,"JARRJL":0,"FCODE":"","REMARK":"Jalan Lain","SRS_ID":"","lcode":"CA0080","METADATA":"","SHAPE_Leng":0.00194633982},"geometry":{"type":"MultiLineString","coordinates":[[[110.48948773100004,-7.663131493999973,403.309999999997672],[110.489499207,-7.663080409999921,403.990000000005239],[110.489543510000033,-7.662096237999936,408.600000000005821],[110.48957571400004,-7.661366198999929,411.789999999993597],[110.489572888000069,-7.661242436999903,412.029999999998836],[110.489539491000059,-7.661199659,412.029999999998836]]]}},
{"type":"Feature","properties":{"NAMRJL":"","KONRJL":0,"MATRJL":0,"FGSRJL":0,"UTKRJL":0,"TOLRJL":0,"WLYRJL":0,"AUTRJL":0,"KLSRJL":0,"SPCRJL":0,"JPARJL":0,"ARHRJL":0,"STARJL":0,"KLLRJL":"","MEDRJL":0,"LOCRJL":0,"JARRJL":0,"FCODE":"","REMARK":"Jalan Lain","SRS_ID":"","lcode":"CA0080","METADATA":"","SHAPE_Leng":0.00261346638},"geometry":{"type":"MultiLineString","coordinates":[[[110.493858611000022,-7.660597305,409.330000000001746],[110.493819718000097,-7.661323944999896,405.619999999995343],[110.493759723000011,-7.662283966999926,399.240000000005239],[110.493749899000093,-7.662687079999973,398.392999999996391],[110.493739551000033,-7.663112062999964,397.5],[110.493719258000041,-7.663205432999963,396.320000000006985]]]}},
{"type":"Feature","properties":{"NAMRJL":"","KONRJL":0,"MATRJL":0,"FGSRJL":0,"UTKRJL":0,"TOLRJL":0,"WLYRJL":0,"AUTRJL":0,"KLSRJL":0,"SPCRJL":0,"JPARJL":0,"ARHRJL":0,"STARJL":0,"KLLRJL":"","MEDRJL":0,"LOCRJL":0,"JARRJL":0,"FCODE":"","REMARK":"Jalan Lain","SRS_ID":"","lcode":"CA0080","METADATA":"","SHAPE_Leng":0.00073262403},"geometry":{"type":"MultiLineString","coordinates":[[[110.501859315000047,-7.670878474999963,349.653000000005704],[110.501954334000089,-7.670928025999977,349.580000000001746],[110.502302046000082,-7.670841656999936,349.479999999995925],[110.502520669000049,-7.670780545999943,349.179999999993015],[110.50256055800007,-7.670785367999898,349.210000000006403]]]}},
{"type":"Feature","properties":{"NAMRJL":"","KONRJL":0,"MATRJL":0,"FGSRJL":0,"UTKRJL":0,"TOLRJL":0,"WLYRJL":0,"AUTRJL":0,"KLSRJL":0,"SPCRJL":0,"JPARJL":0,"ARHRJL":0,"STARJL":0,"KLLRJL":"","MEDRJL":0,"LOCRJL":0,"JARRJL":0,"FCODE":"","REMARK":"Jalan Lain","SRS_ID":"","lcode":"CA0080","METADATA":"","SHAPE_Leng":0.0054666193},"geometry":{"type":"MultiLineString","coordinates":[[[110.488138770000077,-7.662657906999957,403.68399999999383],[110.488072826000035,-7.663061621999965,401.149999999994179],[110.487945878000104,-7.663541850999909,398.729999999995925],[110.48792002400009,-7.663659943,398.130999999993946],[110.487860839000078,-7.663930319999988,396.759999999994761],[110.487824801000031,-7.664026428999946,396.460000000006403],[110.487704817000051,-7.664293458999925,395.100000000005821],[110.487698842000086,-7.664415147999957,394.130000000004657],[110.487711981000103,-7.664656447999938,393.520000000004075],[110.48768848100012,-7.664754127999938,393.009999999994761],[110.487714861000086,-7.664871784999903,392.580000000001746],[110.48780672600013,-7.664970840999928,391.725999999995111],[110.487819159000097,-7.664984242999971,391.610000000000582],[110.487830767000077,-7.665019786999981,391.490000000005239],[110.487835681000035,-7.665286078999898,390.160000000003492],[110.487752390000082,-7.665599463999982,389.669999999998254],[110.487725082351602,-7.665706198683101,194.506052076229167]]]}},
{"type":"Feature","properties":{"NAMRJL":"","KONRJL":0,"MATRJL":0,"FGSRJL":0,"UTKRJL":0,"TOLRJL":0,"WLYRJL":0,"AUTRJL":0,"KLSRJL":0,"SPCRJL":0,"JPARJL":0,"ARHRJL":0,"STARJL":0,"KLLRJL":"","MEDRJL":0,"LOCRJL":0,"JARRJL":0,"FCODE":"","REMARK":"Jalan Lain","SRS_ID":"","lcode":"CA0080","METADATA":"","SHAPE_Leng":0.00161668948},"geometry":{"type":"MultiLineString","coordinates":[[[110.501639305025449,-7.675605127093876,167.127062029625478],[110.501686105000019,-7.67514922299992,335.75],[110.501760159000099,-7.673994468999943,340.460000000006403]]]}},
{"type":"Feature","properties":{"NAMRJL":"","KONRJL":0,"MATRJL":0,"FGSRJL":0,"UTKRJL":0,"TOLRJL":0,"WLYRJL":0,"AUTRJL":0,"KLSRJL":0,"SPCRJL":0,"JPARJL":0,"ARHRJL":0,"STARJL":0,"KLLRJL":"","MEDRJL":0,"LOCRJL":0,"JARRJL":0,"FCODE":"","REMARK":"Jalan Lain","SRS_ID":"","lcode":"CA0080","METADATA":"","SHAPE_Leng":0.00703207663},"geometry":{"type":"MultiLineString","coordinates":[[[110.491804074000115,-7.655924009999946,433.634999999994761],[110.491759995000024,-7.655500137999958,435.039999999993597],[110.491678636000046,-7.65475279599994,438.725999999995111],[110.491619990809511,-7.654214032895947,220.691854283138127]],[[110.491619133697384,-7.654206218876134,220.711191815776147],[110.491538762000104,-7.653553678000023,444.82499999999709],[110.491538680056109,-7.653553012541968,222.414234414950897]]]}},
{"type":"Feature","properties":{"NAMRJL":"","KONRJL":0,"MATRJL":0,"FGSRJL":0,"UTKRJL":0,"TOLRJL":0,"WLYRJL":0,"AUTRJL":0,"KLSRJL":0,"SPCRJL":0,"JPARJL":0,"ARHRJL":0,"STARJL":0,"KLLRJL":"","MEDRJL":0,"LOCRJL":0,"JARRJL":0,"FCODE":"","REMARK":"Jalan Lain","SRS_ID":"","lcode":"CA0080","METADATA":"","SHAPE_Leng":0.00165203251},"geometry":{"type":"MultiLineString","coordinates":[[[110.50256055800007,-7.670785367999898,349.210000000006403],[110.502533823000078,-7.670696230999983,349.240000000005239],[110.502432391000028,-7.670461304999908,349.270000000004075],[110.502209056000112,-7.670014259999956,351.55000000000291],[110.502148524000077,-7.669756848999974,352.339999999996508],[110.502122274000044,-7.66950846999994,354.380000000004657],[110.502051551000051,-7.669228089999923,355.5]]]}},
{"type":"Feature","properties":{"NAMRJL":"","KONRJL":0,"MATRJL":0,"FGSRJL":0,"UTKRJL":0,"TOLRJL":0,"WLYRJL":0,"AUTRJL":0,"KLSRJL":0,"SPCRJL":0,"JPARJL":0,"ARHRJL":0,"STARJL":0,"KLLRJL":"","MEDRJL":0,"LOCRJL":0,"JARRJL":0,"FCODE":"","REMARK":"Jalan Lain","SRS_ID":"","lcode":"CA0080","METADATA":"","SHAPE_Leng":0.00081899656},"geometry":{"type":"MultiLineString","coordinates":[[[110.50256055800007,-7.670785367999898,349.210000000006403],[110.502843238000096,-7.670865591999963,348.330000000001746],[110.503129222000041,-7.670927050999985,348.149999999994179],[110.503326828000056,-7.67098280899998,346.479999999995925],[110.503353770000061,-7.67098732599991,346.289999999993597]]]}},
{"type":"Feature","properties":{"NAMRJL":"","KONRJL":0,"MATRJL":0,"FGSRJL":0,"UTKRJL":0,"TOLRJL":0,"WLYRJL":0,"AUTRJL":0,"KLSRJL":0,"SPCRJL":0,"JPARJL":0,"ARHRJL":0,"STARJL":0,"KLLRJL":"","MEDRJL":0,"LOCRJL":0,"JARRJL":0,"FCODE":"","REMARK":"Jalan Lain","SRS_ID":"","lcode":"CA0080","METADATA":"","SHAPE_Leng":0.00188554748},"geometry":{"type":"MultiLineString","coordinates":[[[110.495594424000032,-7.663385067,393.130000000004657],[110.495556862000029,-7.66337557,393.160000000003492],[110.495273485000027,-7.663361299999981,393.860000000000582],[110.494835337000012,-7.66334009,395.320000000006985],[110.49464544300011,-7.663322943,395.153000000005704],[110.494482220000108,-7.66330820699994,395.009999999994761],[110.493837026,-7.663221291999943,396.395999999993364],[110.493719258000041,-7.663205432999963,396.320000000006985]]]}},
{"type":"Feature","properties":{"NAMRJL":"","KONRJL":0,"MATRJL":0,"FGSRJL":0,"UTKRJL":0,"TOLRJL":0,"WLYRJL":0,"AUTRJL":0,"KLSRJL":0,"SPCRJL":0,"JPARJL":0,"ARHRJL":0,"STARJL":0,"KLLRJL":"","MEDRJL":0,"LOCRJL":0,"JARRJL":0,"FCODE":"","REMARK":"Jalan Lain","SRS_ID":"","lcode":"CA0080","METADATA":"","SHAPE_Leng":0.0022828429},"geometry":{"type":"MultiLineString","coordinates":[[[110.49837131000001,-7.672515737999984,350.490000000005239],[110.49837249700002,-7.67254681999998,350.490000000005239],[110.498418716000032,-7.672682499999926,349.669999999998254],[110.498623434000095,-7.673462492999892,345.649999999994179],[110.498679290000013,-7.673762728999954,342.710000000006403],[110.498907442000061,-7.674655247,340.210000000006403],[110.498884308951929,-7.674726689200144,169.607434760419778]]]}},
{"type":"Feature","properties":{"NAMRJL":"","KONRJL":0,"MATRJL":0,"FGSRJL":0,"UTKRJL":0,"TOLRJL":0,"WLYRJL":0,"AUTRJL":0,"KLSRJL":0,"SPCRJL":0,"JPARJL":0,"ARHRJL":0,"STARJL":0,"KLLRJL":"","MEDRJL":0,"LOCRJL":0,"JARRJL":0,"FCODE":"","REMARK":"Jalan Lain","SRS_ID":"","lcode":"CA0080","METADATA":"","SHAPE_Leng":0.00194402521},"geometry":{"type":"MultiLineString","coordinates":[[[110.493858611000022,-7.660597305,409.330000000001746],[110.494652361000064,-7.660614861999935,407.169999999998254],[110.494999551,-7.660634408999954,407.94100000000617],[110.495178019000036,-7.660644450999897,406.80000000000291],[110.495450579000121,-7.660718833000011,405.889999999999418],[110.495509164000083,-7.660769076,405.100000000005821],[110.495723831000078,-7.660922546999902,403.720000000001164]]]}},
{"type":"Feature","properties":{"NAMRJL":"","KONRJL":0,"MATRJL":0,"FGSRJL":0,"UTKRJL":0,"TOLRJL":0,"WLYRJL":0,"AUTRJL":0,"KLSRJL":0,"SPCRJL":0,"JPARJL":0,"ARHRJL":0,"STARJL":0,"KLLRJL":"","MEDRJL":0,"LOCRJL":0,"JARRJL":0,"FCODE":"","REMARK":"Jalan Lokal","SRS_ID":"","lcode":"CA0080","METADATA":"","SHAPE_Leng":0.00157203138},"geometry":{"type":"MultiLineString","coordinates":[[[110.488898260000028,-7.66272815,405.190000000002328],[110.488897842000085,-7.662698200999916,405.179999999993015],[110.488939178000038,-7.662142828999972,407.32499999999709],[110.488988346000028,-7.661482097000015,409.877999999996973],[110.489012285000044,-7.661160373999952,411.119999999995343]]]}},
{"type":"Feature","properties":{"NAMRJL":"","KONRJL":0,"MATRJL":0,"FGSRJL":0,"UTKRJL":0,"TOLRJL":0,"WLYRJL":0,"AUTRJL":0,"KLSRJL":0,"SPCRJL":0,"JPARJL":0,"ARHRJL":0,"STARJL":0,"KLLRJL":"","MEDRJL":0,"LOCRJL":0,"JARRJL":0,"FCODE":"","REMARK":"Jalan Lain","SRS_ID":"","lcode":"CA0080","METADATA":"","SHAPE_Leng":0.00220864262},"geometry":{"type":"MultiLineString","coordinates":[[[110.484993655000082,-7.655519704999978,440.559999999997672],[110.485024741000075,-7.65577186299997,438.559999999997672],[110.48499788400008,-7.65638492399998,435.559999999997672],[110.484968223000109,-7.656622655000021,434.470000000001164],[110.484946166000057,-7.657602556,430.169999999998254],[110.484922604000062,-7.657721446999986,428.960000000006403]]]}},
{"type":"Feature","properties":{"NAMRJL":"","KONRJL":0,"MATRJL":0,"FGSRJL":0,"UTKRJL":0,"TOLRJL":0,"WLYRJL":0,"AUTRJL":0,"KLSRJL":0,"SPCRJL":0,"JPARJL":0,"ARHRJL":0,"STARJL":0,"KLLRJL":"","MEDRJL":0,"LOCRJL":0,"JARRJL":0,"FCODE":"","REMARK":"Jalan Lain","SRS_ID":"","lcode":"CA0080","METADATA":"","SHAPE_Leng":5.1166e-07},"geometry":{"type":"MultiLineString","coordinates":[[[110.493994447000077,-7.655973422999949,432.269000000000233],[110.49399460700009,-7.655972936999909,432.274000000004889]]]}},
{"type":"Feature","properties":{"NAMRJL":"","KONRJL":0,"MATRJL":0,"FGSRJL":0,"UTKRJL":0,"TOLRJL":0,"WLYRJL":0,"AUTRJL":0,"KLSRJL":0,"SPCRJL":0,"JPARJL":0,"ARHRJL":0,"STARJL":0,"KLLRJL":"","MEDRJL":0,"LOCRJL":0,"JARRJL":0,"FCODE":"","REMARK":"Jalan Lain","SRS_ID":"","lcode":"CA0080","METADATA":"","SHAPE_Leng":0.00188845319},"geometry":{"type":"MultiLineString","coordinates":[[[110.497521965,-7.658998691999972,410.910000000003492],[110.498313130000085,-7.659037811999923,408.720000000001164],[110.499366470000027,-7.659054133999941,406.690000000002328],[110.499409250000014,-7.659051597,406.380000000004657]]]}},
{"type":"Feature","properties":{"NAMRJL":"","KONRJL":0,"MATRJL":0,"FGSRJL":0,"UTKRJL":0,"TOLRJL":0,"WLYRJL":0,"AUTRJL":0,"KLSRJL":0,"SPCRJL":0,"JPARJL":0,"ARHRJL":0,"STARJL":0,"KLLRJL":"","MEDRJL":0,"LOCRJL":0,"JARRJL":0,"FCODE":"","REMARK":"Jalan Lain","SRS_ID":"","lcode":"CA0080","METADATA":"","SHAPE_Leng":0.00095841147},"geometry":{"type":"MultiLineString","coordinates":[[[110.499154066000031,-7.656084817999929,420.600000000005821],[110.499019446,-7.655500784000012,424.399999999994179],[110.498954848000068,-7.655188327,424.94999999999709],[110.498916727000022,-7.65517621599998,424.94999999999709]]]}},
{"type":"Feature","properties":{"NAMRJL":"","KONRJL":0,"MATRJL":0,"FGSRJL":0,"UTKRJL":0,"TOLRJL":0,"WLYRJL":0,"AUTRJL":0,"KLSRJL":0,"SPCRJL":0,"JPARJL":0,"ARHRJL":0,"STARJL":0,"KLLRJL":"","MEDRJL":0,"LOCRJL":0,"JARRJL":0,"FCODE":"","REMARK":"Jalan Lain","SRS_ID":"","lcode":"CA0080","METADATA":"","SHAPE_Leng":0.00215028918},"geometry":{"type":"MultiLineString","coordinates":[[[110.487531791000038,-7.660776828999925,413.421000000002095],[110.487561587000101,-7.660721524999968,413.630000000004657],[110.487666364000063,-7.66043266899996,415.0],[110.487797842000106,-7.660044742999926,416.419999999998254],[110.487936576000038,-7.659541154999914,418.539999999993597],[110.48799818100008,-7.659316568999984,420.081000000005588],[110.488060104000041,-7.659090806999956,421.630000000004657],[110.488104280000059,-7.658890802999927,423.419999999998254],[110.488128602000117,-7.658750375999944,423.479999999995925],[110.488147268000063,-7.658722049999909,423.660000000003492]]]}},
{"type":"Feature","properties":{"NAMRJL":"","KONRJL":0,"MATRJL":0,"FGSRJL":0,"UTKRJL":0,"TOLRJL":0,"WLYRJL":0,"AUTRJL":0,"KLSRJL":0,"SPCRJL":0,"JPARJL":0,"ARHRJL":0,"STARJL":0,"KLLRJL":"","MEDRJL":0,"LOCRJL":0,"JARRJL":0,"FCODE":"","REMARK":"Jalan Lain","SRS_ID":"","lcode":"CA0080","METADATA":"","SHAPE_Leng":0.00144638951},"geometry":{"type":"MultiLineString","coordinates":[[[110.501496978,-7.670677129999913,349.971000000005006],[110.501076267000087,-7.670140930999956,354.990000000005239],[110.501054442000068,-7.67008742999997,355.286999999996624],[110.500826297000103,-7.669528251999978,358.389999999999418],[110.500798658000036,-7.669428893000017,358.809999999997672]]]}},
{"type":"Feature","properties":{"NAMRJL":"","KONRJL":0,"MATRJL":0,"FGSRJL":0,"UTKRJL":0,"TOLRJL":0,"WLYRJL":0,"AUTRJL":0,"KLSRJL":0,"SPCRJL":0,"JPARJL":0,"ARHRJL":0,"STARJL":0,"KLLRJL":"","MEDRJL":0,"LOCRJL":0,"JARRJL":0,"FCODE":"","REMARK":"Jalan Lain","SRS_ID":"","lcode":"CA0080","METADATA":"","SHAPE_Leng":0.00322430584},"geometry":{"type":"MultiLineString","coordinates":[[[110.484993655000082,-7.655519704999978,440.559999999997672],[110.48550789700009,-7.655596977999977,439.860000000000582],[110.485973906000098,-7.655588868999928,438.529999999998836],[110.486012318000078,-7.655721057999941,437.110000000000582],[110.486030013000033,-7.655965890999948,435.5],[110.486058653,-7.656163819999982,434.080000000001746],[110.486053433,-7.656525237999954,433.410000000003492],[110.486013669000016,-7.656999474999935,431.05000000000291],[110.485942239000053,-7.657644584999932,427.600000000005821],[110.48591346200007,-7.657810794999918,427.19999999999709]]]}},
{"type":"Feature","properties":{"NAMRJL":"","KONRJL":0,"MATRJL":0,"FGSRJL":0,"UTKRJL":0,"TOLRJL":0,"WLYRJL":0,"AUTRJL":0,"KLSRJL":0,"SPCRJL":0,"JPARJL":0,"ARHRJL":0,"STARJL":0,"KLLRJL":"","MEDRJL":0,"LOCRJL":0,"JARRJL":0,"FCODE":"","REMARK":"Jalan Lain","SRS_ID":"","lcode":"CA0080","METADATA":"","SHAPE_Leng":0.001272387},"geometry":{"type":"MultiLineString","coordinates":[[[110.497567474000036,-7.662199653999966,395.589999999996508],[110.497551760000064,-7.661891215999937,397.630000000004657],[110.497547793000095,-7.661833420999951,397.809999999997672],[110.49755187100007,-7.66151042499996,399.330000000001746],[110.497559290000069,-7.660927875999988,400.494999999995343]]]}},
{"type":"Feature","properties":{"NAMRJL":"","KONRJL":0,"MATRJL":0,"FGSRJL":0,"UTKRJL":0,"TOLRJL":0,"WLYRJL":0,"AUTRJL":0,"KLSRJL":0,"SPCRJL":0,"JPARJL":0,"ARHRJL":0,"STARJL":0,"KLLRJL":"","MEDRJL":0,"LOCRJL":0,"JARRJL":0,"FCODE":"","REMARK":"Jalan Lain","SRS_ID":"","lcode":"CA0080","METADATA":"","SHAPE_Leng":0.00558789253},"geometry":{"type":"MultiLineString","coordinates":[[[110.49399460700009,-7.655972936999909,432.274000000004889],[110.493994915209669,-7.655972003740674,216.141772146447579]]]}},
{"type":"Feature","properties":{"NAMRJL":"","KONRJL":0,"MATRJL":0,"FGSRJL":0,"UTKRJL":0,"TOLRJL":0,"WLYRJL":0,"AUTRJL":0,"KLSRJL":0,"SPCRJL":0,"JPARJL":0,"ARHRJL":0,"STARJL":0,"KLLRJL":"","MEDRJL":0,"LOCRJL":0,"JARRJL":0,"FCODE":"","REMARK":"Jalan Lain","SRS_ID":"","lcode":"CA0080","METADATA":"","SHAPE_Leng":0.00220016605},"geometry":{"type":"MultiLineString","coordinates":[[[110.498915620019147,-7.655175350764361,212.475922535312606],[110.498916727000022,-7.65517621599998,424.94999999999709]]]}},
{"type":"Feature","properties":{"NAMRJL":"","KONRJL":0,"MATRJL":0,"FGSRJL":0,"UTKRJL":0,"TOLRJL":0,"WLYRJL":0,"AUTRJL":0,"KLSRJL":0,"SPCRJL":0,"JPARJL":0,"ARHRJL":0,"STARJL":0,"KLLRJL":"","MEDRJL":0,"LOCRJL":0,"JARRJL":0,"FCODE":"","REMARK":"Jalan Lain","SRS_ID":"","lcode":"CA0080","METADATA":"","SHAPE_Leng":0.0007726761},"geometry":{"type":"MultiLineString","coordinates":[[[110.488138770000077,-7.662657906999957,403.68399999999383],[110.488306088000058,-7.662674006999957,404.220000000001164],[110.488511140000057,-7.662691997999936,405.039999999993597],[110.488609169000085,-7.662693824,404.57499999999709],[110.488866280000053,-7.662698596999949,405.190000000002328],[110.488898260000028,-7.66272815,405.190000000002328]]]}},
{"type":"Feature","properties":{"NAMRJL":"","KONRJL":0,"MATRJL":0,"FGSRJL":0,"UTKRJL":0,"TOLRJL":0,"WLYRJL":0,"AUTRJL":0,"KLSRJL":0,"SPCRJL":0,"JPARJL":0,"ARHRJL":0,"STARJL":0,"KLLRJL":"","MEDRJL":0,"LOCRJL":0,"JARRJL":0,"FCODE":"","REMARK":"Jalan Lain","SRS_ID":"","lcode":"CA0080","METADATA":"","SHAPE_Leng":0.00436240041},"geometry":{"type":"MultiLineString","coordinates":[[[110.501859315000047,-7.670878474999963,349.653000000005704],[110.501870800000106,-7.670974992999955,349.580000000001746],[110.501985758000032,-7.671124881000011,348.360000000000582],[110.502171804000056,-7.671328272999965,346.779999999998836],[110.50221638,-7.671427633999926,346.720000000001164],[110.502199725000054,-7.671582452999946,346.720000000001164],[110.502134374000065,-7.671710993000012,346.720000000001164],[110.50181733200013,-7.672283685999968,345.289999999993597],[110.50183045200005,-7.672361409999915,345.289999999993597],[110.501894312,-7.672446482999938,345.139999999999418],[110.502407602000019,-7.673051660999917,342.55000000000291],[110.502714028000071,-7.673578572999904,340.149999999994179],[110.502716644000103,-7.673699574999969,340.369999999995343],[110.502651596000049,-7.673778438999921,340.460000000006403],[110.50251542900007,-7.673854008999957,340.580000000001746],[110.50222873500006,-7.673933140999932,340.639999999999418],[110.501760159000099,-7.673994468999943,340.460000000006403]]]}},
{"type":"Feature","properties":{"NAMRJL":"","KONRJL":0,"MATRJL":0,"FGSRJL":0,"UTKRJL":0,"TOLRJL":0,"WLYRJL":0,"AUTRJL":0,"KLSRJL":0,"SPCRJL":0,"JPARJL":0,"ARHRJL":0,"STARJL":0,"KLLRJL":"","MEDRJL":0,"LOCRJL":0,"JARRJL":0,"FCODE":"","REMARK":"Jalan Lain","SRS_ID":"","lcode":"CA0080","METADATA":"","SHAPE_Leng":0.00095248726},"geometry":{"type":"MultiLineString","coordinates":[[[110.499425763000048,-7.660905752999934,398.360000000000582],[110.499513599000025,-7.66091631999992,397.986499999999069],[110.500000200000059,-7.660959013999989,396.574099999997998],[110.500000242000056,-7.660959017999989,396.573999999993248],[110.500051133000099,-7.660963482999914,396.529999999998836],[110.50020381500012,-7.660981696,396.351999999998952],[110.500373268000018,-7.661001909999896,396.153999999994994]]]}},
{"type":"Feature","properties":{"NAMRJL":"","KONRJL":0,"MATRJL":0,"FGSRJL":0,"UTKRJL":0,"TOLRJL":0,"WLYRJL":0,"AUTRJL":0,"KLSRJL":0,"SPCRJL":0,"JPARJL":0,"ARHRJL":0,"STARJL":0,"KLLRJL":"","MEDRJL":0,"LOCRJL":0,"JARRJL":0,"FCODE":"","REMARK":"Jalan Lain","SRS_ID":"","lcode":"CA0080","METADATA":"","SHAPE_Leng":0.0025527509},"geometry":{"type":"MultiLineString","coordinates":[[[110.498606671509194,-7.669645374408589,181.190755743384756],[110.498759604000085,-7.669627980999969,362.520000000004075],[110.500000229000051,-7.669507144,361.003100000001723],[110.500000271000062,-7.669507139999919,361.002999999996973],[110.500550539000116,-7.669453543000014,360.330000000001746],[110.500798658000036,-7.669428893000017,358.809999999997672]]]}},
{"type":"Feature","properties":{"NAMRJL":"","KONRJL":0,"MATRJL":0,"FGSRJL":0,"UTKRJL":0,"TOLRJL":0,"WLYRJL":0,"AUTRJL":0,"KLSRJL":0,"SPCRJL":0,"JPARJL":0,"ARHRJL":0,"STARJL":0,"KLLRJL":"","MEDRJL":0,"LOCRJL":0,"JARRJL":0,"FCODE":"","REMARK":"Jalan Lain","SRS_ID":"","lcode":"CA0080","METADATA":"","SHAPE_Leng":0.00183989938},"geometry":{"type":"MultiLineString","coordinates":[[[110.489965405000035,-7.655892405,437.559999999997672],[110.490554951000064,-7.655928540999966,437.559999999997672],[110.490714817000054,-7.655933641999944,436.279999999998836],[110.491000394000054,-7.655931121,435.588000000003376],[110.491804074000115,-7.655924009999946,433.634999999994761]]]}},
{"type":"Feature","properties":{"NAMRJL":"","KONRJL":0,"MATRJL":0,"FGSRJL":0,"UTKRJL":0,"TOLRJL":0,"WLYRJL":0,"AUTRJL":0,"KLSRJL":0,"SPCRJL":0,"JPARJL":0,"ARHRJL":0,"STARJL":0,"KLLRJL":"","MEDRJL":0,"LOCRJL":0,"JARRJL":0,"FCODE":"","REMARK":"Jalan Lain","SRS_ID":"","lcode":"CA0080","METADATA":"","SHAPE_Leng":0.00246906018},"geometry":{"type":"MultiLineString","coordinates":[[[110.495594424000032,-7.663385067,393.130000000004657],[110.495595213000087,-7.663353734999887,393.160000000003492],[110.495638971000076,-7.663075586999966,394.220000000001164],[110.495679787000071,-7.662538918999971,396.957999999998719],[110.4957133730001,-7.66209735499994,399.210000000006403],[110.495707581000062,-7.661432740999928,400.880000000004657],[110.495723831000078,-7.660922546999902,403.720000000001164]]]}},
{"type":"Feature","properties":{"NAMRJL":"","KONRJL":0,"MATRJL":0,"FGSRJL":0,"UTKRJL":0,"TOLRJL":0,"WLYRJL":0,"AUTRJL":0,"KLSRJL":0,"SPCRJL":0,"JPARJL":0,"ARHRJL":0,"STARJL":0,"KLLRJL":"","MEDRJL":0,"LOCRJL":0,"JARRJL":0,"FCODE":"","REMARK":"Jalan Lain","SRS_ID":"","lcode":"CA0080","METADATA":"","SHAPE_Leng":0.00216634799},"geometry":{"type":"MultiLineString","coordinates":[[[110.499406250000021,-7.663127768999932,386.997000000003027],[110.499471539000098,-7.663128404999984,386.839999999996508],[110.500000209000049,-7.663127562999914,386.837599999998929],[110.50000025100006,-7.663127562999914,386.837599999998929],[110.501069449000056,-7.66312584499995,385.01600000000326],[110.501153798000118,-7.663125707999939,384.919999999998254],[110.501412702000039,-7.663062897999982,384.645999999993364],[110.501503124000067,-7.663040958999943,384.55000000000291],[110.501554523000053,-7.663011313999977,384.220000000001164]]]}},
{"type":"Feature","properties":{"NAMRJL":"","KONRJL":0,"MATRJL":0,"FGSRJL":0,"UTKRJL":0,"TOLRJL":0,"WLYRJL":0,"AUTRJL":0,"KLSRJL":0,"SPCRJL":0,"JPARJL":0,"ARHRJL":0,"STARJL":0,"KLLRJL":"","MEDRJL":0,"LOCRJL":0,"JARRJL":0,"FCODE":"","REMARK":"Jalan Lain","SRS_ID":"","lcode":"CA0080","METADATA":"","SHAPE_Leng":0.00181685603},"geometry":{"type":"MultiLineString","coordinates":[[[110.499073230536041,-7.675291951292135,168.315682869687009],[110.499073332000108,-7.675292259999942,336.630000000004657],[110.499124282604271,-7.675502614424254,167.707571844606917]]]}},
{"type":"Feature","properties":{"NAMRJL":"","KONRJL":0,"MATRJL":0,"FGSRJL":0,"UTKRJL":0,"TOLRJL":0,"WLYRJL":0,"AUTRJL":0,"KLSRJL":0,"SPCRJL":0,"JPARJL":0,"ARHRJL":0,"STARJL":0,"KLLRJL":"","MEDRJL":0,"LOCRJL":0,"JARRJL":0,"FCODE":"","REMARK":"Jalan Lokal","SRS_ID":"","lcode":"CA0080","METADATA":"","SHAPE_Leng":0.00279509428},"geometry":{"type":"MultiLineString","coordinates":[[[110.487531791000038,-7.660776828999925,413.421000000002095],[110.487340161000077,-7.660742020999976,411.630000000004657],[110.48701144000006,-7.660708296999939,409.149999999994179],[110.48683102300005,-7.660684279999906,409.285900000002584],[110.486663630000052,-7.660661995999927,409.411999999996624],[110.486357007,-7.660611284,412.330000000001746],[110.486051084000081,-7.660588974999925,412.952999999994063],[110.485902085000106,-7.660572508999984,412.952999999994063],[110.485902064202293,-7.660572506701624,206.476499999997031]]]}},
{"type":"Feature","properties":{"NAMRJL":"","KONRJL":0,"MATRJL":0,"FGSRJL":0,"UTKRJL":0,"TOLRJL":0,"WLYRJL":0,"AUTRJL":0,"KLSRJL":0,"SPCRJL":0,"JPARJL":0,"ARHRJL":0,"STARJL":0,"KLLRJL":"","MEDRJL":0,"LOCRJL":0,"JARRJL":0,"FCODE":"","REMARK":"Jalan Lain","SRS_ID":"","lcode":"CA0080","METADATA":"","SHAPE_Leng":0.00884026998},"geometry":{"type":"MultiLineString","coordinates":[[[110.483262024691172,-7.655874171453114,220.160541197904678],[110.483262101000079,-7.655874389999926,440.320000000006985],[110.483268387334775,-7.656176043545503,218.98250564221766]],[[110.483270987341456,-7.656300806427994,218.495497972828758],[110.48327099,-7.656300933999958,436.990000000005239],[110.483270726808655,-7.656317403900701,218.446671756209383]],[[110.483248920087618,-7.65745133169121,215.205783458865909],[110.483248886000041,-7.657451809999969,430.410000000003492],[110.483199563159644,-7.657656196748651,214.777283018524997]],[[110.483175959105409,-7.657754008550639,214.572593776341392],[110.483175660000114,-7.65775524799994,429.139999999999418],[110.483068320525348,-7.657777224735522,214.200004894794034]]]}},
{"type":"Feature","properties":{"NAMRJL":"","KONRJL":0,"MATRJL":0,"FGSRJL":0,"UTKRJL":0,"TOLRJL":0,"WLYRJL":0,"AUTRJL":0,"KLSRJL":0,"SPCRJL":0,"JPARJL":0,"ARHRJL":0,"STARJL":0,"KLLRJL":"","MEDRJL":0,"LOCRJL":0,"JARRJL":0,"FCODE":"","REMARK":"Jalan Lain","SRS_ID":"","lcode":"CA0080","METADATA":"","SHAPE_Leng":0.00161140602},"geometry":{"type":"MultiLineString","coordinates":[[[110.48839404900005,-7.661068263999969,412.759999999994761],[110.488341967000096,-7.661267868999964,411.44999999999709],[110.488175257000066,-7.66235248,405.089999999996508],[110.488157403000102,-7.662543830999933,404.399999999994179],[110.488138770000077,-7.662657906999957,403.68399999999383]]]}},
{"type":"Feature","properties":{"NAMRJL":"","KONRJL":0,"MATRJL":0,"FGSRJL":0,"UTKRJL":0,"TOLRJL":0,"WLYRJL":0,"AUTRJL":0,"KLSRJL":0,"SPCRJL":0,"JPARJL":0,"ARHRJL":0,"STARJL":0,"KLLRJL":"","MEDRJL":0,"LOCRJL":0,"JARRJL":0,"FCODE":"","REMARK":"Jalan Lain","SRS_ID":"","lcode":"CA0080","METADATA":"","SHAPE_Leng":0.00528393318},"geometry":{"type":"MultiLineString","coordinates":[[[110.489406033000122,-7.655894147999962,437.5],[110.489373594000099,-7.656304679,435.793999999994412],[110.489341458000112,-7.656710984999958,434.104999999995925],[110.489298360000092,-7.657255807999917,431.839999999996508],[110.489276125000032,-7.657821721999934,429.380000000004657],[110.489270351000087,-7.657957928999924,428.350000000005821],[110.489191480000045,-7.658733980999919,424.513999999995576],[110.489159516000058,-7.659048503999919,422.960000000006403],[110.489100317000052,-7.660299062,416.839999999996508],[110.489087596000061,-7.660656690999932,414.820000000006985],[110.48903864,-7.661003024999989,412.630000000004657],[110.48902130900008,-7.661113275999963,411.509999999994761],[110.489012285000044,-7.661160373999952,411.119999999995343]]]}},
{"type":"Feature","properties":{"NAMRJL":"","KONRJL":0,"MATRJL":0,"FGSRJL":0,"UTKRJL":0,"TOLRJL":0,"WLYRJL":0,"AUTRJL":0,"KLSRJL":0,"SPCRJL":0,"JPARJL":0,"ARHRJL":0,"STARJL":0,"KLLRJL":"","MEDRJL":0,"LOCRJL":0,"JARRJL":0,"FCODE":"","REMARK":"Jalan Lain","SRS_ID":"","lcode":"CA0080","METADATA":"","SHAPE_Leng":0.0013189623},"geometry":{"type":"MultiLineString","coordinates":[[[110.504703914000046,-7.662931819999883,378.843999999997322],[110.504781793000092,-7.662999993999929,378.600000000005821],[110.505029662000084,-7.663133833999989,378.44999999999709],[110.50515918400005,-7.663171158999969,378.419999999998254],[110.505252115000104,-7.663284676999947,377.899999999994179],[110.505432850000048,-7.663571079999929,376.5],[110.505483828000095,-7.663740919999949,375.960000000006403],[110.505535445000092,-7.663867045,374.009999999994761]]]}},
{"type":"Feature","properties":{"NAMRJL":"","KONRJL":0,"MATRJL":0,"FGSRJL":0,"UTKRJL":0,"TOLRJL":0,"WLYRJL":0,"AUTRJL":0,"KLSRJL":0,"SPCRJL":0,"JPARJL":0,"ARHRJL":0,"STARJL":0,"KLLRJL":"","MEDRJL":0,"LOCRJL":0,"JARRJL":0,"FCODE":"","REMARK":"Jalan Lain","SRS_ID":"","lcode":"CA0080","METADATA":"","SHAPE_Leng":0.00139039718},"geometry":{"type":"MultiLineString","coordinates":[[[110.497509437000119,-7.66358408699994,390.55000000000291],[110.497552916000075,-7.663426214999934,391.179999999993015],[110.497567474000036,-7.662199653999966,395.589999999996508]]]}},
{"type":"Feature","properties":{"NAMRJL":"","KONRJL":0,"MATRJL":0,"FGSRJL":0,"UTKRJL":0,"TOLRJL":0,"WLYRJL":0,"AUTRJL":0,"KLSRJL":0,"SPCRJL":0,"JPARJL":0,"ARHRJL":0,"STARJL":0,"KLLRJL":"","MEDRJL":0,"LOCRJL":0,"JARRJL":0,"FCODE":"","REMARK":"Jalan Lain","SRS_ID":"","lcode":"CA0080","METADATA":"","SHAPE_Leng":0.00328726173},"geometry":{"type":"MultiLineString","coordinates":[[[110.488396324000064,-7.651747601999979,458.740000000005239],[110.487861162000016,-7.651722074,457.770000000004075],[110.487443424000091,-7.651717461999972,458.830000000001746],[110.487117176000098,-7.651720963999907,459.69999999999709],[110.487012706000073,-7.651748074999929,460.220000000001164],[110.48683812900002,-7.651762737999988,460.369999999995343],[110.486310034000013,-7.651749472999956,460.835999999995693],[110.486164571449891,-7.651751056842559,230.417999999997846]]]}},
{"type":"Feature","properties":{"NAMRJL":"","KONRJL":0,"MATRJL":0,"FGSRJL":0,"UTKRJL":0,"TOLRJL":0,"WLYRJL":0,"AUTRJL":0,"KLSRJL":0,"SPCRJL":0,"JPARJL":0,"ARHRJL":0,"STARJL":0,"KLLRJL":"","MEDRJL":0,"LOCRJL":0,"JARRJL":0,"FCODE":"","REMARK":"Jalan Lain","SRS_ID":"","lcode":"CA0080","METADATA":"","SHAPE_Leng":0.00151371371},"geometry":{"type":"MultiLineString","coordinates":[[[110.499405164000024,-7.662419261999929,390.479999999995925],[110.499412940000042,-7.662134540999908,392.190000000002328],[110.499423320000105,-7.661561447999919,395.350000000005821],[110.499425763000048,-7.660905752999934,398.360000000000582]]]}},
{"type":"Feature","properties":{"NAMRJL":"","KONRJL":0,"MATRJL":0,"FGSRJL":0,"UTKRJL":0,"TOLRJL":0,"WLYRJL":0,"AUTRJL":0,"KLSRJL":0,"SPCRJL":0,"JPARJL":0,"ARHRJL":0,"STARJL":0,"KLLRJL":"","MEDRJL":0,"LOCRJL":0,"JARRJL":0,"FCODE":"","REMARK":"Jalan Lain","SRS_ID":"","lcode":"CA0080","METADATA":"","SHAPE_Leng":0.00124682725},"geometry":{"type":"MultiLineString","coordinates":[[[110.49838350900005,-7.666024803,375.619999999995343],[110.498622929000049,-7.66618018299998,374.979999999995925],[110.498623735000123,-7.666181567999917,374.860000000000582],[110.498662216000099,-7.666188377999948,374.860000000000582],[110.498966548000055,-7.666164500000015,374.860000000000582],[110.499578756000091,-7.66610133399994,374.070000000006985]]]}},
{"type":"Feature","properties":{"NAMRJL":"","KONRJL":0,"MATRJL":0,"FGSRJL":0,"UTKRJL":0,"TOLRJL":0,"WLYRJL":0,"AUTRJL":0,"KLSRJL":0,"SPCRJL":0,"JPARJL":0,"ARHRJL":0,"STARJL":0,"KLLRJL":"","MEDRJL":0,"LOCRJL":0,"JARRJL":0,"FCODE":"","REMARK":"Jalan Lain","SRS_ID":"","lcode":"CA0080","METADATA":"","SHAPE_Leng":0.00379892671},"geometry":{"type":"MultiLineString","coordinates":[[[110.484974499050963,-7.654196305592905,223.943039737473441],[110.484954697000049,-7.654385633999937,447.009999999994761],[110.484963244000056,-7.65465259,445.495999999999185],[110.4849906150001,-7.655507389999936,440.649999999994179],[110.484993655000082,-7.655519704999978,440.559999999997672]]]}},
{"type":"Feature","properties":{"NAMRJL":"","KONRJL":0,"MATRJL":0,"FGSRJL":0,"UTKRJL":0,"TOLRJL":0,"WLYRJL":0,"AUTRJL":0,"KLSRJL":0,"SPCRJL":0,"JPARJL":0,"ARHRJL":0,"STARJL":0,"KLLRJL":"","MEDRJL":0,"LOCRJL":0,"JARRJL":0,"FCODE":"","REMARK":"Jalan Lain","SRS_ID":"","lcode":"CA0080","METADATA":"","SHAPE_Leng":0.00121323077},"geometry":{"type":"MultiLineString","coordinates":[[[110.498717447000061,-7.663696517999917,386.320000000006985],[110.498248360000062,-7.663652860999946,387.835999999995693],[110.497509437000119,-7.66358408699994,390.55000000000291]]]}},
{"type":"Feature","properties":{"NAMRJL":"","KONRJL":0,"MATRJL":0,"FGSRJL":0,"UTKRJL":0,"TOLRJL":0,"WLYRJL":0,"AUTRJL":0,"KLSRJL":0,"SPCRJL":0,"JPARJL":0,"ARHRJL":0,"STARJL":0,"KLLRJL":"","MEDRJL":0,"LOCRJL":0,"JARRJL":0,"FCODE":"","REMARK":"Jalan Lain","SRS_ID":"","lcode":"CA0080","METADATA":"","SHAPE_Leng":0.00540434657},"geometry":{"type":"MultiLineString","coordinates":[[[110.489965405000035,-7.655892405,437.559999999997672],[110.489963300000042,-7.656457980999985,435.460000000006403],[110.489743723000089,-7.657502250999968,430.080000000001746],[110.48968183700002,-7.657857659999976,428.19999999999709],[110.48973308700009,-7.658752513999943,424.25],[110.489735532000026,-7.658808091999923,423.919999999998254],[110.489743698000083,-7.658993521999989,422.820000000006985],[110.489755823000024,-7.65913639,421.820000000006985],[110.489741582000079,-7.659446030999948,420.179999999993015],[110.489595295000058,-7.659609415999967,419.75],[110.489574119000082,-7.659628838999975,419.75],[110.489547695000027,-7.659944082999946,419.020000000004075],[110.489545257000088,-7.660347004999977,416.729999999995925],[110.489540892,-7.661066557999916,412.639999999999418],[110.489539491000059,-7.661199659,412.029999999998836]]]}},
{"type":"Feature","properties":{"NAMRJL":"","KONRJL":0,"MATRJL":0,"FGSRJL":0,"UTKRJL":0,"TOLRJL":0,"WLYRJL":0,"AUTRJL":0,"KLSRJL":0,"SPCRJL":0,"JPARJL":0,"ARHRJL":0,"STARJL":0,"KLLRJL":"","MEDRJL":0,"LOCRJL":0,"JARRJL":0,"FCODE":"","REMARK":"Jalan Lain","SRS_ID":"","lcode":"CA0080","METADATA":"","SHAPE_Leng":0.00116902162},"geometry":{"type":"MultiLineString","coordinates":[[[110.502125135000099,-7.658811015999987,402.729999999995925],[110.502326708000083,-7.658740703999943,402.634999999994761],[110.502391915000061,-7.658717957999926,406.259999999994761],[110.502496173000068,-7.658648527999954,404.81600000000617],[110.502615374000072,-7.65855066599994,404.81600000000617],[110.502728430000019,-7.658457847999987,404.81600000000617],[110.502792082000042,-7.658400772999883,400.149999999994179],[110.503085952000021,-7.658167469999942,399.565000000002328]]]}},
{"type":"Feature","properties":{"NAMRJL":"","KONRJL":0,"MATRJL":0,"FGSRJL":0,"UTKRJL":0,"TOLRJL":0,"WLYRJL":0,"AUTRJL":0,"KLSRJL":0,"SPCRJL":0,"JPARJL":0,"ARHRJL":0,"STARJL":0,"KLLRJL":"","MEDRJL":0,"LOCRJL":0,"JARRJL":0,"FCODE":"","REMARK":"Jalan Lain","SRS_ID":"","lcode":"CA0080","METADATA":"","SHAPE_Leng":0.00329596202},"geometry":{"type":"MultiLineString","coordinates":[[[110.495824228000032,-7.659009507999979,415.470000000001164],[110.495821432000071,-7.658965752,415.440000000002328],[110.495828119000095,-7.658630420999966,417.080000000001746],[110.495763227000054,-7.658345723999947,418.588000000003376],[110.495683119,-7.657994271999911,420.44999999999709],[110.495535780000054,-7.657358083999942,424.190000000002328],[110.495300512000043,-7.656822603999956,426.5],[110.495155088000089,-7.656462491999914,428.779999999998836],[110.495103899000028,-7.656238205999919,429.960000000006403],[110.495102402000086,-7.655830286,431.669999999998254]]]}},
{"type":"Feature","properties":{"NAMRJL":"","KONRJL":0,"MATRJL":0,"FGSRJL":0,"UTKRJL":0,"TOLRJL":0,"WLYRJL":0,"AUTRJL":0,"KLSRJL":0,"SPCRJL":0,"JPARJL":0,"ARHRJL":0,"STARJL":0,"KLLRJL":"","MEDRJL":0,"LOCRJL":0,"JARRJL":0,"FCODE":"","REMARK":"Jalan Lain","SRS_ID":"","lcode":"CA0080","METADATA":"","SHAPE_Leng":0.00191714359},"geometry":{"type":"MultiLineString","coordinates":[[[110.495824228000032,-7.659009507999979,415.470000000001164],[110.495825226000122,-7.659417806999922,412.610000000000582],[110.495744072000065,-7.660286790999969,407.259999999994761],[110.495723831000078,-7.660922546999902,403.720000000001164]]]}},
{"type":"Feature","properties":{"NAMRJL":"","KONRJL":0,"MATRJL":0,"FGSRJL":0,"UTKRJL":0,"TOLRJL":0,"WLYRJL":0,"AUTRJL":0,"KLSRJL":0,"SPCRJL":0,"JPARJL":0,"ARHRJL":0,"STARJL":0,"KLLRJL":"","MEDRJL":0,"LOCRJL":0,"JARRJL":0,"FCODE":"","REMARK":"Jalan Lain","SRS_ID":"","lcode":"CA0080","METADATA":"","SHAPE_Leng":0.00098355283},"geometry":{"type":"MultiLineString","coordinates":[[[110.49838350900005,-7.666024803,375.619999999995343],[110.498153209000094,-7.666009428999885,375.248000000006869],[110.49783341700001,-7.665988088999896,380.270000000004075],[110.497721319958742,-7.665990121275275,190.249129057264042]]]}},
{"type":"Feature","properties":{"NAMRJL":"","KONRJL":0,"MATRJL":0,"FGSRJL":0,"UTKRJL":0,"TOLRJL":0,"WLYRJL":0,"AUTRJL":0,"KLSRJL":0,"SPCRJL":0,"JPARJL":0,"ARHRJL":0,"STARJL":0,"KLLRJL":"","MEDRJL":0,"LOCRJL":0,"JARRJL":0,"FCODE":"","REMARK":"Jalan Lain","SRS_ID":"","lcode":"CA0080","METADATA":"","SHAPE_Leng":0.00230635611},"geometry":{"type":"MultiLineString","coordinates":[[[110.501496978,-7.670677129999913,349.971000000005006],[110.50126596800007,-7.670809792999965,350.820000000006985],[110.501122552000098,-7.670882070999905,350.970000000001164],[110.501076158000089,-7.670966183999937,351.130000000004657],[110.501119797000058,-7.671316543999971,351.130000000004657],[110.501112500000076,-7.671548485999978,351.130000000004657],[110.501037762000109,-7.67170273099995,350.059999999997672],[110.501043581000047,-7.671829010999918,350.059999999997672],[110.501135498000025,-7.672657655,347.570000000006985],[110.501150129000081,-7.672722670999963,344.929999999993015]]]}},
{"type":"Feature","properties":{"NAMRJL":"","KONRJL":0,"MATRJL":0,"FGSRJL":0,"UTKRJL":0,"TOLRJL":0,"WLYRJL":0,"AUTRJL":0,"KLSRJL":0,"SPCRJL":0,"JPARJL":0,"ARHRJL":0,"STARJL":0,"KLLRJL":"","MEDRJL":0,"LOCRJL":0,"JARRJL":0,"FCODE":"","REMARK":"Jalan Lain","SRS_ID":"","lcode":"CA0080","METADATA":"","SHAPE_Leng":0.00061273881},"geometry":{"type":"MultiLineString","coordinates":[[[110.494603269,-7.655902371999932,431.509999999994761],[110.49399460700009,-7.655972936999909,432.269899999999325]]]}},
{"type":"Feature","properties":{"NAMRJL":"","KONRJL":0,"MATRJL":0,"FGSRJL":0,"UTKRJL":0,"TOLRJL":0,"WLYRJL":0,"AUTRJL":0,"KLSRJL":0,"SPCRJL":0,"JPARJL":0,"ARHRJL":0,"STARJL":0,"KLLRJL":"","MEDRJL":0,"LOCRJL":0,"JARRJL":0,"FCODE":"","REMARK":"Jalan Lain","SRS_ID":"","lcode":"CA0080","METADATA":"","SHAPE_Leng":0.00072498693},"geometry":{"type":"MultiLineString","coordinates":[[[110.499409250000014,-7.659051597,406.380000000004657],[110.499558585000017,-7.659070267999944,406.259999999994761],[110.499947307000028,-7.659060777999958,405.679999999993015],[110.500000192000059,-7.659060983999975,405.531099999992875],[110.500000234000055,-7.659060983999975,405.531000000002678],[110.500132957000019,-7.65906150899993,405.156000000002678]]]}},
{"type":"Feature","properties":{"NAMRJL":"","KONRJL":0,"MATRJL":0,"FGSRJL":0,"UTKRJL":0,"TOLRJL":0,"WLYRJL":0,"AUTRJL":0,"KLSRJL":0,"SPCRJL":0,"JPARJL":0,"ARHRJL":0,"STARJL":0,"KLLRJL":"","MEDRJL":0,"LOCRJL":0,"JARRJL":0,"FCODE":"","REMARK":"Jalan Lain","SRS_ID":"","lcode":"CA0080","METADATA":"","SHAPE_Leng":0.00387336411},"geometry":{"type":"MultiLineString","coordinates":[[[110.498916727000022,-7.65517621599998,424.94999999999709],[110.498617329000027,-7.655252047999948,424.130000000004657],[110.498092387000028,-7.655360378999941,424.610000000000582],[110.49724955900011,-7.655458761,429.139999999999418],[110.497151360000061,-7.65546448999994,429.360000000000582],[110.496971584000022,-7.655489633999977,429.570000000006985],[110.496516956000065,-7.655571515,428.767000000007101],[110.495669259000096,-7.655724195999934,431.570000000006985],[110.495195815000088,-7.655816573999939,431.669999999998254],[110.495102402000086,-7.655830286,431.669999999998254]]]}},
{"type":"Feature","properties":{"NAMRJL":"","KONRJL":0,"MATRJL":0,"FGSRJL":0,"UTKRJL":0,"TOLRJL":0,"WLYRJL":0,"AUTRJL":0,"KLSRJL":0,"SPCRJL":0,"JPARJL":0,"ARHRJL":0,"STARJL":0,"KLLRJL":"","MEDRJL":0,"LOCRJL":0,"JARRJL":0,"FCODE":"","REMARK":"Jalan Lain","SRS_ID":"","lcode":"CA0080","METADATA":"","SHAPE_Leng":0.00362186665},"geometry":{"type":"MultiLineString","coordinates":[[[110.486723871000066,-7.664303406999949,395.190000000002328],[110.486896593000054,-7.663471648999963,398.160000000003492],[110.487032259000088,-7.662745053999974,402.789999999993597],[110.487074711000048,-7.66250968099995,399.835000000006403],[110.487149601000027,-7.662094461999967,406.729999999995925],[110.487334549000053,-7.661416886999948,409.149999999994179],[110.487531791000038,-7.660776828999925,413.421000000002095]]]}},
{"type":"Feature","properties":{"NAMRJL":"","KONRJL":0,"MATRJL":0,"FGSRJL":0,"UTKRJL":0,"TOLRJL":0,"WLYRJL":0,"AUTRJL":0,"KLSRJL":0,"SPCRJL":0,"JPARJL":0,"ARHRJL":0,"STARJL":0,"KLLRJL":"","MEDRJL":0,"LOCRJL":0,"JARRJL":0,"FCODE":"","REMARK":"Jalan Lokal","SRS_ID":"","lcode":"CA0080","METADATA":"","SHAPE_Leng":0.0003563769},"geometry":{"type":"MultiLineString","coordinates":[[[110.488873311000091,-7.663083294999982,402.759999999994761],[110.488899363000115,-7.662806691999922,405.119999999995343],[110.488898260000028,-7.66272815,405.190000000002328]]]}},
{"type":"Feature","properties":{"NAMRJL":"","KONRJL":0,"MATRJL":0,"FGSRJL":0,"UTKRJL":0,"TOLRJL":0,"WLYRJL":0,"AUTRJL":0,"KLSRJL":0,"SPCRJL":0,"JPARJL":0,"ARHRJL":0,"STARJL":0,"KLLRJL":"","MEDRJL":0,"LOCRJL":0,"JARRJL":0,"FCODE":"","REMARK":"Jalan Lain","SRS_ID":"","lcode":"CA0080","METADATA":"","SHAPE_Leng":0.0028977898},"geometry":{"type":"MultiLineString","coordinates":[[[110.498884459913739,-7.674727025961131,169.605499549176244],[110.499151413000078,-7.674792359999969,339.210000000006403],[110.499411659000117,-7.674860837999951,338.119999999995343],[110.499692609000093,-7.674964679999928,337.570000000006985],[110.49970413800007,-7.67496782300001,337.419999999998254],[110.499823190000058,-7.675005815999956,337.020000000004075],[110.499896323000073,-7.67505487299993,335.722299999993993],[110.500000284000066,-7.675090524999948,335.096999999994296],[110.500000324000069,-7.67509053899995,335.096999999994296],[110.500846167000063,-7.675380559999965,335.720000000001164],[110.501225766000033,-7.675485772999966,334.440000000002328],[110.50153872000007,-7.675568556999977,334.289999999993597],[110.501638869168332,-7.6756062684615,167.125061087798457]]]}},
{"type":"Feature","properties":{"NAMRJL":"","KONRJL":0,"MATRJL":0,"FGSRJL":0,"UTKRJL":0,"TOLRJL":0,"WLYRJL":0,"AUTRJL":0,"KLSRJL":0,"SPCRJL":0,"JPARJL":0,"ARHRJL":0,"STARJL":0,"KLLRJL":"","MEDRJL":0,"LOCRJL":0,"JARRJL":0,"FCODE":"","REMARK":"Jalan Lain","SRS_ID":"","lcode":"CA0080","METADATA":"","SHAPE_Leng":0.0029965847},"geometry":{"type":"MultiLineString","coordinates":[[[110.488396324000064,-7.651747601999979,458.740000000005239],[110.48839638244435,-7.651745971196033,229.379103680916842]]]}},
{"type":"Feature","properties":{"NAMRJL":"","KONRJL":0,"MATRJL":0,"FGSRJL":0,"UTKRJL":0,"TOLRJL":0,"WLYRJL":0,"AUTRJL":0,"KLSRJL":0,"SPCRJL":0,"JPARJL":0,"ARHRJL":0,"STARJL":0,"KLLRJL":"","MEDRJL":0,"LOCRJL":0,"JARRJL":0,"FCODE":"","REMARK":"Jalan Lain","SRS_ID":"","lcode":"CA0080","METADATA":"","SHAPE_Leng":0.00557234381},"geometry":{"type":"MultiLineString","coordinates":[[[110.503085952000021,-7.658167469999942,399.565000000002328],[110.503138743000122,-7.65842161599992,398.600000000005821],[110.503257882000028,-7.658811861999968,397.320000000006985],[110.503281502000036,-7.659014288000019,396.559999999997672],[110.503242426000085,-7.659192698999949,395.860000000000582],[110.503210254000095,-7.65942207099992,394.529999999998836],[110.503235313000033,-7.659642941999987,393.369999999995343],[110.503264664000056,-7.659970282999982,392.309999999997672],[110.503289573000075,-7.660163656,390.419999999998254],[110.503325073000084,-7.660364612999924,390.089999999996508],[110.503349498000063,-7.66046642,389.570000000006985],[110.503407929000019,-7.660674041999947,388.419999999998254],[110.503333473000069,-7.660822507999974,388.19999999999709],[110.50331262100012,-7.660907157999961,387.779999999998836],[110.503365383000045,-7.66099920999994,387.809999999997672],[110.503580430000071,-7.66117909,386.380000000004657],[110.503750418000024,-7.661333228999954,384.5],[110.503761478000044,-7.661490649000012,384.80000000000291],[110.503789604000062,-7.661623585,385.470000000001164],[110.503859700000092,-7.661654809,385.440000000002328],[110.503947517000071,-7.661642219999941,384.589999999996508],[110.503964122000113,-7.66164686999997,384.570000000006985],[110.50401694600005,-7.661662271999912,384.529999999998836],[110.504121929000021,-7.661663821999952,384.770000000004075],[110.504229518000045,-7.661693668999934,384.860000000000582],[110.50454823900013,-7.6619648449999,385.19999999999709],[110.504598420000022,-7.662234743999939,383.979999999995925],[110.504623072000101,-7.662314289999948,382.979999999995925],[110.504703914000046,-7.662931819999883,378.843999999997322]]]}},
{"type":"Feature","properties":{"NAMRJL":"","KONRJL":0,"MATRJL":0,"FGSRJL":0,"UTKRJL":0,"TOLRJL":0,"WLYRJL":0,"AUTRJL":0,"KLSRJL":0,"SPCRJL":0,"JPARJL":0,"ARHRJL":0,"STARJL":0,"KLLRJL":"","MEDRJL":0,"LOCRJL":0,"JARRJL":0,"FCODE":"","REMARK":"Jalan Lain","SRS_ID":"","lcode":"CA0080","METADATA":"","SHAPE_Leng":0.00236468448},"geometry":{"type":"MultiLineString","coordinates":[[[110.498717447000061,-7.663696517999917,386.320000000006985],[110.498638839000122,-7.664020114999957,385.320000000006985],[110.49858406200012,-7.664512000999977,383.309999999997672],[110.49857549100004,-7.66463025,383.698000000003958],[110.49852962500006,-7.665263154999955,381.429999999993015],[110.498502792000053,-7.665498918000011,380.240999999994528],[110.498496947000021,-7.665550252999907,380.669999999998254],[110.4984721000001,-7.665824822999976,378.389999999999418],[110.498443449000035,-7.665902208999984,377.509999999994761],[110.49838350900005,-7.666024803,375.619999999995343]]]}},
{"type":"Feature","properties":{"NAMRJL":"","KONRJL":0,"MATRJL":0,"FGSRJL":0,"UTKRJL":0,"TOLRJL":0,"WLYRJL":0,"AUTRJL":0,"KLSRJL":0,"SPCRJL":0,"JPARJL":0,"ARHRJL":0,"STARJL":0,"KLLRJL":"","MEDRJL":0,"LOCRJL":0,"JARRJL":0,"FCODE":"","REMARK":"Jalan Lain","SRS_ID":"","lcode":"CA0080","METADATA":"","SHAPE_Leng":0.00034602978},"geometry":{"type":"MultiLineString","coordinates":[[[110.492968980000043,-7.663155731999936,396.5],[110.492952983000052,-7.663158563,396.5],[110.492624744000068,-7.663190449999966,396.320000000006985]]]}},
{"type":"Feature","properties":{"NAMRJL":"","KONRJL":0,"MATRJL":0,"FGSRJL":0,"UTKRJL":0,"TOLRJL":0,"WLYRJL":0,"AUTRJL":0,"KLSRJL":0,"SPCRJL":0,"JPARJL":0,"ARHRJL":0,"STARJL":0,"KLLRJL":"","MEDRJL":0,"LOCRJL":0,"JARRJL":0,"FCODE":"","REMARK":"Jalan Lain","SRS_ID":"","lcode":"CA0080","METADATA":"","SHAPE_Leng":0.00094572003},"geometry":{"type":"MultiLineString","coordinates":[[[110.494945376000061,-7.658957318000013,415.649999999994179],[110.494695635000085,-7.658947183999974,415.605999999999767],[110.494268112000071,-7.658929830999959,415.529999999998836],[110.494037054000046,-7.658937880999915,415.529999999998836],[110.494001737000048,-7.658947861999941,415.529999999998836]]]}},
{"type":"Feature","properties":{"NAMRJL":"","KONRJL":0,"MATRJL":0,"FGSRJL":0,"UTKRJL":0,"TOLRJL":0,"WLYRJL":0,"AUTRJL":0,"KLSRJL":0,"SPCRJL":0,"JPARJL":0,"ARHRJL":0,"STARJL":0,"KLLRJL":"","MEDRJL":0,"LOCRJL":0,"JARRJL":0,"FCODE":"","REMARK":"Jalan Lain","SRS_ID":"","lcode":"CA0080","METADATA":"","SHAPE_Leng":5.4973e-07},"geometry":{"type":"MultiLineString","coordinates":[[[110.49399460700009,-7.655972936999909,432.269899999999325],[110.493994547000085,-7.65597294399991,432.270000000004075],[110.493994447000077,-7.655973422999949,432.269000000000233]]]}},
{"type":"Feature","properties":{"NAMRJL":"","KONRJL":0,"MATRJL":0,"FGSRJL":0,"UTKRJL":0,"TOLRJL":0,"WLYRJL":0,"AUTRJL":0,"KLSRJL":0,"SPCRJL":0,"JPARJL":0,"ARHRJL":0,"STARJL":0,"KLLRJL":"","MEDRJL":0,"LOCRJL":0,"JARRJL":0,"FCODE":"","REMARK":"Jalan Lain","SRS_ID":"","lcode":"CA0080","METADATA":"","SHAPE_Leng":0.00298702097},"geometry":{"type":"MultiLineString","coordinates":[[[110.499409250000014,-7.659051597,406.380000000004657],[110.499391035000102,-7.658795084999912,407.440000000002328],[110.499316381000057,-7.658335384999891,409.330000000001746],[110.499273427000048,-7.657989838999988,411.055999999996857],[110.499226539000077,-7.657612619999952,412.940000000002328],[110.499239635,-7.656987879999953,416.830000000001746],[110.499243351000047,-7.656601366999947,417.929999999993015],[110.49919664300009,-7.656373025999883,420.30000000000291],[110.499182079000036,-7.656274414999896,420.403000000005704],[110.499154066000031,-7.656084817999929,420.600000000005821]]]}},
{"type":"Feature","properties":{"NAMRJL":"","KONRJL":0,"MATRJL":0,"FGSRJL":0,"UTKRJL":0,"TOLRJL":0,"WLYRJL":0,"AUTRJL":0,"KLSRJL":0,"SPCRJL":0,"JPARJL":0,"ARHRJL":0,"STARJL":0,"KLLRJL":"","MEDRJL":0,"LOCRJL":0,"JARRJL":0,"FCODE":"","REMARK":"Jalan Lain","SRS_ID":"","lcode":"CA0080","METADATA":"","SHAPE_Leng":0.00251684349},"geometry":{"type":"MultiLineString","coordinates":[[[110.495594424000032,-7.663385067,393.130000000004657],[110.495561080000115,-7.663674632999971,392.339999999996508],[110.495548500000041,-7.664016740999944,391.850000000005821],[110.495490703000058,-7.664598723999958,387.532000000006519],[110.495490692692584,-7.664598827773239,193.765741937833837]]]}},
{"type":"Feature","properties":{"NAMRJL":"","KONRJL":0,"MATRJL":0,"FGSRJL":0,"UTKRJL":0,"TOLRJL":0,"WLYRJL":0,"AUTRJL":0,"KLSRJL":0,"SPCRJL":0,"JPARJL":0,"ARHRJL":0,"STARJL":0,"KLLRJL":"","MEDRJL":0,"LOCRJL":0,"JARRJL":0,"FCODE":"","REMARK":"Jalan Lain","SRS_ID":"","lcode":"CA0080","METADATA":"","SHAPE_Leng":0.00690935928},"geometry":{"type":"MultiLineString","coordinates":[[[110.489406033000122,-7.655894147999962,437.5],[110.489412239000018,-7.655784362999938,438.289999999993597],[110.489438122000109,-7.655473513999976,439.529999999998836],[110.489458837000043,-7.655209441999975,438.592999999993481],[110.489522913000116,-7.654392405999964,445.889999999999418],[110.489531812000052,-7.654227952999946,446.5],[110.489512290000036,-7.653901754999957,448.470000000001164],[110.48951061501802,-7.653799110949587,224.476019817201291]]]}},
{"type":"Feature","properties":{"NAMRJL":"","KONRJL":0,"MATRJL":0,"FGSRJL":0,"UTKRJL":0,"TOLRJL":0,"WLYRJL":0,"AUTRJL":0,"KLSRJL":0,"SPCRJL":0,"JPARJL":0,"ARHRJL":0,"STARJL":0,"KLLRJL":"","MEDRJL":0,"LOCRJL":0,"JARRJL":0,"FCODE":"","REMARK":"Jalan Lain","SRS_ID":"","lcode":"CA0080","METADATA":"","SHAPE_Leng":0.00041827249},"geometry":{"type":"MultiLineString","coordinates":[[[110.499425763000048,-7.660905752999934,398.360000000000582],[110.499416459000074,-7.660487583999974,396.585000000006403]]]}},
{"type":"Feature","properties":{"NAMRJL":"","KONRJL":0,"MATRJL":0,"FGSRJL":0,"UTKRJL":0,"TOLRJL":0,"WLYRJL":0,"AUTRJL":0,"KLSRJL":0,"SPCRJL":0,"JPARJL":0,"ARHRJL":0,"STARJL":0,"KLLRJL":"","MEDRJL":0,"LOCRJL":0,"JARRJL":0,"FCODE":"","REMARK":"Jalan Lain","SRS_ID":"","lcode":"CA0080","METADATA":"","SHAPE_Leng":0.00061630839},"geometry":{"type":"MultiLineString","coordinates":[[[110.48948773100004,-7.663131493999973,403.309999999997672],[110.489169514000096,-7.663107019999902,403.919999999998254],[110.488873311000091,-7.663083294999982,402.759999999994761]]]}},
{"type":"Feature","properties":{"NAMRJL":"","KONRJL":0,"MATRJL":0,"FGSRJL":0,"UTKRJL":0,"TOLRJL":0,"WLYRJL":0,"AUTRJL":0,"KLSRJL":0,"SPCRJL":0,"JPARJL":0,"ARHRJL":0,"STARJL":0,"KLLRJL":"","MEDRJL":0,"LOCRJL":0,"JARRJL":0,"FCODE":"","REMARK":"Jalan Lain","SRS_ID":"","lcode":"CA0080","METADATA":"","SHAPE_Leng":0.00096060116},"geometry":{"type":"MultiLineString","coordinates":[[[110.486798338000099,-7.657871367999956,426.539999999993597],[110.486841015000081,-7.657621704,427.809999999997672],[110.486861455000081,-7.657269782999919,430.139999999999418],[110.486859613000021,-7.656914985999961,431.020000000004075]]]}},
{"type":"Feature","properties":{"NAMRJL":"","KONRJL":0,"MATRJL":0,"FGSRJL":0,"UTKRJL":0,"TOLRJL":0,"WLYRJL":0,"AUTRJL":0,"KLSRJL":0,"SPCRJL":0,"JPARJL":0,"ARHRJL":0,"STARJL":0,"KLLRJL":"","MEDRJL":0,"LOCRJL":0,"JARRJL":0,"FCODE":"","REMARK":"Jalan Lain","SRS_ID":"","lcode":"CA0080","METADATA":"","SHAPE_Leng":0.00192570935},"geometry":{"type":"MultiLineString","coordinates":[[[110.495594424000032,-7.663385067,393.130000000004657],[110.496521806000018,-7.663472824999971,391.850000000005821],[110.496927516000099,-7.66350787899994,390.910000000003492],[110.497421190000097,-7.663575870999971,390.509999999994761],[110.497509437000119,-7.66358408699994,390.55000000000291]]]}},
{"type":"Feature","properties":{"NAMRJL":"","KONRJL":0,"MATRJL":0,"FGSRJL":0,"UTKRJL":0,"TOLRJL":0,"WLYRJL":0,"AUTRJL":0,"KLSRJL":0,"SPCRJL":0,"JPARJL":0,"ARHRJL":0,"STARJL":0,"KLLRJL":"","MEDRJL":0,"LOCRJL":0,"JARRJL":0,"FCODE":"","REMARK":"Jalan Lain","SRS_ID":"","lcode":"CA0080","METADATA":"","SHAPE_Leng":0.00224241111},"geometry":{"type":"MultiLineString","coordinates":[[[110.493014053000039,-7.66583726299994,383.339999999996508],[110.493014254753831,-7.665837120916337,191.670314389128606]]]}},
{"type":"Feature","properties":{"NAMRJL":"","KONRJL":0,"MATRJL":0,"FGSRJL":0,"UTKRJL":0,"TOLRJL":0,"WLYRJL":0,"AUTRJL":0,"KLSRJL":0,"SPCRJL":0,"JPARJL":0,"ARHRJL":0,"STARJL":0,"KLLRJL":"","MEDRJL":0,"LOCRJL":0,"JARRJL":0,"FCODE":"","REMARK":"Jalan Lain","SRS_ID":"","lcode":"CA0080","METADATA":"","SHAPE_Leng":0.00144896638},"geometry":{"type":"MultiLineString","coordinates":[[[110.501760159000099,-7.673994468999943,340.460000000006403],[110.501755796000097,-7.673980109,340.460000000006403],[110.501659461000116,-7.673845618999973,340.460000000006403],[110.50154734200008,-7.673724915000022,340.460000000006403],[110.501442257000093,-7.673582047999925,340.69999999999709],[110.501406449000058,-7.673420401999962,341.190000000002328],[110.501366698000055,-7.673086590999965,342.770000000004075],[110.501245816000093,-7.672853035999914,344.350000000005821],[110.501150129000081,-7.672722670999963,344.929999999993015]]]}},
{"type":"Feature","properties":{"NAMRJL":"","KONRJL":0,"MATRJL":0,"FGSRJL":0,"UTKRJL":0,"TOLRJL":0,"WLYRJL":0,"AUTRJL":0,"KLSRJL":0,"SPCRJL":0,"JPARJL":0,"ARHRJL":0,"STARJL":0,"KLLRJL":"","MEDRJL":0,"LOCRJL":0,"JARRJL":0,"FCODE":"","REMARK":"Jalan Lain","SRS_ID":"","lcode":"CA0080","METADATA":"","SHAPE_Leng":0.00317733093},"geometry":{"type":"MultiLineString","coordinates":[[[110.49837131000001,-7.672515737999984,350.490000000005239],[110.498486331000024,-7.672472011999918,349.210000000006403],[110.498976522000092,-7.672348733999932,349.789999999993597],[110.499267088000053,-7.672268178999929,348.690000000002328],[110.49967233400011,-7.672149170999941,349.669999999998254],[110.499932022000095,-7.672119152999944,348.915999999997439],[110.500000237000052,-7.672111268,348.71809999999823],[110.500000278000059,-7.672111263,348.717999999993481],[110.50005110700009,-7.672105387999959,348.570000000006985],[110.500096366000022,-7.672115896999941,348.509999999994761],[110.500124287000105,-7.67229969499996,348.029999999998836],[110.500209471000048,-7.67247086,348.029999999998836],[110.500321073000052,-7.672590977,348.029999999998836],[110.500515535000062,-7.672691343999947,348.029999999998836],[110.500729180000064,-7.6727243,346.320000000006985],[110.501086438000044,-7.672718707999902,345.380000000004657],[110.501150129000081,-7.672722670999963,344.929999999993015]]]}},
{"type":"Feature","properties":{"NAMRJL":"","KONRJL":0,"MATRJL":0,"FGSRJL":0,"UTKRJL":0,"TOLRJL":0,"WLYRJL":0,"AUTRJL":0,"KLSRJL":0,"SPCRJL":0,"JPARJL":0,"ARHRJL":0,"STARJL":0,"KLLRJL":"","MEDRJL":0,"LOCRJL":0,"JARRJL":0,"FCODE":"","REMARK":"Jalan Lain","SRS_ID":"","lcode":"CA0080","METADATA":"","SHAPE_Leng":0.00070850783},"geometry":{"type":"MultiLineString","coordinates":[[[110.499406250000021,-7.663127768999932,386.997000000003027],[110.499405164000024,-7.662419261999929,390.479999999995925]]]}},
{"type":"Feature","properties":{"NAMRJL":"","KONRJL":0,"MATRJL":0,"FGSRJL":0,"UTKRJL":0,"TOLRJL":0,"WLYRJL":0,"AUTRJL":0,"KLSRJL":0,"SPCRJL":0,"JPARJL":0,"ARHRJL":0,"STARJL":0,"KLLRJL":"","MEDRJL":0,"LOCRJL":0,"JARRJL":0,"FCODE":"","REMARK":"Jalan Lain","SRS_ID":"","lcode":"CA0080","METADATA":"","SHAPE_Leng":0.00192054953},"geometry":{"type":"MultiLineString","coordinates":[[[110.498916727000022,-7.65517621599998,424.94999999999709],[110.498946442,-7.655173681999948,424.979999999995925],[110.499115835000069,-7.655127240999924,425.125],[110.499261619000052,-7.655087276,425.25],[110.499627314000108,-7.654994595999963,427.05000000000291],[110.499746894000054,-7.655033539999987,427.05000000000291],[110.499914424000067,-7.655122721999906,424.269000000000233],[110.499961814000073,-7.65514795099995,426.190000000002328],[110.50000017400005,-7.655149575999907,425.82039999999688],[110.500000216000061,-7.655149578,425.820000000006985],[110.500001375278842,-7.655149627238169,212.904416502779128]]]}},
{"type":"Feature","properties":{"NAMRJL":"","KONRJL":0,"MATRJL":0,"FGSRJL":0,"UTKRJL":0,"TOLRJL":0,"WLYRJL":0,"AUTRJL":0,"KLSRJL":0,"SPCRJL":0,"JPARJL":0,"ARHRJL":0,"STARJL":0,"KLLRJL":"","MEDRJL":0,"LOCRJL":0,"JARRJL":0,"FCODE":"","REMARK":"Jalan Lain","SRS_ID":"","lcode":"CA0080","METADATA":"","SHAPE_Leng":0.00183591554},"geometry":{"type":"MultiLineString","coordinates":[[[110.495723831000078,-7.660922546999902,403.720000000001164],[110.495803162000072,-7.660925407999962,403.033800000004703],[110.496560449000114,-7.660909097999944,402.4716000000044],[110.497017845000116,-7.660914914999982,401.887700000006589],[110.497320109000086,-7.660918994999964,401.563299999994342],[110.497559290000069,-7.660927875999988,400.494999999995343]]]}},
{"type":"Feature","properties":{"NAMRJL":"","KONRJL":0,"MATRJL":0,"FGSRJL":0,"UTKRJL":0,"TOLRJL":0,"WLYRJL":0,"AUTRJL":0,"KLSRJL":0,"SPCRJL":0,"JPARJL":0,"ARHRJL":0,"STARJL":0,"KLLRJL":"","MEDRJL":0,"LOCRJL":0,"JARRJL":0,"FCODE":"","REMARK":"Jalan Lain","SRS_ID":"","lcode":"CA0080","METADATA":"","SHAPE_Leng":0.00368102027},"geometry":{"type":"MultiLineString","coordinates":[[[110.504703914000046,-7.662931819999883,378.843999999997322],[110.50465235700004,-7.662911453999886,378.899999999994179],[110.504448397000033,-7.66285736299994,379.30000000000291],[110.504354243000066,-7.662891581999929,379.119999999995343],[110.50431285800002,-7.663004519999948,379.059999999997672],[110.504306124000081,-7.663198246,377.960000000006403],[110.504333727000059,-7.663383689999968,376.529999999998836],[110.504380930000053,-7.663579042999967,375.860000000000582],[110.504402308000039,-7.664247185999916,372.190000000002328],[110.50441577300009,-7.664348291999932,372.100000000005821],[110.504428715000103,-7.664384769000019,371.639999999999418],[110.504453385,-7.664510509999943,370.639999999999418],[110.504428741000098,-7.664660263999988,370.69999999999709],[110.504414263000058,-7.664776072999889,369.460000000006403],[110.504415040000126,-7.664825569999987,368.809999999997672],[110.504409743000039,-7.664952786999944,367.169999999998254],[110.50439831000007,-7.665108788999973,366.380000000004657],[110.504297987000115,-7.665624195999985,365.899999999994179],[110.504236353000081,-7.665786597999922,366.690000000002328],[110.504208929000029,-7.665853827999978,366.809999999997672],[110.504208772000112,-7.665864274999954,366.839999999996508],[110.504282822000022,-7.665996784,367.720000000001164],[110.504303100000101,-7.666134414999924,368.869999999995343]]]}},
{"type":"Feature","properties":{"NAMRJL":"","KONRJL":0,"MATRJL":0,"FGSRJL":0,"UTKRJL":0,"TOLRJL":0,"WLYRJL":0,"AUTRJL":0,"KLSRJL":0,"SPCRJL":0,"JPARJL":0,"ARHRJL":0,"STARJL":0,"KLLRJL":"","MEDRJL":0,"LOCRJL":0,"JARRJL":0,"FCODE":"","REMARK":"Jalan Lain","SRS_ID":"","lcode":"CA0080","METADATA":"","SHAPE_Leng":0.00031443583},"geometry":{"type":"MultiLineString","coordinates":[[[110.484922604000062,-7.657721446999986,428.960000000006403],[110.484859090481649,-7.657876172005314,214.344361231158388]]]}},
{"type":"Feature","properties":{"NAMRJL":"","KONRJL":0,"MATRJL":0,"FGSRJL":0,"UTKRJL":0,"TOLRJL":0,"WLYRJL":0,"AUTRJL":0,"KLSRJL":0,"SPCRJL":0,"JPARJL":0,"ARHRJL":0,"STARJL":0,"KLLRJL":"","MEDRJL":0,"LOCRJL":0,"JARRJL":0,"FCODE":"","REMARK":"Jalan Lain","SRS_ID":"","lcode":"CA0080","METADATA":"","SHAPE_Leng":0.00314068587},"geometry":{"type":"MultiLineString","coordinates":[[[110.48948773100004,-7.663131493999973,403.309999999997672],[110.490821330000074,-7.663137124999906,402.499500000005355],[110.491049206000099,-7.663138392999922,402.1924],[110.491246743,-7.663139491000013,401.92609999999695],[110.491655927000025,-7.663142397999898,400.373399999996764],[110.492315536000064,-7.663153107999985,398.796100000006845],[110.492618756000113,-7.663185405,396.320000000006985],[110.492624744000068,-7.663190449999966,396.320000000006985]]]}},
{"type":"Feature","properties":{"NAMRJL":"","KONRJL":0,"MATRJL":0,"FGSRJL":0,"UTKRJL":0,"TOLRJL":0,"WLYRJL":0,"AUTRJL":0,"KLSRJL":0,"SPCRJL":0,"JPARJL":0,"ARHRJL":0,"STARJL":0,"KLLRJL":"","MEDRJL":0,"LOCRJL":0,"JARRJL":0,"FCODE":"","REMARK":"Jalan Lain","SRS_ID":"","lcode":"CA0080","METADATA":"","SHAPE_Leng":0.00143615847},"geometry":{"type":"MultiLineString","coordinates":[[[110.499416459000074,-7.660487583999974,396.585000000006403],[110.499403089000026,-7.659886775,402.429999999993015],[110.499409250000014,-7.659051597,406.380000000004657]]]}},
{"type":"Feature","properties":{"NAMRJL":"","KONRJL":0,"MATRJL":0,"FGSRJL":0,"UTKRJL":0,"TOLRJL":0,"WLYRJL":0,"AUTRJL":0,"KLSRJL":0,"SPCRJL":0,"JPARJL":0,"ARHRJL":0,"STARJL":0,"KLLRJL":"","MEDRJL":0,"LOCRJL":0,"JARRJL":0,"FCODE":"","REMARK":"Jalan Lain","SRS_ID":"","lcode":"CA0080","METADATA":"","SHAPE_Leng":0.00228271614},"geometry":{"type":"MultiLineString","coordinates":[[[110.497077166621864,-7.674071115793568,172.064500000000407],[110.497239556912518,-7.674128607117479,172.064500000000407]]]}},
{"type":"Feature","properties":{"NAMRJL":"","KONRJL":0,"MATRJL":0,"FGSRJL":0,"UTKRJL":0,"TOLRJL":0,"WLYRJL":0,"AUTRJL":0,"KLSRJL":0,"SPCRJL":0,"JPARJL":0,"ARHRJL":0,"STARJL":0,"KLLRJL":"","MEDRJL":0,"LOCRJL":0,"JARRJL":0,"FCODE":"","REMARK":"Jalan Lain","SRS_ID":"","lcode":"CA0080","METADATA":"","SHAPE_Leng":0.00297980283},"geometry":{"type":"MultiLineString","coordinates":[[[110.493994447000077,-7.655973422999949,432.269000000000233],[110.494002516000123,-7.656004105999912,432.149999999994179],[110.494038644000085,-7.656206446999956,431.059999999997672],[110.494044850000066,-7.656640938999935,428.5],[110.493998944000083,-7.657634164999958,422.089999999996508],[110.494003274000093,-7.658298207999923,416.350000000005821],[110.494001737000048,-7.658947861999941,415.529999999998836]]]}},
{"type":"Feature","properties":{"NAMRJL":"","KONRJL":0,"MATRJL":0,"FGSRJL":0,"UTKRJL":0,"TOLRJL":0,"WLYRJL":0,"AUTRJL":0,"KLSRJL":0,"SPCRJL":0,"JPARJL":0,"ARHRJL":0,"STARJL":0,"KLLRJL":"","MEDRJL":0,"LOCRJL":0,"JARRJL":0,"FCODE":"","REMARK":"Jalan Lain","SRS_ID":"","lcode":"CA0080","METADATA":"","SHAPE_Leng":0.00068501928},"geometry":{"type":"MultiLineString","coordinates":[[[110.499401740000096,-7.663705653999962,384.279999999998836],[110.499102915000066,-7.66371230699998,385.160999999992782],[110.498987799000048,-7.663714886999927,385.5],[110.498717447000061,-7.663696517999917,386.320000000006985]]]}},
{"type":"Feature","properties":{"NAMRJL":"","KONRJL":0,"MATRJL":0,"FGSRJL":0,"UTKRJL":0,"TOLRJL":0,"WLYRJL":0,"AUTRJL":0,"KLSRJL":0,"SPCRJL":0,"JPARJL":0,"ARHRJL":0,"STARJL":0,"KLLRJL":"","MEDRJL":0,"LOCRJL":0,"JARRJL":0,"FCODE":"","REMARK":"Jalan Lain","SRS_ID":"","lcode":"CA0080","METADATA":"","SHAPE_Leng":0.00050431155},"geometry":{"type":"MultiLineString","coordinates":[[[110.495102402000086,-7.655830286,431.669999999998254],[110.494603269,-7.655902371999932,431.509999999994761]]]}},
{"type":"Feature","properties":{"NAMRJL":"","KONRJL":0,"MATRJL":0,"FGSRJL":0,"UTKRJL":0,"TOLRJL":0,"WLYRJL":0,"AUTRJL":0,"KLSRJL":0,"SPCRJL":0,"JPARJL":0,"ARHRJL":0,"STARJL":0,"KLLRJL":"","MEDRJL":0,"LOCRJL":0,"JARRJL":0,"FCODE":"","REMARK":"Jalan Lain","SRS_ID":"","lcode":"CA0080","METADATA":"","SHAPE_Leng":0.00057792084},"geometry":{"type":"MultiLineString","coordinates":[[[110.499401740000096,-7.663705653999962,384.279999999998836],[110.499406618000052,-7.663371126,385.80000000000291],[110.499406250000021,-7.663127768999932,386.997000000003027]]]}},
{"type":"Feature","properties":{"NAMRJL":"","KONRJL":0,"MATRJL":0,"FGSRJL":0,"UTKRJL":0,"TOLRJL":0,"WLYRJL":0,"AUTRJL":0,"KLSRJL":0,"SPCRJL":0,"JPARJL":0,"ARHRJL":0,"STARJL":0,"KLLRJL":"","MEDRJL":0,"LOCRJL":0,"JARRJL":0,"FCODE":"","REMARK":"Jalan Lain","SRS_ID":"","lcode":"CA0080","METADATA":"","SHAPE_Leng":0.00203897262},"geometry":{"type":"MultiLineString","coordinates":[[[110.502272768000054,-7.666012220999939,371.426999999996042],[110.502678554000056,-7.666054777999907,370.669999999998254],[110.502855904000086,-7.666069427999965,369.44999999999709],[110.50288661600004,-7.666067591999902,368.990999999994528],[110.503036804000033,-7.666059385999933,368.75810000000638],[110.503199363000078,-7.666050503999909,368.505999999993946],[110.503287471000078,-7.666046109999989,369.44999999999709],[110.503428670000048,-7.666054657999986,369.562000000005355],[110.503906454000045,-7.666083583999981,369.940000000002328],[110.504206938000038,-7.666133001999984,369.30000000000291],[110.504303100000101,-7.666134414999924,368.869999999995343]]]}},
{"type":"Feature","properties":{"NAMRJL":"","KONRJL":0,"MATRJL":0,"FGSRJL":0,"UTKRJL":0,"TOLRJL":0,"WLYRJL":0,"AUTRJL":0,"KLSRJL":0,"SPCRJL":0,"JPARJL":0,"ARHRJL":0,"STARJL":0,"KLLRJL":"","MEDRJL":0,"LOCRJL":0,"JARRJL":0,"FCODE":"","REMARK":"Jalan Lain","SRS_ID":"","lcode":"CA0080","METADATA":"","SHAPE_Leng":0.0018604217},"geometry":{"type":"MultiLineString","coordinates":[[[110.493023466328978,-7.665879999339851,191.576512449395608],[110.493014053000039,-7.66583726299994,383.339999999996508]]]}},
{"type":"Feature","properties":{"NAMRJL":"","KONRJL":0,"MATRJL":0,"FGSRJL":0,"UTKRJL":0,"TOLRJL":0,"WLYRJL":0,"AUTRJL":0,"KLSRJL":0,"SPCRJL":0,"JPARJL":0,"ARHRJL":0,"STARJL":0,"KLLRJL":"","MEDRJL":0,"LOCRJL":0,"JARRJL":0,"FCODE":"","REMARK":"Jalan Lain","SRS_ID":"","lcode":"CA0080","METADATA":"","SHAPE_Leng":0.00165720274},"geometry":{"type":"MultiLineString","coordinates":[[[110.493858611000022,-7.660597305,409.330000000001746],[110.493897353000122,-7.660306443,410.419999999998254],[110.493926984000083,-7.660097692999955,410.918000000005122],[110.493953242000131,-7.659912736999928,411.360000000000582],[110.493964686000098,-7.659704028999979,412.368000000002212],[110.493991289000078,-7.659219074999911,414.710000000006403],[110.494001737000048,-7.658947861999941,415.529999999998836]]]}},
{"type":"Feature","properties":{"NAMRJL":"","KONRJL":0,"MATRJL":0,"FGSRJL":0,"UTKRJL":0,"TOLRJL":0,"WLYRJL":0,"AUTRJL":0,"KLSRJL":0,"SPCRJL":0,"JPARJL":0,"ARHRJL":0,"STARJL":0,"KLLRJL":"","MEDRJL":0,"LOCRJL":0,"JARRJL":0,"FCODE":"","REMARK":"Jalan Lain","SRS_ID":"","lcode":"CA0080","METADATA":"","SHAPE_Leng":0.0023836979},"geometry":{"type":"MultiLineString","coordinates":[[[110.495102580445504,-7.655829060415766,215.836895331058912],[110.495102402000086,-7.655830286,431.669999999998254]]]}},
{"type":"Feature","properties":{"NAMRJL":"","KONRJL":0,"MATRJL":0,"FGSRJL":0,"UTKRJL":0,"TOLRJL":0,"WLYRJL":0,"AUTRJL":0,"KLSRJL":0,"SPCRJL":0,"JPARJL":0,"ARHRJL":0,"STARJL":0,"KLLRJL":"","MEDRJL":0,"LOCRJL":0,"JARRJL":0,"FCODE":"","REMARK":"Jalan Lain","SRS_ID":"","lcode":"CA0080","METADATA":"","SHAPE_Leng":0.00270319688},"geometry":{"type":"MultiLineString","coordinates":[[[110.501554523000053,-7.663011313999977,384.220000000001164],[110.501496658000065,-7.662878758999934,384.94999999999709],[110.501395716000061,-7.662482183999984,386.380000000004657],[110.501163152000089,-7.661187911999921,392.789999999993597],[110.501138764000117,-7.661139383,394.429999999993015],[110.501041144000027,-7.661106054999987,394.460000000006403],[110.50083022700008,-7.661056422999966,395.619999999995343],[110.500373268000018,-7.661001909999896,396.153999999994994]]]}},
{"type":"Feature","properties":{"NAMRJL":"","KONRJL":0,"MATRJL":0,"FGSRJL":0,"UTKRJL":0,"TOLRJL":0,"WLYRJL":0,"AUTRJL":0,"KLSRJL":0,"SPCRJL":0,"JPARJL":0,"ARHRJL":0,"STARJL":0,"KLLRJL":"","MEDRJL":0,"LOCRJL":0,"JARRJL":0,"FCODE":"","REMARK":"Jalan Lain","SRS_ID":"","lcode":"CA0080","METADATA":"","SHAPE_Leng":0.00185100153},"geometry":{"type":"MultiLineString","coordinates":[[[110.499405164000024,-7.662419261999929,390.479999999995925],[110.498497615000076,-7.662314329999951,394.182000000000698],[110.498404846000128,-7.662304064,394.559999999997672],[110.498018218000112,-7.662265423999902,395.5],[110.497567474000036,-7.662199653999966,395.589999999996508]]]}},
{"type":"Feature","properties":{"NAMRJL":"","KONRJL":0,"MATRJL":0,"FGSRJL":0,"UTKRJL":0,"TOLRJL":0,"WLYRJL":0,"AUTRJL":0,"KLSRJL":0,"SPCRJL":0,"JPARJL":0,"ARHRJL":0,"STARJL":0,"KLLRJL":"","MEDRJL":0,"LOCRJL":0,"JARRJL":0,"FCODE":"","REMARK":"Jalan Lain","SRS_ID":"","lcode":"CA0080","METADATA":"","SHAPE_Leng":0.00219448085},"geometry":{"type":"MultiLineString","coordinates":[[[110.493994447000077,-7.655973422999949,432.269000000000233],[110.493858639000024,-7.655979323999905,431.998999999996158],[110.493802477000088,-7.655981763999929,431.887000000002445],[110.493754668837511,-7.655983122620123,215.941581655264343]],[[110.493487719011213,-7.655990708844008,215.930870057773888],[110.49307227500006,-7.656002514999958,431.82839999999851],[110.492799925,-7.656007069999891,432.0],[110.492476393000061,-7.655987829999987,432.179999999993015],[110.491804074000115,-7.655924009999946,433.634999999994761]]]}},
{"type":"Feature","properties":{"NAMRJL":"","KONRJL":0,"MATRJL":0,"FGSRJL":0,"UTKRJL":0,"TOLRJL":0,"WLYRJL":0,"AUTRJL":0,"KLSRJL":0,"SPCRJL":0,"JPARJL":0,"ARHRJL":0,"STARJL":0,"KLLRJL":"","MEDRJL":0,"LOCRJL":0,"JARRJL":0,"FCODE":"","REMARK":"Jalan Lain","SRS_ID":"","lcode":"CA0080","METADATA":"","SHAPE_Leng":0.00065451507},"geometry":{"type":"MultiLineString","coordinates":[[[110.499405853000084,-7.664360153999937,375.429999999993015],[110.499401949000031,-7.663712256999887,384.279999999998836],[110.499401740000096,-7.663705653999962,384.279999999998836]]]}},
{"type":"Feature","properties":{"NAMRJL":"","KONRJL":0,"MATRJL":0,"FGSRJL":0,"UTKRJL":0,"TOLRJL":0,"WLYRJL":0,"AUTRJL":0,"KLSRJL":0,"SPCRJL":0,"JPARJL":0,"ARHRJL":0,"STARJL":0,"KLLRJL":"","MEDRJL":0,"LOCRJL":0,"JARRJL":0,"FCODE":"","REMARK":"Jalan Lain","SRS_ID":"","lcode":"CA0080","METADATA":"","SHAPE_Leng":0.00076151245},"geometry":{"type":"MultiLineString","coordinates":[[[110.503274869930465,-7.658045189744837,201.05449999999837],[110.503274343000058,-7.658045491999886,402.10899999999674],[110.503188917000017,-7.658094492999943,402.10899999999674],[110.503160042000019,-7.658100085999962,399.779999999998836],[110.503118722000067,-7.658141456999921,399.5],[110.503085952000021,-7.658167469999942,399.565000000002328]]]}},
{"type":"Feature","properties":{"NAMRJL":"","KONRJL":0,"MATRJL":0,"FGSRJL":0,"UTKRJL":0,"TOLRJL":0,"WLYRJL":0,"AUTRJL":0,"KLSRJL":0,"SPCRJL":0,"JPARJL":0,"ARHRJL":0,"STARJL":0,"KLLRJL":"","MEDRJL":0,"LOCRJL":0,"JARRJL":0,"FCODE":"","REMARK":"Jalan Lain","SRS_ID":"","lcode":"CA0080","METADATA":"","SHAPE_Leng":0.00170019674},"geometry":{"type":"MultiLineString","coordinates":[[[110.495824228000032,-7.659009507999979,415.470000000001164],[110.495895134000037,-7.658998645999969,415.470000000001164],[110.496157453000066,-7.658983195999934,414.830000000001746],[110.497402122000025,-7.659012788999984,412.69999999999709],[110.497521965,-7.658998691999972,410.910000000003492]]]}},
{"type":"Feature","properties":{"NAMRJL":"","KONRJL":0,"MATRJL":0,"FGSRJL":0,"UTKRJL":0,"TOLRJL":0,"WLYRJL":0,"AUTRJL":0,"KLSRJL":0,"SPCRJL":0,"JPARJL":0,"ARHRJL":0,"STARJL":0,"KLLRJL":"","MEDRJL":0,"LOCRJL":0,"JARRJL":0,"FCODE":"","REMARK":"Jalan Lokal","SRS_ID":"","lcode":"CA0080","METADATA":"","SHAPE_Leng":0.00496250036},"geometry":{"type":"MultiLineString","coordinates":[[[110.488726437449984,-7.665874684523707,193.690781199388368],[110.488727317000013,-7.665849786,387.610000000000582],[110.488746461000076,-7.665587466999966,390.369999999995343],[110.488742507000026,-7.665155691999946,392.520000000004075],[110.488740363000019,-7.6651282999999,392.520000000004075],[110.48874534400008,-7.664928267999958,393.880000000004657],[110.488791445000075,-7.664407409999939,397.0],[110.488800981000068,-7.66412762199997,397.460000000006403],[110.488806078000039,-7.663997717999969,398.820000000006985],[110.488827404000034,-7.663669624,400.759999999994761],[110.488873311000091,-7.663083294999982,402.759999999994761]]]}},
{"type":"Feature","properties":{"NAMRJL":"","KONRJL":0,"MATRJL":0,"FGSRJL":0,"UTKRJL":0,"TOLRJL":0,"WLYRJL":0,"AUTRJL":0,"KLSRJL":0,"SPCRJL":0,"JPARJL":0,"ARHRJL":0,"STARJL":0,"KLLRJL":"","MEDRJL":0,"LOCRJL":0,"JARRJL":0,"FCODE":"","REMARK":"Jalan Lain","SRS_ID":"","lcode":"CA0080","METADATA":"","SHAPE_Leng":0.00201356263},"geometry":{"type":"MultiLineString","coordinates":[[[110.502125135000099,-7.658811015999987,402.729999999995925],[110.501834039000087,-7.658872214999988,402.339999999996508],[110.501801977000099,-7.658874067999964,402.339999999996508],[110.501754705000096,-7.658887491,401.847999999998137],[110.501615793000056,-7.658916023999971,401.67939999999362],[110.501425222000094,-7.658955168000013,401.448000000003958],[110.500952324000053,-7.659027633999969,403.759999999994761],[110.500132957000019,-7.65906150899993,405.156000000002678]]]}},
{"type":"Feature","properties":{"NAMRJL":"","KONRJL":0,"MATRJL":0,"FGSRJL":0,"UTKRJL":0,"TOLRJL":0,"WLYRJL":0,"AUTRJL":0,"KLSRJL":0,"SPCRJL":0,"JPARJL":0,"ARHRJL":0,"STARJL":0,"KLLRJL":"","MEDRJL":0,"LOCRJL":0,"JARRJL":0,"FCODE":"","REMARK":"Jalan Lain","SRS_ID":"","lcode":"CA0080","METADATA":"","SHAPE_Leng":0.000414858},"geometry":{"type":"MultiLineString","coordinates":[[[110.501496978,-7.670677129999913,349.971000000005006],[110.501602639000041,-7.670744622,349.850000000005821],[110.501859315000047,-7.670878474999963,349.653000000005704]]]}},
{"type":"Feature","properties":{"NAMRJL":"","KONRJL":0,"MATRJL":0,"FGSRJL":0,"UTKRJL":0,"TOLRJL":0,"WLYRJL":0,"AUTRJL":0,"KLSRJL":0,"SPCRJL":0,"JPARJL":0,"ARHRJL":0,"STARJL":0,"KLLRJL":"","MEDRJL":0,"LOCRJL":0,"JARRJL":0,"FCODE":"","REMARK":"Jalan Lain","SRS_ID":"","lcode":"CA0080","METADATA":"","SHAPE_Leng":0.00363078003},"geometry":{"type":"MultiLineString","coordinates":[[[110.499578756000091,-7.66610133399994,374.070000000006985],[110.499650659000082,-7.6661845799999,373.279999999998836],[110.499851255000081,-7.666317445999969,373.190000000002328],[110.499893679000124,-7.666371422999905,372.957999999998719],[110.500000236000062,-7.666506990999931,372.377099999997881],[110.500000262000057,-7.666507023999934,372.376999999993131],[110.500039975000064,-7.66655755699994,372.160000000003492],[110.500289810000126,-7.667229754999958,362.020000000004075],[110.500294898,-7.667243445999937,367.320000000006985],[110.500402860000065,-7.667731676999921,364.979999999995925],[110.500489129000101,-7.668123368999911,363.429999999993015],[110.500613670000092,-7.668701204999937,361.789999999993597],[110.500768946000065,-7.669312480999977,358.940000000002328],[110.500798658000036,-7.669428893000017,358.809999999997672]]]}},
{"type":"Feature","properties":{"NAMRJL":"","KONRJL":0,"MATRJL":0,"FGSRJL":0,"UTKRJL":0,"TOLRJL":0,"WLYRJL":0,"AUTRJL":0,"KLSRJL":0,"SPCRJL":0,"JPARJL":0,"ARHRJL":0,"STARJL":0,"KLLRJL":"","MEDRJL":0,"LOCRJL":0,"JARRJL":0,"FCODE":"","REMARK":"Jalan Lain","SRS_ID":"","lcode":"CA0080","METADATA":"","SHAPE_Leng":0.00206213919},"geometry":{"type":"MultiLineString","coordinates":[[[110.499416459000074,-7.660487583999974,396.585000000006403],[110.499247531000037,-7.660491647999955,399.509999999994761],[110.49824969000008,-7.660487067999931,400.970000000001164],[110.49802636700008,-7.660493672999944,401.490000000005239],[110.497904667000043,-7.660560194999942,401.940000000002328],[110.49782326100005,-7.660656488,401.970000000001164],[110.497681216000032,-7.660900184999917,400.741500000003725],[110.497559290000069,-7.660927875999988,400.494999999995343]]]}},
{"type":"Feature","properties":{"NAMRJL":"","KONRJL":0,"MATRJL":0,"FGSRJL":0,"UTKRJL":0,"TOLRJL":0,"WLYRJL":0,"AUTRJL":0,"KLSRJL":0,"SPCRJL":0,"JPARJL":0,"ARHRJL":0,"STARJL":0,"KLLRJL":"","MEDRJL":0,"LOCRJL":0,"JARRJL":0,"FCODE":"","REMARK":"Jalan Lain","SRS_ID":"","lcode":"CA0080","METADATA":"","SHAPE_Leng":0.00270067668},"geometry":{"type":"MultiLineString","coordinates":[[[110.499578756000091,-7.66610133399994,374.070000000006985],[110.499964152000089,-7.66604133999995,373.649999999994179],[110.500000219000057,-7.666041309999947,373.653000000005704],[110.500000261000054,-7.666041309999947,373.653000000005704],[110.500283843000076,-7.666041059999927,373.679999999993015],[110.50078347100002,-7.666005620999925,374.039999999993597],[110.501412122,-7.665985807999974,372.339999999996508],[110.501718446000027,-7.665994890999926,371.820000000006985],[110.502254800000088,-7.66601033699996,371.460000000006403],[110.502272768000054,-7.666012220999939,371.426999999996042]]]}},
{"type":"Feature","properties":{"NAMRJL":"","KONRJL":0,"MATRJL":0,"FGSRJL":0,"UTKRJL":0,"TOLRJL":0,"WLYRJL":0,"AUTRJL":0,"KLSRJL":0,"SPCRJL":0,"JPARJL":0,"ARHRJL":0,"STARJL":0,"KLLRJL":"","MEDRJL":0,"LOCRJL":0,"JARRJL":0,"FCODE":"","REMARK":"Jalan Lain","SRS_ID":"","lcode":"CA0080","METADATA":"","SHAPE_Leng":0.00229147827},"geometry":{"type":"MultiLineString","coordinates":[[[110.499405853000084,-7.664360153999937,375.429999999993015],[110.499778844000033,-7.664370328999979,382.029999999998836],[110.50000025500006,-7.664372584999988,381.456999999994878],[110.500000297000057,-7.664372584999988,381.45690000000468],[110.500740792000045,-7.664380128999902,379.539999999993597],[110.501114082000115,-7.664374419999962,380.456000000005588],[110.501658449000033,-7.664366094999895,378.270000000004075],[110.501697019000034,-7.664367215999988,378.240000000005239]]]}},
{"type":"Feature","properties":{"NAMRJL":"","KONRJL":0,"MATRJL":0,"FGSRJL":0,"UTKRJL":0,"TOLRJL":0,"WLYRJL":0,"AUTRJL":0,"KLSRJL":0,"SPCRJL":0,"JPARJL":0,"ARHRJL":0,"STARJL":0,"KLLRJL":"","MEDRJL":0,"LOCRJL":0,"JARRJL":0,"FCODE":"","REMARK":"Jalan Lain","SRS_ID":"","lcode":"CA0080","METADATA":"","SHAPE_Leng":0.00197146353},"geometry":{"type":"MultiLineString","coordinates":[[[110.502272768000054,-7.666012220999939,371.426999999996042],[110.50222306400012,-7.665808506999959,371.820000000006985],[110.502073465000095,-7.664992839999972,375.710000000006403],[110.502025527000029,-7.664993697999954,375.710000000006403],[110.501767974000032,-7.664984834999931,376.139999999999418],[110.501746862000061,-7.664957139999949,376.229999999995925],[110.501697019000034,-7.664367215999988,378.240000000005239]]]}}
]
}
