{
"type": "FeatureCollection",
"name": "NONAGRISEMAKBELUKAR_AR_Clipped",
"crs": { "type": "name", "properties": { "name": "urn:ogc:def:crs:OGC:1.3:CRS84" } },
"xy_coordinate_resolution": 1e-15,
"features": [
{"type":"Feature","properties":{"NAMOBJ":"","FCODE":"","REMARK":"Semak Belukar","AQDATE":"","PUDATE":"","KODLCO":"","SRS_ID":"","lcode":"FB0040","METADATA":"","JNSSMK":0,"SHAPE_Leng":0.01416783988,"SHAPE_Area":4.83046e-06},"geometry":{"type":"MultiPolygon","coordinates":[[[[110.502101,-7.6562,0.0],[110.502369,-7.656271,0.0],[110.502561,-7.656326,0.0],[110.502899,-7.656863,0.0],[110.503067,-7.657151000999953,0.0],[110.503268,-7.65802,0.0],[110.503283,-7.658075,0.0],[110.503283254781124,-7.65807591264861,0.0],[110.503283084000103,-7.658075944999933,0.0],[110.503189086000049,-7.658093923,0.0],[110.503160071000053,-7.658099948999965,0.0],[110.503119053000034,-7.658140868999975,0.0],[110.503086053000047,-7.658166875999907,0.0],[110.502792112000066,-7.658400946,0.0],[110.502728049000012,-7.65845793599992,0.0],[110.50261810700006,-7.658556925999939,0.0],[110.502471109000069,-7.658246924999958,0.0],[110.502411070000065,-7.657992914,0.0],[110.502188098,-7.657437925999901,0.0],[110.502176059000078,-7.657116866999981,0.0],[110.502230090000111,-7.656749942,0.0],[110.502282049000058,-7.65649388999995,0.0],[110.502288072000013,-7.656328943999981,0.0],[110.502098411818039,-7.656199703689405,0.0],[110.502101,-7.6562,0.0]]]]}},
{"type":"Feature","properties":{"NAMOBJ":"","FCODE":"","REMARK":"Semak Belukar","AQDATE":"","PUDATE":"","KODLCO":"","SRS_ID":"","lcode":"FB0040","METADATA":"","JNSSMK":0,"SHAPE_Leng":0.01944128201,"SHAPE_Area":1.19927e-05},"geometry":{"type":"MultiPolygon","coordinates":[[[[110.509067,-7.666666,0.0],[110.509026,-7.666868,0.0],[110.508838000000125,-7.667124,0.0],[110.508546000000123,-7.667437,0.0],[110.508116,-7.667744,0.0],[110.506987,-7.668375,0.0],[110.506908,-7.66843,0.0],[110.506901,-7.668465,0.0],[110.50691214817931,-7.668583786156104,0.0],[110.506930054000051,-7.668774922999923,0.0],[110.507477109000021,-7.670269902999983,0.0],[110.507487973191019,-7.670360089363445,0.0],[110.507482,-7.67038,0.0],[110.507443,-7.670638,0.0],[110.507445,-7.670963,0.0],[110.507445003421026,-7.670963858664014,0.0],[110.507248083000079,-7.670937867,0.0],[110.50710410300006,-7.670856943999972,0.0],[110.506912105000069,-7.670662921,0.0],[110.506793080000079,-7.670466899999941,0.0],[110.506666071000055,-7.670127894999958,0.0],[110.506381093000101,-7.66958595099997,0.0],[110.506291058000031,-7.669470902999954,0.0],[110.506183094000065,-7.669213942999921,0.0],[110.50611409400004,-7.669012917999986,0.0],[110.50597908400006,-7.66880494299992,0.0],[110.505847060000065,-7.66866588199996,0.0],[110.505797094000101,-7.66862187299996,0.0],[110.505785101000086,-7.668582880999931,0.0],[110.505550041000092,-7.668129891999932,0.0],[110.5054461000001,-7.668015914999916,0.0],[110.505180081000034,-7.667890898999964,0.0],[110.504977074000109,-7.667843909999895,0.0],[110.504637080000037,-7.66787688999996,0.0],[110.50452307800002,-7.667928940999914,0.0],[110.504285051000053,-7.668101941000018,0.0],[110.503984076,-7.668206950999913,0.0],[110.503931077000075,-7.668134902,0.0],[110.503829081000063,-7.667826943999913,0.0],[110.503716067000042,-7.667606874999912,0.0],[110.503577065000087,-7.667425933999951,0.0],[110.503517084000094,-7.667377933999976,0.0],[110.50342005300007,-7.667301946999906,0.0],[110.503294089000036,-7.667225927999922,0.0],[110.503220106000043,-7.666937895999983,0.0],[110.503139083000093,-7.666661883999971,0.0],[110.503116060000053,-7.666141945999939,0.0],[110.503036083,-7.666058924,0.0],[110.503199080000073,-7.666049887999961,0.0],[110.503288054000066,-7.666045921999988,0.0],[110.503429050000094,-7.666054946999935,0.0],[110.503907060000031,-7.666083893999932,0.0],[110.504207108000088,-7.666132893999901,0.0],[110.504303104000115,-7.666133908999896,0.0],[110.504479061000026,-7.666166939999965,0.0],[110.504795042000055,-7.666208902999884,0.0],[110.50498105700008,-7.666207941999982,0.0],[110.505024047000092,-7.666207900999979,0.0],[110.505438065000064,-7.666166866999959,0.0],[110.505883083000114,-7.666149923999978,0.0],[110.506236051000087,-7.666209924999968,0.0],[110.506689045000087,-7.666278904,0.0],[110.507959108000108,-7.666374952999945,0.0],[110.508896086000092,-7.66648092799992,0.0],[110.509030047000081,-7.666495911999917,0.0],[110.509067,-7.666595642104491,0.0],[110.509067,-7.666666,0.0]]]]}}
]
}
