{
"type": "FeatureCollection",
"name": "PASIR_AR_Clipped",
"crs": { "type": "name", "properties": { "name": "urn:ogc:def:crs:OGC:1.3:CRS84" } },
"xy_coordinate_resolution": 1e-15,
"features": [
{"type":"Feature","properties":{"NAMOBJ":"","FCODE":"","REMARK":"Pasir","SRS_ID":"","lcode":"FF0040","METADATA":"","SHAPE_Leng":0.03302936431,"SHAPE_Area":2.014457e-05},"geometry":{"type":"MultiPolygon","coordinates":[[[[110.500262000000106,-7.655458,0.0],[110.500494,-7.655653,0.0],[110.500546,-7.655751,0.0],[110.500691,-7.655835,0.0],[110.500729,-7.655844000999902,0.0],[110.500939,-7.655899,0.0],[110.501209,-7.656034,0.0],[110.501673,-7.656151,0.0],[110.502098411818039,-7.656199703689405,0.0],[110.502288072000042,-7.656328943999963,0.0],[110.502282049000087,-7.656493890000021,0.0],[110.50223009000004,-7.65674994199998,0.0],[110.502176059000107,-7.657116866999964,0.0],[110.502188098000033,-7.657437925999972,0.0],[110.50241107,-7.657992913999973,0.0],[110.502471109000098,-7.65824692499994,0.0],[110.502618107000089,-7.658556925999921,0.0],[110.50257208,-7.658597930999939,0.0],[110.502496064000113,-7.658647944999903,0.0],[110.502392061000123,-7.658717911999918,0.0],[110.502327065000074,-7.658740897999955,0.0],[110.502020082000072,-7.658100893999936,0.0],[110.501971084000019,-7.657997921999943,0.0],[110.502011066000037,-7.657882934999932,0.0],[110.501790104000051,-7.656820877999987,0.0],[110.50171805500004,-7.656543881999895,0.0],[110.501471083000041,-7.656249952999911,0.0],[110.501209065000026,-7.656034866999967,0.0],[110.500939103000078,-7.655899895999902,0.0],[110.500554088000015,-7.655889954999967,0.0],[110.500546100000065,-7.655751939999917,0.0],[110.500494104000026,-7.65565393899989,0.0],[110.500261072000015,-7.655458870999915,0.0],[110.50003305400007,-7.655322953999949,0.0],[110.50000021800011,-7.655307955999952,0.0],[110.500000102000101,-7.655307903999947,0.0],[110.500000002,-7.655307595999922,0.0],[110.499973060000087,-7.655224941999922,0.0],[110.499915063000074,-7.655144929999963,0.0],[110.500000002,-7.655148915999938,0.0],[110.500000064000091,-7.655148917999938,0.0],[110.500000216000018,-7.655148925999939,0.0],[110.500000809119371,-7.655148957354828,0.0],[110.500262000000106,-7.655458,0.0]]]]}},
{"type":"Feature","properties":{"NAMOBJ":"","FCODE":"","REMARK":"Pasir","SRS_ID":"","lcode":"FF0040","METADATA":"","SHAPE_Leng":0.02488711093,"SHAPE_Area":1.756628e-05},"geometry":{"type":"MultiPolygon","coordinates":[[[[110.505747,-7.662537,0.0],[110.505788,-7.662906,0.0],[110.505819247095815,-7.662988272938165,0.0],[110.505975893000084,-7.663402334,0.0],[110.506298229000024,-7.664220871999955,0.0],[110.506414339000045,-7.664480012,0.0],[110.506553951000043,-7.664650642999987,0.0],[110.506783471000034,-7.664786196999923,0.0],[110.507265566000044,-7.664903138999918,0.0],[110.507565455000076,-7.664959370999952,0.0],[110.507807462000116,-7.665094035,0.0],[110.509029449000053,-7.66649582099998,0.0],[110.508896086000036,-7.666480927999903,0.0],[110.507959108000051,-7.666374952999927,0.0],[110.506689045000115,-7.666278903999974,0.0],[110.506236051000116,-7.666209924999951,0.0],[110.505883083000043,-7.66614992399996,0.0],[110.505438065000092,-7.666166866999941,0.0],[110.50502404700002,-7.666207900999961,0.0],[110.504981057000109,-7.666207941999964,0.0],[110.504795042000083,-7.666208902999955,0.0],[110.504479061000055,-7.666166939999947,0.0],[110.504303104000059,-7.666133908999967,0.0],[110.504283076,-7.665996875999909,0.0],[110.504209064000094,-7.665863941999923,0.0],[110.504209075000091,-7.665853903999981,0.0],[110.504236069000015,-7.665785926999952,0.0],[110.504298087000095,-7.665623938999961,0.0],[110.504398044000098,-7.665108933999893,0.0],[110.504410112000031,-7.664952946999954,0.0],[110.504415045000087,-7.664824896999928,0.0],[110.504414055,-7.664775879999958,0.0],[110.504429067000089,-7.664659867999951,0.0],[110.504453090000126,-7.664509953999893,0.0],[110.504429086000087,-7.664384944999941,0.0],[110.504416045000085,-7.664347941999988,0.0],[110.504402106000086,-7.664246909999978,0.0],[110.504381048000113,-7.663578930999954,0.0],[110.504334097000054,-7.663383897999982,0.0],[110.504306051000043,-7.66319793099996,0.0],[110.504313079000084,-7.663003864999979,0.0],[110.504354105000104,-7.662891952999956,0.0],[110.503969048000044,-7.66278190199991,0.0],[110.503890097000081,-7.662911947999923,0.0],[110.503747081000057,-7.662840882,0.0],[110.503704079000059,-7.662722904999914,0.0],[110.503644091000069,-7.662423946999958,0.0],[110.503562100000039,-7.662143864999965,0.0],[110.503540090000072,-7.661781916999949,0.0],[110.503533096000027,-7.661558895999971,0.0],[110.503440090000069,-7.661300866999937,0.0],[110.503325078000046,-7.661064879999952,0.0],[110.50329805900013,-7.660960937999967,0.0],[110.50325110100006,-7.660837892,0.0],[110.503216091000098,-7.660661864999913,0.0],[110.503156077000099,-7.660449905999961,0.0],[110.503090081000053,-7.660238933999914,0.0],[110.502904048000033,-7.65980689099996,0.0],[110.50286008700003,-7.659548918999931,0.0],[110.502806095000011,-7.659172917,0.0],[110.502621092000069,-7.658561903999978,0.0],[110.502618107000089,-7.658556925999921,0.0],[110.502728049000041,-7.658457935999902,0.0],[110.502792112000094,-7.658400945999983,0.0],[110.503086053000075,-7.658166875999978,0.0],[110.503119053000063,-7.658140868999958,0.0],[110.503160071000082,-7.658099948999947,0.0],[110.503189086000077,-7.658093922999981,0.0],[110.503283084000131,-7.658075944999915,0.0],[110.503350018000077,-7.658315946999966,0.0],[110.503457009000044,-7.658505079999983,0.0],[110.503797313000049,-7.658843699999935,0.0],[110.50384129800004,-7.658887430999911,0.0],[110.504309157000122,-7.659283080999963,0.0],[110.505029335000103,-7.660074585,0.0],[110.505438878000064,-7.660732157999956,0.0],[110.505577537000079,-7.661015379999942,0.0],[110.505711794,-7.661550006999946,0.0],[110.505729180910208,-7.662033992548339,0.0],[110.505747,-7.662537,0.0]]]]}}
]
}
