{
"type": "FeatureCollection",
"name": "PEMUKIMAN_AR_Clipped",
"crs": { "type": "name", "properties": { "name": "urn:ogc:def:crs:OGC:1.3:CRS84" } },
"xy_coordinate_resolution": 1e-15,
"features": [
{"type":"Feature","properties":{"NAMOBJ":"","FCODE":"","REMARK":"Permukiman dan Tempat Kegiatan","SRS_ID":"","lcode":"GA0040","METADATA":"","SHAPE_Leng":0.02146585168,"SHAPE_Area":1.171486e-05},"geometry":{"type":"MultiPolygon","coordinates":[[[[110.483066,-7.657777,0.0],[110.483176000000114,-7.657754,0.0],[110.483249,-7.657451,0.0],[110.483254,-7.657383,0.0],[110.483271,-7.6563,0.0],[110.483262016620913,-7.655873788563806,0.0],[110.483262060000101,-7.655873913999958,0.0],[110.483271040000034,-7.656300868999935,0.0],[110.483254109000057,-7.65738489300001,0.0],[110.483249094000087,-7.657451899999959,0.0],[110.483176060000091,-7.657754949999987,0.0],[110.48306826973554,-7.65777721981669,0.0],[110.483066,-7.657777,0.0]]]]}},
{"type":"Feature","properties":{"NAMOBJ":"","FCODE":"","REMARK":"Permukiman dan Tempat Kegiatan","SRS_ID":"","lcode":"GA0040","METADATA":"","SHAPE_Leng":0.02300622982,"SHAPE_Area":9.65551e-06},"geometry":{"type":"MultiPolygon","coordinates":[[[[110.4848590000001,-7.657875999999899,0.0],[110.484858815304946,-7.657876445247136,0.0],[110.484825107000106,-7.657812903999986,0.0],[110.484813079000091,-7.657369939000017,0.0],[110.48463106500013,-7.656968912999965,0.0],[110.484464091000078,-7.656743891999909,0.0],[110.484293112000046,-7.656554948999908,0.0],[110.48421110800011,-7.656421911999914,0.0],[110.484173039000069,-7.656185921000016,0.0],[110.484155109000085,-7.655863950999933,0.0],[110.484089072000046,-7.655694938999982,0.0],[110.484063483354021,-7.655601352206683,0.0],[110.484211958986506,-7.65555102916789,0.0],[110.48459905600005,-7.655483930999932,0.0],[110.484590011708008,-7.655013912003328,0.0],[110.484616,-7.654415,0.0],[110.484975000000105,-7.654196,0.0],[110.485354000000115,-7.654118,0.0],[110.485683,-7.653909,0.0],[110.485947,-7.653906,0.0],[110.486040122833074,-7.653871532457863,0.0],[110.486046038000055,-7.654084908999906,0.0],[110.485397096,-7.654152865999933,0.0],[110.485288079000043,-7.654662879999943,0.0],[110.484963100000058,-7.654652906,0.0],[110.484991082000064,-7.655506917999968,0.0],[110.484994058000055,-7.65551994299998,0.0],[110.48550810600004,-7.655596884999952,0.0],[110.485974109000054,-7.65558894,0.0],[110.48625407400003,-7.655605913999988,0.0],[110.48634703900008,-7.656200906000013,0.0],[110.486457093000041,-7.656260905999915,0.0],[110.48655905800004,-7.656581889999917,0.0],[110.487018051000092,-7.656560913999957,0.0],[110.487078077,-7.656629896999981,0.0],[110.487095063000069,-7.65674287,0.0],[110.487057046000032,-7.656836876999964,0.0],[110.487059063000018,-7.656900906999933,0.0],[110.487359104000063,-7.657072910999954,0.0],[110.48739308200004,-7.657168902,0.0],[110.487364096000036,-7.657274948999973,0.0],[110.487211098000074,-7.657553939999964,0.0],[110.487144059000045,-7.657720893000011,0.0],[110.487134043000097,-7.657906905999948,0.0],[110.487140053000061,-7.657945890999976,0.0],[110.487352088000108,-7.657938908999931,0.0],[110.488200087000024,-7.657968945999929,0.0],[110.488187065,-7.658230920999934,0.0],[110.488584084000081,-7.658394897999912,0.0],[110.488564109000023,-7.658908908999898,0.0],[110.48810403800006,-7.658890906999918,0.0],[110.488060063000063,-7.659090897999945,0.0],[110.487998041000083,-7.659315917999912,0.0],[110.487554061000125,-7.659220884999954,0.0],[110.487562048000072,-7.658667884999939,0.0],[110.487509047000046,-7.658662936999974,0.0],[110.487342095000088,-7.658668888999934,0.0],[110.486997097000042,-7.658640895999927,0.0],[110.486878086000061,-7.658630896999988,0.0],[110.486744055000074,-7.658614911,0.0],[110.486730074000064,-7.658490907999951,0.0],[110.486418041,-7.65840489399994,0.0],[110.486390071000088,-7.658224894999968,0.0],[110.485838065000067,-7.658189870999912,0.0],[110.485814108000042,-7.658403901999947,0.0],[110.485625077000037,-7.65836687,0.0],[110.485641098000116,-7.657787923999962,0.0],[110.485542047000095,-7.657779938000012,0.0],[110.485227043000052,-7.657740945999894,0.0],[110.484952085000131,-7.657724880999986,0.0],[110.484923082000037,-7.65772086799992,0.0],[110.484859229749091,-7.657876436752733,0.0],[110.4848590000001,-7.657875999999899,0.0]]]]}},
{"type":"Feature","properties":{"NAMOBJ":"","FCODE":"","REMARK":"Permukiman dan Tempat Kegiatan","SRS_ID":"","lcode":"GA0040","METADATA":"","SHAPE_Leng":0.02359351681,"SHAPE_Area":1.214364e-05},"geometry":{"type":"MultiPolygon","coordinates":[[[[110.486621,-7.662948,0.0],[110.486284,-7.662625,0.0],[110.486204,-7.662463,0.0],[110.486167,-7.66223,0.0],[110.486172,-7.661857,0.0],[110.486161,-7.661547,0.0],[110.485942,-7.661271,0.0],[110.485854,-7.661152,0.0],[110.4858100000001,-7.66101,0.0],[110.485808000000105,-7.660964,0.0],[110.485900796924398,-7.660577845056745,0.0],[110.485901068000132,-7.660577883999967,0.0],[110.48605110500003,-7.660588915,0.0],[110.486357084000119,-7.660610893999944,0.0],[110.486664076000025,-7.660661903,0.0],[110.486833083000064,-7.660689869,0.0],[110.487012044000039,-7.660707896999977,0.0],[110.487340065000097,-7.660741928999951,0.0],[110.487532090000087,-7.660776884,0.0],[110.487643045000112,-7.660833900999922,0.0],[110.487731099000115,-7.660848926999922,0.0],[110.487979052000114,-7.660941917999978,0.0],[110.487931040000049,-7.66107886899994,0.0],[110.487814060000048,-7.661621883999928,0.0],[110.487788107000128,-7.661942897999932,0.0],[110.487774094000116,-7.662094901999986,0.0],[110.487687050000019,-7.662236871999919,0.0],[110.487592056000068,-7.66233587599994,0.0],[110.487075082000018,-7.662509889999949,0.0],[110.487032111000104,-7.662744880999941,0.0],[110.486621220054786,-7.662949859678243,0.0],[110.486621,-7.662948,0.0]]]]}},
{"type":"Feature","properties":{"NAMOBJ":"","FCODE":"","REMARK":"Permukiman dan Tempat Kegiatan","SRS_ID":"","lcode":"GA0040","METADATA":"","SHAPE_Leng":0.00459600241,"SHAPE_Area":1.28415e-06},"geometry":{"type":"MultiPolygon","coordinates":[[[[110.496724038721055,-7.673426932990366,0.0],[110.496724040000075,-7.673426939999953,0.0],[110.496724060619627,-7.673427460641488,0.0],[110.496724038721055,-7.673426932990366,0.0]]]]}},
{"type":"Feature","properties":{"NAMOBJ":"","FCODE":"","REMARK":"Permukiman dan Tempat Kegiatan","SRS_ID":"","lcode":"GA0040","METADATA":"","SHAPE_Leng":0.01815240748,"SHAPE_Area":6.98324e-06},"geometry":{"type":"MultiPolygon","coordinates":[[[[110.487444,-7.651716,0.0],[110.487861,-7.651721,0.0],[110.488396127039124,-7.651745959283476,0.0],[110.48839605600007,-7.651747876999895,0.0],[110.487861092000031,-7.651721918999968,0.0],[110.487443106000086,-7.651716902,0.0],[110.487117064000117,-7.651720944999976,0.0],[110.487117025036483,-7.651719999693663,0.0],[110.487444,-7.651716,0.0]]]]}},
{"type":"Feature","properties":{"NAMOBJ":"","FCODE":"","REMARK":"Permukiman dan Tempat Kegiatan","SRS_ID":"","lcode":"GA0040","METADATA":"","SHAPE_Leng":0.06306538336,"SHAPE_Area":5.289041e-05},"geometry":{"type":"MultiPolygon","coordinates":[[[[110.496412556663287,-7.665534775630803,0.0],[110.496893086000028,-7.665533866999954,0.0],[110.496892328764247,-7.665555971345607,0.0],[110.496412556663287,-7.665534775630803,0.0]]],[[[110.495491598839436,-7.664599036366448,0.0],[110.49625208400002,-7.664747868999935,0.0],[110.496255835679804,-7.66477496217377,0.0],[110.495491598839436,-7.664599036366448,0.0]]],[[[110.49499211093547,-7.664546328037377,0.0],[110.495235078000078,-7.664548895999904,0.0],[110.49526038586059,-7.664553842741182,0.0],[110.49499211093547,-7.664546328037377,0.0]]],[[[110.493923706974016,-7.664536016241767,0.0],[110.493927097000025,-7.664535875999981,0.0],[110.493958050000103,-7.664534917,0.0],[110.494187464875367,-7.664537598789166,0.0],[110.493923706974016,-7.664536016241767,0.0]]],[[[110.493464548098217,-7.665218223810229,0.0],[110.493334070000074,-7.664976953999972,0.0],[110.493236103000058,-7.664808900999923,0.0],[110.493081100000026,-7.664570873999946,0.0],[110.493920911766097,-7.664536131876559,0.0],[110.493464548098217,-7.665218223810229,0.0]]],[[[110.493084,-7.665787,0.0],[110.493014000000102,-7.665836,0.0],[110.493024,-7.66588,0.0],[110.488173019571875,-7.665874000024171,0.0],[110.488316084000118,-7.665076919999894,0.0],[110.487807067000091,-7.664970867,0.0],[110.487511076000033,-7.664908928999939,0.0],[110.487519055000064,-7.664613938999956,0.0],[110.487064044000078,-7.664424930999949,0.0],[110.487094090000085,-7.664305952999964,0.0],[110.487345071000064,-7.663495955,0.0],[110.48739408000003,-7.663338926999888,0.0],[110.487920107000036,-7.663659873999976,0.0],[110.488476055000021,-7.66396991299996,0.0],[110.488609086000025,-7.662693942,0.0],[110.488610069000103,-7.662684899999952,0.0],[110.488619104000051,-7.662130904999945,0.0],[110.488939077000055,-7.662142950999964,0.0],[110.488988088000028,-7.661481927999983,0.0],[110.489240083000098,-7.661508904999906,0.0],[110.489214052000065,-7.66277586899993,0.0],[110.488898083000038,-7.66272792699996,0.0],[110.488899110000034,-7.662806878,0.0],[110.48887306200001,-7.663082944999935,0.0],[110.489170070000071,-7.663106899999963,0.0],[110.489488086000094,-7.663130882,0.0],[110.489499062000021,-7.663079887999949,0.0],[110.48954404600002,-7.662095917999981,0.0],[110.489576091000089,-7.661365872999973,0.0],[110.489573100000115,-7.661241882999928,0.0],[110.489540103000053,-7.661199882999917,0.0],[110.489151066,-7.661173918999989,0.0],[110.489012097000057,-7.661159916999985,0.0],[110.489021051000094,-7.661112901999914,0.0],[110.489039050000073,-7.661002953999965,0.0],[110.489088058000036,-7.660656916999933,0.0],[110.48910007300006,-7.660298897999976,0.0],[110.48916010400005,-7.65904789099994,0.0],[110.489192102000032,-7.658733936999987,0.0],[110.489736064000098,-7.65880792499998,0.0],[110.489744067000046,-7.658992874,0.0],[110.489756084000064,-7.659135865999936,0.0],[110.489742108000058,-7.659445951999924,0.0],[110.489595079000068,-7.659608922999908,0.0],[110.489574047000104,-7.659628883999961,0.0],[110.489548103000089,-7.659943929999915,0.0],[110.489545081000102,-7.660346904999951,0.0],[110.490637076000041,-7.660407883999934,0.0],[110.49114806300004,-7.660550923999956,0.0],[110.49115606400008,-7.660549937999964,0.0],[110.491918112000079,-7.660498928,0.0],[110.49202110300007,-7.660778945999905,0.0],[110.492612076000029,-7.660805868999912,0.0],[110.492722060000062,-7.661115918999897,0.0],[110.492766075000063,-7.661322886999969,0.0],[110.49272305600006,-7.66160092399997,0.0],[110.492650087000058,-7.661979941999977,0.0],[110.492699081000026,-7.662148932999926,0.0],[110.492803074000022,-7.662593905999884,0.0],[110.492807046000081,-7.662838899,0.0],[110.493328109000032,-7.662935916999938,0.0],[110.493445051000023,-7.662799948999968,0.0],[110.493447074000102,-7.66273293899993,0.0],[110.493750071000036,-7.66268690199994,0.0],[110.493760042000062,-7.662283934999905,0.0],[110.493820089000053,-7.661323945999968,0.0],[110.493859077000081,-7.660596892999941,0.0],[110.49389710100003,-7.660305916999935,0.0],[110.493927102000029,-7.660097951999958,0.0],[110.494411063000101,-7.660082874999954,0.0],[110.494461040000061,-7.660242912999962,0.0],[110.494982077000103,-7.660486884999987,0.0],[110.495000072000082,-7.660633953999898,0.0],[110.49501309900009,-7.660744932999933,0.0],[110.494681092000064,-7.6607939209999,0.0],[110.494633040000082,-7.661473937999943,0.0],[110.495258046000018,-7.66136189799991,0.0],[110.495310104000069,-7.662421948999956,0.0],[110.495680047000036,-7.662538952999956,0.0],[110.495639043000011,-7.663074914999982,0.0],[110.495595053000017,-7.663353945999976,0.0],[110.495594045000104,-7.663384873999959,0.0],[110.495557047000062,-7.663375876999925,0.0],[110.495274084000101,-7.663360894999929,0.0],[110.494835095000013,-7.663339941999972,0.0],[110.494646112000012,-7.663322899999983,0.0],[110.494482098000034,-7.663307875999983,0.0],[110.493837063000043,-7.663220933999984,0.0],[110.493719105000054,-7.663204877999899,0.0],[110.493670060000085,-7.663204911,0.0],[110.49356703800008,-7.663202891,0.0],[110.493355039000036,-7.663176866999979,0.0],[110.493305103000083,-7.663170930000021,0.0],[110.493099067000088,-7.66315992599991,0.0],[110.493075045000055,-7.663179883999963,0.0],[110.493036070000116,-7.663830881,0.0],[110.493039112000105,-7.664103907999944,0.0],[110.493047087000051,-7.664376940999976,0.0],[110.493081100000026,-7.664570873999946,0.0],[110.492721075000077,-7.664474949999914,0.0],[110.492853049000075,-7.665156895999939,0.0],[110.49287505300002,-7.665263906999911,0.0],[110.493461135126978,-7.665223324917777,0.0],[110.493084,-7.665787,0.0]]],[[[110.487513348863118,-7.665626877945643,0.0],[110.487650104000082,-7.665624887999936,0.0],[110.487671987188833,-7.665686307887851,0.0],[110.487513348863118,-7.665626877945643,0.0]]]]}},
{"type":"Feature","properties":{"NAMOBJ":"","FCODE":"","REMARK":"Permukiman dan Tempat Kegiatan","SRS_ID":"","lcode":"GA0040","METADATA":"","SHAPE_Leng":0.00471329305,"SHAPE_Area":6.8823e-07},"geometry":{"type":"MultiPolygon","coordinates":[[[[110.489898097,-7.655267942999913,0.0],[110.489965091000045,-7.655891934999939,0.0],[110.489951111000039,-7.655890922999944,0.0],[110.489612056000055,-7.65589694399991,0.0],[110.489586072000037,-7.656308934999981,0.0],[110.48937405000008,-7.656304885999912,0.0],[110.489342092000101,-7.656710900999933,0.0],[110.489122054000092,-7.656657917,0.0],[110.489244040000059,-7.655611906999951,0.0],[110.489056098000063,-7.655540874999936,0.0],[110.489045096000041,-7.655424923999934,0.0],[110.489438065000044,-7.655472867999904,0.0],[110.489459088,-7.655208913,0.0],[110.489898097,-7.655267942999913,0.0]]]]}},
{"type":"Feature","properties":{"NAMOBJ":"","FCODE":"","REMARK":"Permukiman dan Tempat Kegiatan","SRS_ID":"","lcode":"GA0040","METADATA":"","SHAPE_Leng":0.20377452021,"SHAPE_Area":0.00016102162},"geometry":{"type":"MultiPolygon","coordinates":[[[[110.504976,-7.675784,0.0],[110.504806000000116,-7.675759,0.0],[110.50480501451797,-7.675758870331226,0.0],[110.504803098000096,-7.675729936999989,0.0],[110.504764078000065,-7.67565790499998,0.0],[110.505518038000019,-7.674604931999987,0.0],[110.505518606465756,-7.674604855194137,0.0],[110.504976,-7.675784,0.0]]]]}},
{"type":"Feature","properties":{"NAMOBJ":"","FCODE":"","REMARK":"Permukiman dan Tempat Kegiatan","SRS_ID":"","lcode":"GA0040","METADATA":"","SHAPE_Leng":0.01296043102,"SHAPE_Area":5.51289e-06},"geometry":{"type":"MultiPolygon","coordinates":[[[[110.502216108000098,-7.671427930999933,0.0],[110.502200078000016,-7.671581921999973,0.0],[110.502134062000067,-7.671710897999986,0.0],[110.501817062000043,-7.672283889999967,0.0],[110.501831103000043,-7.672360866999941,0.0],[110.501894105000105,-7.672445948999965,0.0],[110.502408087000092,-7.673051916999921,0.0],[110.50271408800009,-7.673578876,0.0],[110.502717089000072,-7.673699880999976,0.0],[110.502652101000123,-7.673777940999951,0.0],[110.502515042000056,-7.673853930999933,0.0],[110.502229047000114,-7.673932910999984,0.0],[110.501760044000022,-7.673993953999972,0.0],[110.501756098000058,-7.673979930999966,0.0],[110.501660105000013,-7.673845886999977,0.0],[110.501547050000084,-7.673724933999917,0.0],[110.501442097,-7.673581923999986,0.0],[110.501407071000045,-7.673419915999904,0.0],[110.501367085000112,-7.673086885999972,0.0],[110.501246087000041,-7.672852878999972,0.0],[110.501150092,-7.672722903999965,0.0],[110.501087068000032,-7.672718941,0.0],[110.500729085000074,-7.672723952999963,0.0],[110.500516041000125,-7.67269087699998,0.0],[110.500321094000071,-7.672590899999967,0.0],[110.500210057000032,-7.672470944999901,0.0],[110.500124053000022,-7.672299921999961,0.0],[110.500096082000113,-7.672115945000016,0.0],[110.500051086000028,-7.672104949999905,0.0],[110.500000313000086,-7.672110950999958,0.0],[110.500000278000087,-7.672110938999957,0.0],[110.500000088000064,-7.672110950999958,0.0],[110.50000000100006,-7.672110960999959,0.0],[110.49993204300003,-7.672118919999907,0.0],[110.499222103000093,-7.671707879999914,0.0],[110.499428074000079,-7.671074891999943,0.0],[110.500000002000064,-7.671358857,0.0],[110.500000069000066,-7.671358891,0.0],[110.500000282000087,-7.671358984999912,0.0],[110.500449076000095,-7.671580887999976,0.0],[110.500798112000012,-7.670783925999938,0.0],[110.500633078000035,-7.670422899,0.0],[110.501055069000046,-7.670086879999907,0.0],[110.501076091000101,-7.670140891999935,0.0],[110.501497067000031,-7.670676937999968,0.0],[110.501603080000095,-7.670744886,0.0],[110.501859070000052,-7.670877942,0.0],[110.50187106900006,-7.67097490399993,0.0],[110.501986109000086,-7.671124888,0.0],[110.502172039000101,-7.67132794799992,0.0],[110.502216108000098,-7.671427930999933,0.0]]]]}},
{"type":"Feature","properties":{"NAMOBJ":"","FCODE":"","REMARK":"Permukiman dan Tempat Kegiatan","SRS_ID":"","lcode":"GA0040","METADATA":"","SHAPE_Leng":0.00900341792,"SHAPE_Area":3.30521e-06},"geometry":{"type":"MultiPolygon","coordinates":[[[[110.502088083000075,-7.660963882000019,0.0],[110.502115103000094,-7.661001895999966,0.0],[110.502628048000076,-7.66158887099995,0.0],[110.502832043000083,-7.661747910999964,0.0],[110.501980105000115,-7.661881946999952,0.0],[110.502008061000126,-7.66220790800001,0.0],[110.501881093000094,-7.662224943999909,0.0],[110.501974080000068,-7.663013917999908,0.0],[110.501714102000051,-7.663033874999961,0.0],[110.501565111000062,-7.663022940999944,0.0],[110.50155510600004,-7.663010900999925,0.0],[110.501503111,-7.663040865,0.0],[110.501413069000094,-7.663062917999966,0.0],[110.501154089000067,-7.663125922999939,0.0],[110.501070054000053,-7.663125915999938,0.0],[110.500785091000097,-7.661745904999975,0.0],[110.500455050000056,-7.661840930999933,0.0],[110.500204097000079,-7.660981868,0.0],[110.50037303900011,-7.661001868999964,0.0],[110.50035308700005,-7.660864927,0.0],[110.500343102000031,-7.660771947999947,0.0],[110.501471051000095,-7.660778951999905,0.0],[110.50162306100006,-7.660957917999969,0.0],[110.502088083000075,-7.660963882000019,0.0]]]]}},
{"type":"Feature","properties":{"NAMOBJ":"","FCODE":"","REMARK":"Permukiman dan Tempat Kegiatan","SRS_ID":"","lcode":"GA0040","METADATA":"","SHAPE_Leng":0.00337192164,"SHAPE_Area":7.1585e-07},"geometry":{"type":"MultiPolygon","coordinates":[[[[110.498718064000045,-7.663695910999937,0.0],[110.498988089000093,-7.663714945,0.0],[110.499103080000012,-7.663711912999929,0.0],[110.498955047000024,-7.664671891999955,0.0],[110.498576041000021,-7.664629940999948,0.0],[110.498570060000048,-7.664629933999947,0.0],[110.498271868000074,-7.664438423,0.0],[110.498243064000093,-7.664419923999979,0.0],[110.498248073000056,-7.663652949000024,0.0],[110.498272785000054,-7.663655206999945,0.0],[110.498718064000045,-7.663695910999937,0.0]]]]}},
{"type":"Feature","properties":{"NAMOBJ":"","FCODE":"","REMARK":"Permukiman dan Tempat Kegiatan","SRS_ID":"","lcode":"GA0040","METADATA":"","SHAPE_Leng":0.08283560119,"SHAPE_Area":4.801673e-05},"geometry":{"type":"MultiPolygon","coordinates":[[[[110.493517,-7.654824,0.0],[110.493529,-7.654936,0.0],[110.493562,-7.655091,0.0],[110.493605,-7.655261,0.0],[110.493604988828523,-7.65526168146333,0.0],[110.493561065000037,-7.655091935,0.0],[110.493528054000052,-7.654936889999966,0.0],[110.493517045000033,-7.654825913999932,0.0],[110.493516857012878,-7.654823994398812,0.0],[110.493517,-7.654824,0.0]]],[[[110.493489,-7.655994,0.0],[110.493598000000105,-7.65599,0.0],[110.493803,-7.655981000999958,0.0],[110.493859,-7.655978,0.0],[110.493995,-7.655972,0.0],[110.494603,-7.655901,0.0],[110.4951030000001,-7.655829,0.0],[110.495196,-7.655815,0.0],[110.495669,-7.655723,0.0],[110.496516965972049,-7.655570006139453,0.0],[110.496517058000094,-7.655570904999934,0.0],[110.496519050000089,-7.655593877999969,0.0],[110.496586099000041,-7.655922869999923,0.0],[110.495738047000117,-7.656066936999942,0.0],[110.495669071000094,-7.655723925999983,0.0],[110.495196089000046,-7.655816881999947,0.0],[110.495102097000085,-7.655829884999957,0.0],[110.495104084000076,-7.656237930999968,0.0],[110.495155107000116,-7.656461907999937,0.0],[110.495301068000032,-7.656822915999964,0.0],[110.495536091000105,-7.657357933999911,0.0],[110.495683074000013,-7.657993865999948,0.0],[110.495763105000066,-7.658345932999946,0.0],[110.495828040000021,-7.658629884999904,0.0],[110.495822038000057,-7.658965935,0.0],[110.495824074000041,-7.659008758999988,0.0],[110.495823420000079,-7.65900885,0.0],[110.495823109000057,-7.659008893,0.0],[110.495496046000085,-7.658986895999956,0.0],[110.495466047,-7.659320928999971,0.0],[110.49469309300008,-7.659301936,0.0],[110.494696053000055,-7.658946890999932,0.0],[110.494268054000088,-7.65892992999995,0.0],[110.494037102000078,-7.658937887999986,0.0],[110.494002101000021,-7.658947885000014,0.0],[110.493007072000111,-7.658890916999919,0.0],[110.492993046000024,-7.658865940999895,0.0],[110.492858054000038,-7.658713940999931,0.0],[110.492709104000056,-7.658542934,0.0],[110.492675083000094,-7.658419901999938,0.0],[110.492615064000091,-7.658279928,0.0],[110.492493112000048,-7.657975921999974,0.0],[110.492553078000029,-7.657843866999972,0.0],[110.493170102000107,-7.657775952999948,0.0],[110.493177078000059,-7.657376870999968,0.0],[110.49366308700003,-7.657396885999937,0.0],[110.493803068000076,-7.655981921000013,0.0],[110.493598058000075,-7.655990903999957,0.0],[110.493489050000022,-7.655994935999935,0.0],[110.493424054000059,-7.655827915999971,0.0],[110.49342423280018,-7.655827598117088,0.0],[110.493489,-7.655994,0.0]]],[[[110.498917000000105,-7.655175,0.0],[110.498947,-7.655172,0.0],[110.499116,-7.655126,0.0],[110.499116017185088,-7.655125995291685,0.0],[110.499116097000112,-7.655126911999968,0.0],[110.49894610700008,-7.65517392199995,0.0],[110.498917097000074,-7.655175876999934,0.0],[110.498916222195007,-7.655175197702939,0.0],[110.498917000000105,-7.655175,0.0]]]]}},
{"type":"Feature","properties":{"NAMOBJ":"","FCODE":"","REMARK":"Permukiman dan Tempat Kegiatan","SRS_ID":"","lcode":"GA0040","METADATA":"","SHAPE_Leng":0.03396661424,"SHAPE_Area":1.500431e-05},"geometry":{"type":"MultiPolygon","coordinates":[[[[110.49859,-7.670014,0.0],[110.498590461432826,-7.670003797208626,0.0],[110.498590106000023,-7.670051907999945,0.0],[110.498265166000053,-7.670161293999936,0.0],[110.497993097000105,-7.670252881999964,0.0],[110.497993168136247,-7.670250933252378,0.0],[110.49859,-7.670014,0.0]]],[[[110.498608,-7.669616,0.0],[110.498897664986075,-7.668786958833016,0.0],[110.498918096000068,-7.668841904999926,0.0],[110.498607995279542,-7.669616104375309,0.0],[110.498608,-7.669616,0.0]]],[[[110.498255271017726,-7.668072292051308,0.0],[110.498267611000074,-7.668074138,0.0],[110.498654110000075,-7.668131953999893,0.0],[110.498665623098717,-7.668162916762673,0.0],[110.498255271017726,-7.668072292051308,0.0]]],[[[110.497697,-7.667949,0.0],[110.497697181320191,-7.66791602239987,0.0],[110.497697603440145,-7.667949133267434,0.0],[110.497697,-7.667949,0.0]]],[[[110.497705,-7.666494,0.0],[110.497736957735484,-7.665507304919417,0.0],[110.498270624000057,-7.665501476999939,0.0],[110.498503101000026,-7.665498936999906,0.0],[110.498515064000031,-7.665498951,0.0],[110.499558104000087,-7.665622884999948,0.0],[110.499410074000096,-7.665043929,0.0],[110.50000000100006,-7.665118938,0.0],[110.500000100000065,-7.665118951,0.0],[110.500000258000085,-7.665118971,0.0],[110.501440074000115,-7.665299863999955,0.0],[110.501387096000073,-7.664824929,0.0],[110.501189103000044,-7.66477595299995,0.0],[110.501114058000041,-7.664373881999989,0.0],[110.501110046000065,-7.66435289499994,0.0],[110.501110055000069,-7.664022899,0.0],[110.502451108000102,-7.663950925999899,0.0],[110.502444057000048,-7.663777914999972,0.0],[110.50242508500007,-7.663696953999935,0.0],[110.502405070000108,-7.66367793999996,0.0],[110.503089092000039,-7.66360791799994,0.0],[110.503151093000014,-7.664234886999946,0.0],[110.503412101000023,-7.664228947999987,0.0],[110.503429050000094,-7.666054947,0.0],[110.503288054000066,-7.666045921999956,0.0],[110.503199080000073,-7.666049888000018,0.0],[110.503036083,-7.666058923999966,0.0],[110.503116060000053,-7.666141945999907,0.0],[110.503139083000093,-7.666661883999939,0.0],[110.503220106000043,-7.666937895999951,0.0],[110.503294089000036,-7.667225927999979,0.0],[110.50342005300007,-7.667301946999963,0.0],[110.503517084000094,-7.667377933999944,0.0],[110.503288109000067,-7.667610902999947,0.0],[110.503272093000078,-7.667625895999944,0.0],[110.502580076000115,-7.667492879999951,0.0],[110.502136098000051,-7.667063885999895,0.0],[110.500290043000078,-7.66722986599995,0.0],[110.500282041000034,-7.667229946999957,0.0],[110.500061659000011,-7.667210879999978,0.0],[110.500058286000083,-7.666577015999934,0.0],[110.500003564000096,-7.666508402999941,0.0],[110.500000272000079,-7.666504226999951,0.0],[110.5,-7.666503885999923,0.0],[110.499894046000094,-7.666370903999933,0.0],[110.498957055000105,-7.66653495,0.0],[110.498967059000037,-7.666163905999948,0.0],[110.498662066000023,-7.666187877999977,0.0],[110.498624094,-7.666181863999924,0.0],[110.498623048000084,-7.666179874999937,0.0],[110.498384059000031,-7.666024950999908,0.0],[110.498270020000092,-7.666017049999965,0.0],[110.498153057000096,-7.666008946,0.0],[110.49823608500013,-7.666484911999952,0.0],[110.497704992212107,-7.666495416425843,0.0],[110.497705,-7.666494,0.0]]],[[[110.497679956688842,-7.665509379410646,0.0],[110.497680085000042,-7.66550792599994,0.0],[110.49771000508693,-7.665507599256676,0.0],[110.497679956688842,-7.665509379410646,0.0]]]]}},
{"type":"Feature","properties":{"NAMOBJ":"","FCODE":"","REMARK":"Permukiman dan Tempat Kegiatan","SRS_ID":"","lcode":"GA0040","METADATA":"","SHAPE_Leng":0.02012391325,"SHAPE_Area":9.02347e-06},"geometry":{"type":"MultiPolygon","coordinates":[[[[110.500117483000011,-7.657999663999895,0.0],[110.500109768000087,-7.656600622999957,0.0],[110.500582076000086,-7.656508925999919,0.0],[110.501020060000087,-7.656423881999988,0.0],[110.501061106000108,-7.656486871999959,0.0],[110.501437074000037,-7.657077939000015,0.0],[110.50145811,-7.657182868,0.0],[110.501689090000113,-7.657407866999957,0.0],[110.501971084000076,-7.657997921999929,0.0],[110.502020082000044,-7.658100894000011,0.0],[110.502327065000046,-7.658740897999941,0.0],[110.502125049000114,-7.658810930999962,0.0],[110.50183407400003,-7.658871909999945,0.0],[110.501802073000036,-7.658873953999937,0.0],[110.501755108000069,-7.658886922999944,0.0],[110.501623106000068,-7.65892493299998,0.0],[110.501425098000112,-7.658954909999974,0.0],[110.500952061000049,-7.659027886999972,0.0],[110.500549048000011,-7.659062869999936,0.0],[110.500133067000064,-7.659060939999954,0.0],[110.500000235000087,-7.659060876999948,0.0],[110.500000065000066,-7.659060875999948,0.0],[110.50000000100006,-7.659060875999948,0.0],[110.499947057000028,-7.659060905999951,0.0],[110.499559101000088,-7.6590699509999,0.0],[110.499409073000024,-7.659051869999914,0.0],[110.499367052000096,-7.659053901999904,0.0],[110.498313060000015,-7.659037934,0.0],[110.498278191000068,-7.659036214999951,0.0],[110.497522112000027,-7.658998940999975,0.0],[110.497542085000092,-7.65815990499992,0.0],[110.497689076000086,-7.6578989,0.0],[110.497707082000062,-7.657780901999914,0.0],[110.497653042000124,-7.657513874999935,0.0],[110.497517064000064,-7.656606922999945,0.0],[110.49752008300004,-7.65658287,0.0],[110.497571107000084,-7.656487882999954,0.0],[110.497623086000033,-7.656472930999961,0.0],[110.498025068000075,-7.656357912999948,0.0],[110.498281385000055,-7.656304690999985,0.0],[110.498420061000076,-7.656275895999912,0.0],[110.498994073000048,-7.656161890999982,0.0],[110.499154080000054,-7.656084936999921,0.0],[110.499182046000058,-7.656273886999923,0.0],[110.499197106000068,-7.656372931999947,0.0],[110.499243044000053,-7.656600882999978,0.0],[110.499240050000068,-7.65698794199994,0.0],[110.499227058000059,-7.65761292499996,0.0],[110.499273047000131,-7.657989911999977,0.0],[110.5,-7.657998307999961,0.0],[110.500000230000083,-7.657998310999961,0.0],[110.500117483000011,-7.657999663999895,0.0]],[[110.500117483000011,-7.657999663999895,0.0],[110.500133162000068,-7.658594836999935,0.0],[110.501328045000079,-7.658577953999959,0.0],[110.501311096000094,-7.658558942999985,0.0],[110.501162098000023,-7.658362887999928,0.0],[110.500987073000019,-7.658108922999965,0.0],[110.5009160930001,-7.658005925999969,0.0],[110.500117483000011,-7.657999663999895,0.0]]]]}},
{"type":"Feature","properties":{"NAMOBJ":"","FCODE":"","REMARK":"Permukiman dan Tempat Kegiatan","SRS_ID":"","lcode":"GA0040","METADATA":"","SHAPE_Leng":0.0041935109,"SHAPE_Area":1.05077e-06},"geometry":{"type":"MultiPolygon","coordinates":[[[[110.49843208900009,-7.661269923999939,0.0],[110.498498080000047,-7.662313894999986,0.0],[110.498405086000076,-7.662303928999961,0.0],[110.49827438200002,-7.662290765999938,0.0],[110.498018080000037,-7.662264952999934,0.0],[110.497568079000104,-7.662199947999973,0.0],[110.497552068000019,-7.661890911999894,0.0],[110.497548098000053,-7.661832938999982,0.0],[110.497552066000111,-7.661509908999989,0.0],[110.497559102000068,-7.66092787599997,0.0],[110.498275649000036,-7.66120862799993,0.0],[110.49843208900009,-7.661269923999939,0.0]]]]}}
]
}
