{
"type": "FeatureCollection",
"name": "SUNGAI_LN_Clipped",
"crs": { "type": "name", "properties": { "name": "urn:ogc:def:crs:OGC:1.3:CRS84" } },
"xy_coordinate_resolution": 1e-15,
"features": [
{"type":"Feature","properties":{"NAMOBJ":"","TIPSNG":0,"KLSSNG":0,"FCODE":"","REMARK":"Sungai Satu Garis","SRS_ID":"","lcode":"DA0280","METADATA":"","NAMWS":"","NAMDAS":"","STATUS":"","WMAX":0.0,"DBTMAX":0.0,"SLPRT":0.0,"SHAPE_Leng":0.00229616158},"geometry":{"type":"MultiLineString","coordinates":[[[110.486671856011839,-7.663379700080762,196.565706293543741],[110.486671874000081,-7.663379851999911,393.130000000004657],[110.486556187000105,-7.663943789999943,389.830000000001746],[110.48646512400002,-7.664429727,386.130000000004657],[110.486466478655785,-7.664438980925813,193.052239274439785]],[[110.486701751890962,-7.665148827357308,190.529691631249761],[110.486705166480533,-7.665174115858943,190.476290531376236]]]}},
{"type":"Feature","properties":{"NAMOBJ":"","TIPSNG":0,"KLSSNG":0,"FCODE":"","REMARK":"Sungai Satu Garis","SRS_ID":"","lcode":"DA0280","METADATA":"","NAMWS":"","NAMDAS":"","STATUS":"","WMAX":0.0,"DBTMAX":0.0,"SLPRT":0.0,"SHAPE_Leng":0.03855145197},"geometry":{"type":"MultiLineString","coordinates":[[[110.490238043857502,-7.653603998280775,221.062811680554546],[110.490238187000017,-7.653605351999941,442.118000000002212],[110.490246999000121,-7.65368847699998,441.649999999994179],[110.490298562000035,-7.653891164999964,440.860000000000582],[110.490464374000084,-7.654105539999938,439.529999999998836],[110.490611124000054,-7.654332914999921,438.830000000001746],[110.49067449900005,-7.654547039999963,436.960000000006403],[110.490712812000112,-7.654791789999964,436.080000000001746],[110.490675312000036,-7.65513310199996,433.779999999998836],[110.490422687,-7.655488601999975,429.570000000006985],[110.490292187000037,-7.655669415000014,429.080000000001746],[110.490217249000054,-7.655874476999928,428.630000000004657],[110.490221437000045,-7.655906851999942,428.520000000004075],[110.490221624000071,-7.655908101999957,428.515499999994063],[110.490258874000034,-7.656193164999918,427.539999999993597],[110.490193999,-7.656415476999927,426.259999999994761],[110.490212562000025,-7.656611039999943,425.389999999999418],[110.49031368700004,-7.656980851999988,425.020000000004075],[110.490489937000063,-7.657337352,423.080000000001746],[110.490570562000073,-7.65749960200001,422.330000000001746],[110.490588687000056,-7.65759560199996,421.619000000006054],[110.490600687000082,-7.657658914999958,421.149999999994179],[110.490559812000072,-7.657807101999962,420.720000000001164],[110.490486062000102,-7.657950539999929,420.020000000004075],[110.490531374000028,-7.658175476999888,418.179999999993015],[110.490598937000115,-7.65845704,416.509999999994761],[110.490588749000068,-7.658606664999949,415.970000000001164],[110.490569312000062,-7.65870460199997,415.910000000003492],[110.490778749000071,-7.658941789999966,414.179999999993015],[110.490868124000087,-7.659064726999924,413.179999999993015],[110.490905687000094,-7.659273539999971,412.729999999995925],[110.490949499000067,-7.659467914999977,412.667000000001281],[110.490954437000127,-7.659489726999917,412.660000000003492],[110.49104112400002,-7.65969385200002,411.330000000001746],[110.491133062000074,-7.659890601999956,410.850000000005821],[110.491184562000072,-7.660102039999954,409.940000000002328],[110.491155812000088,-7.660543601999985,408.270000000004075],[110.491155812000088,-7.660550289999916,408.239000000001397],[110.491149999000058,-7.661114914999915,405.610000000000582],[110.491122249000071,-7.661427976999972,404.149999999994179],[110.490982999,-7.661794039999974,402.0],[110.490911374000021,-7.662006476999965,401.029999999998836],[110.490883874000062,-7.662228539999953,399.190000000002328],[110.490905437000066,-7.662665726999977,397.759999999994761],[110.490946312000077,-7.662854539999968,396.610000000000582],[110.491049124000057,-7.663138039999977,394.673999999999069],[110.491049187000058,-7.663138414999919,394.671900000001187],[110.491168249000054,-7.663466727,392.429999999993015],[110.491184062000031,-7.663628539999971,391.610000000000582],[110.491130687000052,-7.663756226999967,390.889999999999418],[110.490355937000075,-7.664503351999967,386.907399999996414],[110.490279187000027,-7.664598601999943,386.830000000001746],[110.490233624000084,-7.664876726999951,386.80000000000291],[110.490286187000081,-7.665281351999946,385.160000000003492],[110.490316999000058,-7.665673476999972,383.830000000001746],[110.490313624000038,-7.665792664999975,381.25],[110.490255831842347,-7.665876576167966,190.165478823028508]]]}},
{"type":"Feature","properties":{"NAMOBJ":"","TIPSNG":0,"KLSSNG":0,"FCODE":"","REMARK":"Sungai Satu Garis","SRS_ID":"","lcode":"DA0280","METADATA":"","NAMWS":"","NAMDAS":"","STATUS":"","WMAX":0.0,"DBTMAX":0.0,"SLPRT":0.0,"SHAPE_Leng":0.00824246721},"geometry":{"type":"MultiLineString","coordinates":[[[110.497016239721475,-7.671212859434281,177.885833976858606],[110.497044749000082,-7.671662914999937,353.440000000002328],[110.497115062000049,-7.672461289999914,350.940000000002328],[110.497173749000098,-7.673024101999941,348.600000000005821],[110.49725768700003,-7.673962351999945,342.130000000004657],[110.49727388881692,-7.674137970676236,170.53460702464028]]]}},
{"type":"Feature","properties":{"NAMOBJ":"","TIPSNG":0,"KLSSNG":0,"FCODE":"","REMARK":"Alur Sungai","SRS_ID":"","lcode":"DA0280","METADATA":"","NAMWS":"","NAMDAS":"","STATUS":"","WMAX":0.0,"DBTMAX":0.0,"SLPRT":0.0,"SHAPE_Leng":0.02429560417},"geometry":{"type":"MultiLineString","coordinates":[[[110.502097891206901,-7.656199644086729,205.149453672707693],[110.502288062000048,-7.656329351999906,409.56600000000617],[110.502281499000034,-7.656494101999948,409.330000000001746],[110.502229562000096,-7.656750476999933,408.080000000001746],[110.502175687000076,-7.657117476999924,406.259999999994761],[110.502188437000058,-7.65743829,404.309999999997672],[110.502411374000033,-7.657993101999987,402.089999999996508],[110.502471374000024,-7.658246602,401.179999999993015],[110.502618249000093,-7.658556664999898,399.804000000003725],[110.502620749000044,-7.658562039999898,399.779999999998836],[110.502805812000076,-7.659173476999952,396.470000000001164],[110.502860062000124,-7.659549601999986,395.130000000004657],[110.502903999000026,-7.659807540000012,394.309999999997672],[110.503089437000099,-7.660239164999931,392.190000000002328],[110.503155937000088,-7.660449664999939,390.44999999999709],[110.503215499000049,-7.660662539999967,389.690000000002328],[110.50325118700006,-7.660837977,388.75],[110.503297624000083,-7.660960726999948,388.30000000000291],[110.503324874000029,-7.661064851999948,387.690000000002328],[110.503439687000125,-7.661301101999955,386.75],[110.503532624000087,-7.661558976999975,384.94999999999709],[110.503539874000055,-7.661782039999958,383.979999999995925],[110.503562124000041,-7.662144477000014,380.639999999999418],[110.503644312000091,-7.662423914999954,380.270000000004075],[110.503704312000082,-7.662723102000017,380.059999999997672],[110.503747062000059,-7.662840664999974,380.05000000000291],[110.503889812000054,-7.662912226999945,379.55000000000291],[110.503968499000081,-7.662781664999978,378.330000000001746]]]}},
{"type":"Feature","properties":{"NAMOBJ":"","TIPSNG":0,"KLSSNG":0,"FCODE":"","REMARK":"Sungai Satu Garis","SRS_ID":"","lcode":"DA0280","METADATA":"","NAMWS":"","NAMDAS":"","STATUS":"","WMAX":0.0,"DBTMAX":0.0,"SLPRT":0.0,"SHAPE_Leng":0.03065353062},"geometry":{"type":"MultiLineString","coordinates":[[[110.486165059061847,-7.651745001221913,228.99901209871453],[110.486164999000067,-7.651745852,457.993000000002212],[110.486164624000125,-7.651751101999908,457.962199999994482],[110.486150062000064,-7.651958164999899,456.740000000005239],[110.486095975142504,-7.652229202166708,227.284817826043678]],[[110.486330500134457,-7.652993311912308,224.46184124726193],[110.486269188273894,-7.653329377542694,223.283637195264845]],[[110.486366733858745,-7.653529300359447,222.707321502151586],[110.486367124000083,-7.653530101999932,445.410000000003492],[110.486296499000019,-7.653609601999937,445.100000000005821],[110.486269626400812,-7.653670145468665,222.375982844520763]],[[110.486256837445822,-7.653755251085189,222.055506867005931],[110.486255249000067,-7.653793226999943,443.80000000000291],[110.486251062000079,-7.653893476999977,442.979999999995925],[110.486344874000025,-7.65408278999992,441.19999999999709],[110.486396437000025,-7.654546601999927,438.380000000004657],[110.486502124000069,-7.654655915,437.899999999994179],[110.486614249000112,-7.654784726999912,437.169999999998254],[110.486745562000053,-7.654999351999907,436.020000000004075],[110.486842374000062,-7.65516316499996,435.529999999998836],[110.486829812000096,-7.655262664999933,435.380000000004657],[110.486750437000097,-7.655389726999966,434.589999999996508],[110.4866593120001,-7.655442226999957,434.05000000000291],[110.486558062000071,-7.655514789999922,433.630000000004657],[110.486534187000061,-7.655593351999938,433.020000000004075],[110.486567812,-7.655667914999979,432.559999999997672],[110.486796499,-7.656095601999928,430.509999999994761],[110.486800437000056,-7.656255039999975,429.929999999993015],[110.486830499000064,-7.656352726999975,429.839999999996508],[110.486932937000091,-7.656464726999916,429.350000000005821],[110.487017499000075,-7.65656129,428.540999999997439],[110.487078249000035,-7.656630539999957,427.960000000006403],[110.487094437000053,-7.656742726999914,427.44999999999709],[110.487057187000076,-7.656837539999943,427.289999999993597],[110.487058812000029,-7.656901039999957,427.229999999995925],[110.487358624000052,-7.657073476999924,426.389999999999418],[110.48739256200011,-7.657168601999979,426.05000000000291],[110.487364374,-7.657275601999951,425.539999999993597],[110.487211312000042,-7.657554352000011,424.270000000004075],[110.487143937000056,-7.657720789999926,423.660000000003492],[110.487134374000064,-7.657906601999935,423.570000000006985],[110.487140187000108,-7.657946351999938,423.282999999995809],[110.487178437000068,-7.658207914999908,421.389999999999418],[110.487266874000014,-7.658393226999964,420.539999999993597],[110.487344249000017,-7.658660414999956,418.90230000000156],[110.487342124000023,-7.658668664999928,418.898000000001048],[110.487328562000059,-7.658721664999961,418.869999999995343],[110.487225812000077,-7.658888289999981,418.210000000006403],[110.486997249000083,-7.659158476999954,417.059999999997672],[110.486869999000035,-7.659375414999962,417.059999999997672],[110.486827062000131,-7.659589039999963,414.752999999996973],[110.486806187000084,-7.659693039999953,413.630000000004657],[110.486790562000039,-7.660021102,411.789999999993597],[110.486771999000013,-7.6601346649999,410.600000000005821],[110.486817749000068,-7.660416289999931,408.509999999994761],[110.486789999000081,-7.660551539999931,408.089999999996508],[110.486830999000105,-7.66068429,407.813899999993737],[110.486832812000074,-7.660689976999928,407.801999999996042],[110.486870124000049,-7.660810789999976,407.55000000000291],[110.486888999000101,-7.661108539999921,406.460000000006403],[110.486918187000029,-7.661345789999922,405.880000000004657],[110.486872937000015,-7.661549976999941,405.0],[110.486783999000025,-7.661709976999946,403.970000000001164],[110.486721499000097,-7.661848476999948,403.240000000005239],[110.486718312,-7.662077789999914,402.69999999999709],[110.486700187000025,-7.662735726999907,398.520000000004075],[110.486621134068258,-7.662949133007745,198.566728232341205]]]}},
{"type":"Feature","properties":{"NAMOBJ":"","TIPSNG":0,"KLSSNG":0,"FCODE":"","REMARK":"Sungai Satu Garis","SRS_ID":"","lcode":"DA0280","METADATA":"","NAMWS":"","NAMDAS":"","STATUS":"","WMAX":0.0,"DBTMAX":0.0,"SLPRT":0.0,"SHAPE_Leng":0.03200048282},"geometry":{"type":"MultiLineString","coordinates":[[[110.493518958165055,-7.654842276206517,218.671633000988976],[110.493528374000022,-7.654937289999923,436.830000000001746],[110.49356137400008,-7.655092039999937,436.190000000002328],[110.493604624000028,-7.655261726999944,433.55000000000291],[110.493603273710121,-7.655366303687098,216.402604246683836]],[[110.493424383720722,-7.655827985866755,215.545269589975874],[110.493424249000014,-7.65582822700001,431.089999999996508],[110.493486749000041,-7.655990726999955,429.90219999999681],[110.493488624000108,-7.655995539999909,429.86699999999837],[110.493502687000031,-7.656032164999919,429.600000000005821],[110.493497374000029,-7.656393601999982,429.320000000006985],[110.493474624000015,-7.656516226999914,428.630000000004657],[110.493271062000048,-7.656720851999969,427.229999999995925],[110.493049062000068,-7.657044164999986,424.889999999999418],[110.492914249000094,-7.657331664999971,422.210000000006403],[110.492760437000072,-7.65760354,420.880000000004657],[110.492676124000113,-7.657684914999978,419.960000000006403],[110.492553062000056,-7.657843851999894,418.320000000006985],[110.492493374000091,-7.657975789999975,417.899999999994179],[110.492615374000067,-7.658279726999988,416.070000000006985],[110.492675187000131,-7.658420602,415.039999999993597],[110.492709374000114,-7.658543164999935,414.679999999993015],[110.49285812400008,-7.658714414999983,414.279999999998836],[110.492992562000012,-7.65886622700002,413.399999999994179],[110.493006874000031,-7.658891476999978,412.970000000001164],[110.492996374000057,-7.659039476999967,411.970000000001164],[110.492940999,-7.659206415000012,410.570000000006985],[110.492890937000126,-7.65964529,408.380000000004657],[110.492897562000053,-7.659707851999935,408.201000000000931],[110.492930624000039,-7.660015414999981,407.320000000006985],[110.493016374000021,-7.660268226999937,406.559999999997672],[110.493094749000107,-7.660472039999926,405.979999999995925],[110.493131687000059,-7.660817351999986,404.160000000003492],[110.493098187000044,-7.661015601999958,403.25],[110.493076062000071,-7.66113572699995,403.070000000006985],[110.493132437000028,-7.661417790000018,401.69999999999709],[110.493172374000054,-7.661809352,399.779999999998836],[110.493379812000072,-7.662378227,398.05000000000291],[110.493450874000089,-7.66262341499994,397.05000000000291],[110.49344737400007,-7.662732851999936,396.578999999997905],[110.493445312000077,-7.662799851999972,396.289999999993597],[110.493328249000072,-7.662936226999976,395.542000000001281],[110.493235687000052,-7.663044164999937,394.94999999999709],[110.493098874000097,-7.663160414999963,393.918000000005122],[110.49309593700012,-7.663162851999987,393.896299999993062],[110.493075312000101,-7.66318053999994,393.740000000005239],[110.49303624900007,-7.663830726999914,390.30000000000291],[110.493038749,-7.664104601999925,388.960000000006403],[110.493046749000044,-7.664376914999897,388.05000000000291],[110.493080749000015,-7.664571226999987,387.842000000004191],[110.49323637400002,-7.66480854,386.839999999996508],[110.4933339990001,-7.664977476999939,386.080000000001746],[110.493464255007851,-7.665218661870011,192.254172086145019]]]}},
{"type":"Feature","properties":{"NAMOBJ":"","TIPSNG":0,"KLSSNG":0,"FCODE":"","REMARK":"Sungai Satu Garis","SRS_ID":"","lcode":"DA0280","METADATA":"","NAMWS":"","NAMDAS":"","STATUS":"","WMAX":0.0,"DBTMAX":0.0,"SLPRT":0.0,"SHAPE_Leng":0.11980212629000001},"geometry":{"type":"MultiLineString","coordinates":[[[110.499896312000033,-7.675054789999917,335.020000000004075],[110.500000284000023,-7.67530134999989,333.988299999997253],[110.500000312000026,-7.675301414999984,333.987999999997555],[110.500080687000022,-7.675491976999941,333.190000000002328],[110.500199124000048,-7.675701601999966,332.339999999996508],[110.500251187000089,-7.675792226999915,331.610000000000582],[110.500331749000097,-7.676632289999967,328.880000000004657],[110.500446437000079,-7.67703404,327.149999999994179],[110.500542312000022,-7.67728204,326.899999999994179],[110.500703391145009,-7.677658203007635,162.116913990987115]]]}},
{"type":"Feature","properties":{"NAMOBJ":"","TIPSNG":0,"KLSSNG":0,"FCODE":"","REMARK":"Alur Sungai","SRS_ID":"","lcode":"DA0280","METADATA":"","NAMWS":"","NAMDAS":"","STATUS":"","WMAX":0.0,"DBTMAX":0.0,"SLPRT":0.0,"SHAPE_Leng":0.03626822678},"geometry":{"type":"MultiLineString","coordinates":[[[110.48406316544542,-7.655601459955857,218.551373369872465],[110.484089062000066,-7.655695414999945,436.5],[110.484154562000072,-7.655864351999979,435.470000000001164],[110.484173374000122,-7.656185789999929,434.440000000002328],[110.484211249000055,-7.656421851999921,433.410000000003492],[110.484293374000103,-7.656555351999954,431.960000000006403],[110.484464187000114,-7.656744164999944,430.779999999998836],[110.484631374000088,-7.656969226999914,429.080000000001746],[110.484812749000085,-7.657369851999933,425.929999999993015],[110.484824562000085,-7.657812789999989,424.509999999994761],[110.484858464369538,-7.657877291252131,211.965832730848206]],[[110.485984939950143,-7.659690679765551,205.800515293196668],[110.485984937000083,-7.659691164999975,411.600000000005821],[110.48595188515354,-7.660064860062557,205.093284125398014]],[[110.485909919171661,-7.660539341275267,204.195965860325543],[110.485909874000086,-7.660539851999941,408.389999999999418],[110.485905390012292,-7.660558464392658,204.149192150258756]],[[110.485900536917782,-7.660578927019775,204.098819564945245],[110.48580824900003,-7.660964914999939,406.30000000000291],[110.485808992711526,-7.660986832362554,203.11431326914834]],[[110.486161026977868,-7.6615477602849,201.470968732106485],[110.486161249000105,-7.661548039999959,402.940000000002328],[110.48616803249422,-7.661745188472879,201.01937491908896]],[[110.486168461779656,-7.662120951240735,200.302548957930128],[110.48616701561113,-7.662230098307569,200.112186553402381]]]}},
{"type":"Feature","properties":{"NAMOBJ":"","TIPSNG":0,"KLSSNG":0,"FCODE":"","REMARK":"Alur Sungai","SRS_ID":"","lcode":"DA0280","METADATA":"","NAMWS":"","NAMDAS":"","STATUS":"","WMAX":0.0,"DBTMAX":0.0,"SLPRT":0.0,"SHAPE_Leng":0.05990339733},"geometry":{"type":"MultiLineString","coordinates":[[[110.488765608329288,-7.651744002122828,224.260252535961683],[110.488765749000038,-7.651745226999955,448.509000000005472],[110.488830062000034,-7.652303851999902,443.259999999994761],[110.489052187000112,-7.65295460200001,443.080000000001746],[110.489143687000052,-7.65317679,442.19999999999709],[110.489216562000038,-7.653805101999948,438.679999999993015],[110.489222189937635,-7.653871469188476,219.198133497768993]],[[110.489223080971598,-7.653881976664376,219.175672717279355],[110.48922318700005,-7.653883226999929,438.346000000005006],[110.489232624000039,-7.653994164999959,437.869999999995343],[110.489201687000048,-7.65412779,436.380000000004657],[110.488735812000058,-7.655219601999923,429.869999999995343],[110.488670062000025,-7.65540910199997,428.630000000004657],[110.488601374000027,-7.655986226999937,426.419999999998254],[110.488723062000062,-7.656552664999909,425.75],[110.488806874000076,-7.65690154,425.169999999998254],[110.488845937000107,-7.657223164999964,424.660000000003492],[110.488923749000065,-7.658014539999984,419.570000000006985],[110.488955062000073,-7.658341789999971,417.479999999995925],[110.488757312000061,-7.659347101999929,411.880000000004657],[110.488662874000056,-7.659655914999989,409.789999999993597],[110.488235562000057,-7.660377664999933,408.419999999998254],[110.488047999000074,-7.660741789999951,406.789999999993597],[110.487981312000059,-7.660934601999918,405.631399999998393],[110.487978562000109,-7.660942476999947,405.584000000002561],[110.487931124000085,-7.661079539999919,404.759999999994761],[110.487814312000097,-7.661622414999984,401.119999999995343],[110.487787499000021,-7.661943164999967,399.610000000000582],[110.487774062000057,-7.662095289999941,398.850000000005821],[110.487687312000077,-7.662236665,397.880000000004657],[110.487591687000062,-7.662336352,397.55000000000291],[110.487468187000061,-7.663099351999973,393.610000000000582],[110.487393999000048,-7.663339101999915,390.902000000001863],[110.487345312000016,-7.663495976999927,389.130000000004657],[110.487094312000039,-7.664305726999958,384.160000000003492],[110.48706343700006,-7.664425039999971,383.642999999996391],[110.486981999000065,-7.664739289999948,382.279999999998836],[110.486898374000077,-7.66492060199994,381.279999999998836],[110.486705524234253,-7.665174364831024,190.475235151524998]]]}},
{"type":"Feature","properties":{"NAMOBJ":"Kali Lampar","TIPSNG":0,"KLSSNG":0,"FCODE":"","REMARK":"Sungai Satu Garis","SRS_ID":"","lcode":"DA0280","METADATA":"","NAMWS":"","NAMDAS":"","STATUS":"","WMAX":0.0,"DBTMAX":0.0,"SLPRT":0.0,"SHAPE_Leng":0.04777969433},"geometry":{"type":"MultiLineString","coordinates":[[[110.500000187000111,-7.655308601999915,421.879000000000815],[110.500000217000022,-7.655308615999916,421.878899999996065],[110.500000255000117,-7.655308632999917,421.878800000005867],[110.500032499000028,-7.655322914999944,421.759999999994761],[110.500261374000047,-7.655458914999917,420.30000000000291],[110.500494062000115,-7.655654164999907,419.720000000001164],[110.500546249000081,-7.655752289999944,418.630000000004657],[110.500553999,-7.655889851999957,417.679999999993015],[110.500498749000059,-7.656026789999919,416.529999999998836],[110.500456812000053,-7.65617079000002,414.009999999994761],[110.50050062400004,-7.656276226999951,413.669999999998254],[110.500582124000033,-7.656509039999941,412.677999999999884],[110.500592562000094,-7.656539039999936,412.55000000000291],[110.500672062,-7.656878351999945,411.55000000000291],[110.500777624000037,-7.657085289999925,409.44999999999709],[110.500866749000039,-7.657200414999947,408.75],[110.500991124000024,-7.657375226999934,408.259999999994761],[110.500966062000089,-7.657478789999976,407.720000000001164],[110.50088712400013,-7.657800914999983,406.440000000002328],[110.500916187000044,-7.658005976999986,405.009999999994761],[110.500986499000092,-7.658109226999914,404.339999999996508],[110.501161874000033,-7.658362851999938,403.610000000000582],[110.501311437000069,-7.658558851999901,402.940000000002328],[110.501327374000056,-7.658577664999948,402.813999999998487],[110.501615812000111,-7.658916039999967,400.539099999994505],[110.501623312000021,-7.658924851999897,400.479999999995925],[110.501765249000044,-7.659091415,399.360000000000582],[110.501874562000026,-7.659460101999953,396.740000000005239],[110.502005687000036,-7.660138914999985,394.399999999994179],[110.502085437000062,-7.660394164999966,392.220000000001164],[110.502109999000055,-7.660553664999929,391.460000000006403],[110.502088374000039,-7.66096410199996,390.001999999993131],[110.502114812000102,-7.661002226999917,389.850000000005821],[110.502627999000111,-7.661589476999923,385.860000000000582],[110.502831499000067,-7.661748351999924,383.888999999995576],[110.503024312000036,-7.661904289999947,383.429999999993015],[110.503171874000074,-7.662065726999982,382.69999999999709],[110.503201999000083,-7.66218735199992,382.190000000002328],[110.503222374000075,-7.663010039999955,379.820000000006985],[110.50316637400006,-7.663137851999961,378.360000000000582],[110.503082124000017,-7.663351915,376.380000000004657],[110.503088624000029,-7.663606851999953,375.380000000004657],[110.50308868700003,-7.663607851999947,375.376999999993131],[110.503151374000069,-7.664234914999961,373.504000000000815],[110.50316287400004,-7.664350039999894,373.160000000003492],[110.50312724900003,-7.664580476999953,372.860000000000582],[110.50307537400009,-7.664954414999984,371.789999999993597],[110.503007062000023,-7.665094476999938,370.880000000004657],[110.502891499000057,-7.665223476999953,370.0],[110.502728187000045,-7.665374227,369.179999999993015],[110.502693124000075,-7.665499039999927,368.720000000001164],[110.502718937000083,-7.665632226999934,368.240000000005239],[110.502826374000094,-7.665837476999952,367.169999999998254],[110.503036124000033,-7.666058664999957,366.756999999997788],[110.50303681200009,-7.66605941499993,366.755600000004051],[110.503115624000131,-7.666142539999969,366.600000000005821],[110.503138687000089,-7.66666222699998,364.25],[110.503219562000112,-7.666938039999975,363.589999999996508],[110.503294312000079,-7.667226226999928,362.130000000004657],[110.503287812000082,-7.66759954,360.460000000006403],[110.503287624000066,-7.667610664999939,360.404999999998836],[110.503269124000042,-7.668668977000019,355.139999999999418],[110.503328812000092,-7.668805976999986,354.470000000001164],[110.503640312000115,-7.669416289999946,352.610000000000582],[110.503644499000103,-7.669443852,352.100000000005821],[110.503636624000066,-7.669769226999927,350.490000000005239],[110.50356606200009,-7.670009851999941,349.850000000005821],[110.503482312000088,-7.670283851999963,348.360000000000582],[110.503393187000086,-7.670755727000016,346.600000000005821],[110.503423812000051,-7.670920601999979,345.380000000004657],[110.503451624000036,-7.67104691499995,344.100000000005821],[110.503512749000038,-7.671285351999961,343.410000000003492],[110.503653937000081,-7.671945664999972,341.94999999999709],[110.503631749000107,-7.672845289999978,338.970000000001164],[110.503571749000031,-7.673061477000013,337.779999999998836],[110.503565999000088,-7.673255289999974,336.690000000002328],[110.503568812000054,-7.67331141499991,336.570000000006985],[110.50359193700011,-7.673489101999957,336.289999999993597],[110.503668687000058,-7.673726101999938,335.5],[110.504117874000102,-7.674856164999914,329.520000000004075],[110.504534312,-7.675362726999905,328.210000000006403],[110.504706249000023,-7.675552601999895,327.479999999995925],[110.504763687000064,-7.675658351999941,327.301000000006752],[110.504802499000078,-7.675729789999901,327.035999999992782],[110.504805220425922,-7.675758897424377,163.392577764682073]]]}},
{"type":"Feature","properties":{"NAMOBJ":"Kali Woro","TIPSNG":0,"KLSSNG":0,"FCODE":"","REMARK":"Alur Sungai","SRS_ID":"","lcode":"DA0280","METADATA":"","NAMWS":"","NAMDAS":"","STATUS":"","WMAX":0.0,"DBTMAX":0.0,"SLPRT":0.0,"SHAPE_Leng":0.03933510749},"geometry":{"type":"MultiLineString","coordinates":[[[110.502559749450313,-7.656325641769595,201.658307601134936],[110.502560749000054,-7.656327227,403.312999999994645],[110.502899124000066,-7.656863789999894,402.089999999996508],[110.503067264885487,-7.657152146200023,200.385184885982966]],[[110.503074702354425,-7.657184301190368,200.305074144556016],[110.503267499000088,-7.6580210399999,396.440000000002328],[110.503282937000023,-7.658076289999942,396.229999999995925],[110.503349937000067,-7.658316039999972,395.320000000006985],[110.503456999000036,-7.658505164999989,394.960000000006403],[110.503797249000044,-7.65884378999994,394.75],[110.503841187000035,-7.65888754,392.470000000001164],[110.504309062000019,-7.659283164999968,389.970000000001164],[110.505029312000019,-7.660074665,386.820000000006985],[110.505438812000065,-7.66073222699996,383.44999999999709],[110.505577437000071,-7.661015414999943,383.0],[110.505711687000073,-7.661550101999952,379.889999999999418],[110.50573405195648,-7.662171495226057,187.879062152053592]],[[110.505788237768954,-7.662906626040316,186.025173944567371],[110.50578824900002,-7.662906726999934,372.05000000000291],[110.505975812000088,-7.663402414999913,368.279999999998836],[110.506298062000013,-7.664220914999957,362.220000000001164],[110.506414249000031,-7.664480102,360.440000000002328],[110.506553937000049,-7.664650727,360.389999999999418],[110.506783437000109,-7.664786351999934,360.289999999993597],[110.507265437000029,-7.664903164999918,360.080000000001746],[110.507565437000068,-7.664959476999959,358.759999999994761],[110.507807374,-7.665094165,357.229999999995925],[110.50902937400005,-7.666495914999897,353.89890000000014],[110.50902968700008,-7.666496351999934,353.898000000001048],[110.509066999000055,-7.666595976999917,353.820000000006985],[110.509066749190396,-7.666667235696322,176.910000000003492]],[[110.506930080957133,-7.668774222262732,175.486769632767135],[110.506930187000094,-7.668775351999939,350.970000000001164],[110.507477087472523,-7.670269723635999,172.660834119896947]],[[110.50747969466137,-7.67029129219828,172.565072314517579],[110.507487746151824,-7.670360846160746,172.252555880422278]],[[110.50748182816838,-7.670381136732246,172.049724817118999],[110.507481687000066,-7.670381601999969,344.089999999996508],[110.507475863036206,-7.670420598375925,171.860074980636455]],[[110.507443783241712,-7.670765276767065,170.672581113677353],[110.507444624000115,-7.670964039999932,340.86699999999837],[110.507446748146805,-7.671465525564138,169.830242315470514]]]}}
]
}
